{"type":"FeatureCollection","features":[{"type":"Feature","id":1,"geometry":{"type":"MultiLineString","coordinates":[[[-72.794600574999947,43.655462697000075],[-72.793109999999956,43.655069000000026],[-72.79274799999996,43.655102000000056],[-72.792223999999976,43.655179000000032],[-72.791564999999935,43.654508000000078],[-72.790747999999951,43.654105000000072],[-72.790709999999933,43.654193000000078],[-72.789750999999967,43.655610000000081],[-72.789297999999974,43.656426000000067],[-72.789368999999965,43.657236000000069],[-72.789492999999936,43.657470000000046],[-72.790276999999946,43.658070000000066],[-72.792122999999947,43.658429400000045],[-72.793694999999957,43.658804000000032],[-72.795496999999955,43.659619000000077],[-72.796488999999951,43.660180000000025],[-72.797364999999957,43.660929000000067],[-72.802759599999945,43.666784200000052],[-72.803479899999957,43.667603100000065],[-72.80351399999995,43.667647000000045],[-72.803588499999989,43.667802600000073],[-72.803639999999973,43.668067000000065],[-72.803628999999944,43.668137000000058],[-72.803896599999973,43.668177400000047],[-72.804571099999976,43.668228100000078],[-72.805307999999968,43.668559000000073],[-72.805619999999976,43.66889400000008],[-72.805516099999977,43.669203300000049],[-72.805495999999948,43.669712000000061],[-72.805670499999962,43.670107600000051],[-72.806033399999933,43.670534200000077],[-72.807046999999955,43.671604000000059],[-72.807784999999967,43.672594000000061],[-72.808478199999968,43.673250800000062],[-72.809142999999949,43.673881000000051],[-72.809507799999949,43.674444300000062],[-72.809913999999935,43.675550000000044],[-72.810469999999953,43.67704400000008],[-72.810504499999979,43.677883200000053],[-72.81077259999995,43.679129400000079],[-72.810780999999963,43.679353000000049],[-72.810972999999933,43.680137000000059],[-72.811791999999969,43.680892000000028],[-72.813310999999942,43.682577000000038],[-72.813593999999966,43.683997000000033],[-72.813694999999939,43.685504000000037],[-72.813437999999962,43.686567000000025],[-72.812966999999958,43.687667000000033],[-72.81191599999994,43.688895000000059],[-72.811788999999976,43.689865000000054],[-72.812154999999962,43.690744000000052],[-72.813252999999975,43.691637000000071],[-72.813656299999934,43.692139100000077],[-72.814300899999978,43.693850100000077],[-72.814246999999966,43.695124000000078],[-72.813983999999948,43.696094000000073],[-72.813778899999988,43.696978000000058],[-72.813818999999967,43.697741000000065],[-72.814433099999974,43.698473600000057],[-72.815694999999948,43.699166000000048],[-72.816469999999981,43.69991200000004],[-72.817229999999938,43.700644000000068],[-72.818134599999951,43.701015000000041],[-72.821008999999947,43.701692000000037],[-72.821875999999975,43.702341000000047],[-72.823428999999976,43.705103000000065],[-72.82500269999997,43.707497100000069],[-72.825991999999985,43.709455000000048],[-72.82627599999995,43.710745000000031],[-72.826451999999961,43.712734000000069],[-72.826638999999943,43.713260000000048],[-72.826955999999939,43.714378000000067],[-72.826908999999944,43.715419000000054],[-72.826532999999984,43.716179000000068],[-72.825643599999978,43.717160500000034],[-72.825364199999967,43.717361500000038],[-72.824805799999979,43.717709700000057],[-72.824577299999987,43.717881500000033],[-72.824051399999973,43.718550100000073],[-72.823047499999973,43.719774900000061],[-72.822816499999988,43.721030900000073],[-72.82274579999995,43.721554000000026],[-72.822904799999947,43.722547000000077],[-72.822543199999984,43.723762200000067],[-72.82303079999997,43.725002400000051],[-72.823067699999967,43.726216500000078],[-72.823013999999944,43.727751000000069],[-72.822887999999978,43.729483000000073],[-72.822601999999961,43.730003000000067],[-72.82132699999994,43.731465000000071],[-72.820835999999986,43.732972000000075],[-72.820721999999989,43.733863000000042],[-72.820731999999964,43.734539000000041],[-72.820753999999965,43.734735000000057],[-72.820788999999934,43.735627000000079],[-72.820496999999989,43.737018000000035],[-72.81997599999994,43.742787000000078],[-72.820648999999946,43.745748000000049],[-72.82057999999995,43.746814000000029],[-72.820740999999941,43.751682000000073],[-72.82058139999998,43.753189300000031],[-72.820546499999978,43.753307500000062],[-72.820310499999948,43.75412700000004],[-72.820293999999933,43.754910000000052],[-72.820326999999963,43.755071000000044],[-72.820441999999957,43.755990000000054],[-72.820159299999943,43.756958100000077],[-72.818590999999969,43.761446000000035],[-72.818217599999969,43.763383600000054],[-72.818186699999956,43.763461600000028],[-72.817821799999933,43.764019800000028],[-72.815392999999972,43.766068000000075],[-72.814593999999943,43.766892000000041],[-72.813909699999954,43.767886000000033],[-72.813758199999938,43.768052300000079],[-72.813220999999942,43.768614000000071],[-72.812944999999957,43.76927500000005],[-72.813011999999958,43.771197000000029],[-72.813050999999973,43.771816000000058],[-72.81301899999994,43.773082000000045],[-72.812243999999964,43.774067000000059],[-72.812031999999988,43.774278000000038],[-72.810574999999972,43.775652000000036],[-72.809086999999977,43.776392000000044],[-72.806650999999988,43.777203000000043],[-72.804767999999967,43.777844000000073],[-72.802708999999936,43.77813100000003],[-72.799980999999946,43.778718000000026],[-72.798786999999948,43.778819000000055],[-72.798521999999934,43.778807000000029],[-72.795806299999981,43.778274500000066],[-72.794696599999952,43.77825770000004],[-72.792772699999944,43.778557900000067],[-72.792059999999935,43.778664000000049],[-72.790660999999943,43.778893000000039],[-72.786789399999975,43.779542400000025],[-72.785613699999942,43.779666600000041],[-72.784786699999984,43.779536600000029],[-72.780898999999977,43.777605000000051],[-72.779990999999939,43.777266000000054],[-72.778317999999956,43.776960000000031],[-72.768578899999966,43.776478300000065],[-72.768236999999942,43.776460400000076],[-72.766281299999946,43.776092700000049],[-72.763535299999944,43.774899700000049],[-72.762476599999957,43.774187700000027],[-72.762028199999975,43.774310600000035],[-72.760700999999983,43.774013000000025],[-72.760078999999962,43.77391700000004],[-72.758872099999962,43.773899700000072],[-72.758031199999948,43.774085600000035],[-72.757670499999961,43.774445900000046],[-72.757535699999949,43.775146500000062],[-72.757463899999948,43.775563400000067],[-72.756933499999946,43.777430300000049],[-72.756850999999983,43.77916300000004],[-72.756983999999989,43.780057500000055],[-72.757266799999968,43.78065330000004],[-72.757386699999984,43.780884400000048],[-72.757525599999951,43.78147940000008],[-72.757386399999973,43.781911900000068],[-72.757155799999964,43.782216900000037],[-72.756774099999973,43.782502200000067],[-72.756166499999949,43.782731600000034],[-72.755782699999941,43.782835300000045],[-72.753779499999951,43.783493200000066],[-72.754387599999973,43.783983600000056],[-72.754745699999944,43.784281800000031],[-72.755134599999963,43.785055400000033],[-72.755500799999936,43.785366200000055],[-72.75604119999997,43.785519200000067],[-72.757623199999955,43.78560420000008],[-72.758747199999959,43.785850400000072],[-72.759538499999962,43.786194700000067],[-72.76010139999994,43.786681600000065],[-72.760275099999944,43.787164100000041],[-72.760196399999984,43.787816300000031],[-72.760307299999965,43.78865890000003],[-72.76103999999998,43.790210000000059],[-72.765727899999945,43.794055600000036],[-72.76708949999994,43.795503600000075],[-72.768415599999969,43.796657800000048],[-72.769800799999985,43.798546300000055],[-72.771849999999972,43.800899700000059],[-72.772654199999977,43.801376100000027],[-72.773803999999984,43.801637000000028],[-72.774492299999963,43.801666200000057],[-72.775149299999953,43.80171450000006],[-72.775837199999955,43.802010800000062],[-72.776462999999978,43.802341000000069],[-72.781928999999934,43.805393000000038],[-72.784421499999951,43.806858600000055],[-72.785238799999945,43.807405900000049],[-72.785498799999971,43.808111300000064],[-72.785249999999962,43.809200900000064],[-72.784205799999938,43.810359600000027],[-72.783679899999981,43.811447600000065],[-72.783678499999951,43.812653800000078],[-72.78375699999998,43.813236000000074],[-72.783796999999936,43.813466000000062],[-72.784279999999967,43.814378000000033],[-72.787415999999951,43.817811000000063],[-72.788315699999941,43.818833100000063],[-72.78885699999995,43.819897000000026],[-72.789134999999987,43.820590000000038],[-72.789730999999961,43.822302000000036],[-72.789775999999961,43.82352700000007],[-72.789939699999934,43.82414870000008],[-72.791695299999958,43.826986200000078],[-72.792939999999987,43.828905000000077],[-72.793331999999964,43.829811000000063],[-72.79344599999996,43.830622000000062],[-72.793242999999961,43.832196000000067],[-72.793354999999963,43.834579000000076],[-72.793838999999934,43.835821000000067],[-72.794524699999954,43.836882200000048],[-72.79659399999997,43.839636000000041],[-72.797174999999982,43.840755000000058],[-72.800918999999965,43.850992000000076],[-72.801210999999967,43.853005000000053],[-72.802562999999964,43.854670000000056],[-72.803727999999978,43.856200000000058],[-72.805270299999961,43.858129900000051],[-72.805358999999953,43.858243000000073],[-72.805867999999975,43.858799000000033],[-72.806746499999974,43.859284700000046],[-72.808810599999958,43.859855400000072],[-72.81021439999995,43.860813700000051],[-72.81072469999998,43.861263400000041],[-72.810933799999987,43.861820400000056],[-72.81019219999996,43.863307900000052],[-72.80997659999997,43.863555100000042],[-72.809091999999964,43.864528000000064],[-72.808587099999954,43.866406100000063],[-72.808554199999946,43.866548200000068],[-72.808270999999934,43.867187000000058],[-72.808176999999944,43.867398000000037],[-72.807914799999935,43.868589200000031],[-72.807945599999982,43.870331400000055],[-72.807967099999985,43.870689200000072],[-72.808205999999984,43.873749500000031],[-72.808236799999975,43.873950600000057],[-72.808318399999962,43.874496000000079],[-72.808364199999971,43.875665600000048],[-72.807621199999971,43.876691300000061],[-72.806896999999935,43.877428000000066],[-72.806651999999985,43.877967000000069],[-72.806680999999969,43.878508000000068],[-72.807061999999974,43.879364000000066],[-72.808078999999964,43.880970000000048],[-72.809347199999934,43.88370290000006],[-72.809574999999938,43.884033000000045],[-72.811891999999943,43.885707000000025],[-72.813144999999963,43.887489000000073],[-72.814588999999955,43.888230000000078],[-72.816959999999938,43.889483000000041],[-72.818003999999974,43.890432000000033],[-72.818379999999934,43.891594000000055],[-72.818459999999959,43.894183000000055],[-72.819627999999966,43.895999000000074],[-72.820355999999947,43.896861000000058],[-72.821316999999965,43.897674000000052],[-72.821450999999968,43.897779000000071],[-72.821747999999957,43.898000000000025],[-72.824657999999943,43.900401000000045],[-72.826769999999954,43.902618000000075],[-72.827686999999969,43.904176000000064],[-72.831414999999936,43.911081000000081],[-72.831894999999975,43.91175700000008],[-72.832496999999989,43.91225600000007],[-72.832738499999948,43.912423800000056],[-72.83383699999996,43.912929000000076],[-72.837211999999965,43.91375000000005],[-72.83906079999997,43.91445600000003],[-72.839177099999972,43.91452890000005],[-72.839371899999946,43.914652100000069],[-72.840635899999938,43.915645200000029],[-72.840843199999938,43.916955900000062],[-72.840513999999985,43.918014400000061],[-72.840262699999982,43.918489000000079],[-72.839908899999955,43.919598200000053],[-72.839966999999945,43.920533300000045],[-72.840086299999939,43.921010600000045],[-72.840151999999989,43.921301000000028],[-72.840437999999949,43.922624000000042],[-72.841077299999938,43.925509600000055],[-72.841104199999961,43.925848200000075],[-72.841097199999979,43.925961200000074],[-72.841074299999946,43.926140100000055],[-72.841054299999939,43.92621390000005],[-72.840895799999942,43.926611900000069],[-72.840749999999957,43.926980000000071],[-72.840763699999968,43.92738200000008],[-72.84129779999995,43.928966900000034],[-72.84196529999997,43.932611100000031],[-72.842244299999948,43.935595400000068],[-72.842678799999987,43.936897200000033],[-72.84272969999995,43.937561600000038],[-72.842206699999963,43.940373700000066],[-72.841458399999965,43.941880200000071],[-72.840570999999954,43.945073000000036],[-72.840809999999976,43.94772480000006],[-72.840759099999957,43.94852080000004],[-72.839226799999949,43.952486000000079],[-72.839542599999959,43.956016000000034],[-72.840312399999959,43.958159200000068],[-72.840398199999981,43.958369600000026],[-72.842209999999966,43.963643000000047],[-72.842242999999939,43.964650000000063],[-72.842450999999983,43.966046800000072],[-72.842689999999948,43.967243000000053],[-72.842798499999958,43.96783320000003],[-72.843069399999933,43.969415300000037],[-72.843184899999983,43.97114780000004],[-72.843109799999979,43.973373400000071],[-72.842267599999957,43.974640700000066],[-72.841977899999961,43.975441700000033],[-72.842009999999959,43.977596000000062],[-72.842670899999973,43.980450900000051],[-72.842736199999933,43.980693200000076],[-72.842944099999954,43.981464900000049],[-72.84323969999997,43.982653000000028],[-72.843606999999963,43.983236000000034],[-72.843895999999972,43.983452000000057],[-72.846716499999957,43.984853400000077],[-72.848111199999948,43.985350000000039],[-72.84856069999995,43.985901100000035],[-72.849342899999954,43.987157400000058],[-72.851609399999973,43.98929030000005],[-72.85205099999996,43.99007800000004],[-72.852571199999943,43.991971100000058],[-72.852666399999976,43.993839000000037],[-72.852255999999954,43.997348600000066],[-72.852588799999978,43.999366700000053],[-72.853277899999966,44.001456500000074],[-72.853525499999989,44.002378400000055],[-72.853259999999977,44.00301660000008],[-72.852309099999957,44.00351930000005],[-72.851202999999941,44.003526000000079],[-72.850136999999961,44.003487600000028],[-72.849563399999965,44.003653600000064],[-72.849079499999959,44.004096400000037],[-72.848901399999988,44.004832900000054],[-72.848651899999936,44.006634700000063],[-72.848028899999974,44.008904200000075],[-72.847886099999982,44.009694600000046],[-72.848060399999952,44.010224100000073],[-72.848589999999945,44.010822800000028],[-72.849388999999974,44.011522700000057],[-72.850654999999961,44.012239000000079],[-72.851268599999969,44.01342180000006],[-72.85163289999997,44.014508000000035],[-72.851498099999958,44.015561600000069],[-72.851082399999939,44.016290900000058],[-72.849891599999978,44.017597300000034],[-72.849840136999944,44.017658793000066]],[[-72.849840136999944,44.017658793000066],[-72.849044999999933,44.018738000000042],[-72.848078699999974,44.019281300000046],[-72.846779899999945,44.019845400000065],[-72.843665999999985,44.021458000000052],[-72.841254999999933,44.021534000000031],[-72.839812999999936,44.022289000000058],[-72.83809599999995,44.022956000000079],[-72.836799999999982,44.023743000000081],[-72.835166999999956,44.024078000000031],[-72.834680999999989,44.024327000000028],[-72.834521399999971,44.024461600000052],[-72.834266999999954,44.025032000000067],[-72.834495999999945,44.026772000000051],[-72.834396199999958,44.027500500000031],[-72.833504399999981,44.029367400000069],[-72.833241699999974,44.030817100000036],[-72.832101599999987,44.032299300000034],[-72.831765999999959,44.033045800000025],[-72.831544999999949,44.035750000000064],[-72.832496999999989,44.039139000000034],[-72.832643999999959,44.040421000000038],[-72.832564999999988,44.041473000000053],[-72.832236999999964,44.04263300000008],[-72.829970999999944,44.046932000000027],[-72.829864999999984,44.047684000000061],[-72.829990299999963,44.048615000000041],[-72.830428999999981,44.049618000000066],[-72.833511599999952,44.052137900000048],[-72.834079599999939,44.052835500000072],[-72.834825999999964,44.053814500000044],[-72.835541599999942,44.054470800000047],[-72.838850899999954,44.056480700000066],[-72.840034399999979,44.056869500000062],[-72.844614799999988,44.057593000000054],[-72.84838689999998,44.05965290000006],[-72.850284099999953,44.060474100000079],[-72.851443999999958,44.061036000000058],[-72.852358999999979,44.061823000000061],[-72.853312999999957,44.062963000000025],[-72.854739999999936,44.063760000000059],[-72.855370999999934,44.064077000000054],[-72.855937999999981,44.064540000000079],[-72.856865999999968,44.066214000000059],[-72.858195999999964,44.067864000000043],[-72.858680999999933,44.06888500000008],[-72.859251999999969,44.070630000000051],[-72.860400999999968,44.072478000000046],[-72.860606999999959,44.073139000000026],[-72.860526999999934,44.073734000000059],[-72.859791399999949,44.075348000000076],[-72.859364999999968,44.077038000000073],[-72.858914999999968,44.080704000000026],[-72.85896299999996,44.081810000000075],[-72.861145999999962,44.085548300000028],[-72.862197799999933,44.087777100000039],[-72.862957699999981,44.090387000000078],[-72.862931799999956,44.091070800000068],[-72.862847999999985,44.092498000000035],[-72.863579999999956,44.094054000000028],[-72.863564099999962,44.094823700000063],[-72.862942999999973,44.09610200000003],[-72.861966399999972,44.097545900000057],[-72.861078999999961,44.099028000000033],[-72.860839999999939,44.10046600000004],[-72.860798399999965,44.101384300000063],[-72.860394999999983,44.102443000000051],[-72.860483099999954,44.103683200000035],[-72.860352999999975,44.104688400000043],[-72.859922099999949,44.106131400000038],[-72.859756799999957,44.106540400000029],[-72.859735199999989,44.106599000000074],[-72.85925519999995,44.107806500000038],[-72.85910279999996,44.108188600000062],[-72.858817999999985,44.108963000000074],[-72.857886999999948,44.111538000000053],[-72.857735999999989,44.113364000000047],[-72.857783899999959,44.114314700000079],[-72.858033899999953,44.116356900000028],[-72.857989399999951,44.11748220000004],[-72.857824699999981,44.118052700000078],[-72.857670499999983,44.117862000000059],[-72.857528399999978,44.117318000000068],[-72.857222399999955,44.117022900000052],[-72.857176999999979,44.116981100000032],[-72.856660799999986,44.116480700000068],[-72.856521999999984,44.116302000000076],[-72.855884899999978,44.115199600000039],[-72.855756058999987,44.11457682200006]],[[-72.855756058999987,44.11457682200006],[-72.855884899999978,44.115199600000039],[-72.856521999999984,44.116302000000076],[-72.856660799999986,44.116480700000068],[-72.857176999999979,44.116981100000032],[-72.857222399999955,44.117022900000052],[-72.857528399999978,44.117318000000068],[-72.857670499999983,44.117862000000059],[-72.857824699999981,44.118052700000078],[-72.857676699999956,44.118429700000036],[-72.857514399999957,44.118661800000041],[-72.857410999999956,44.118812800000057],[-72.857206799999972,44.119067800000039],[-72.856532499999958,44.119735100000071],[-72.854708599999981,44.121056100000033],[-72.854043399999966,44.121883000000025],[-72.852914299999952,44.124552600000072],[-72.851624099999981,44.126343200000065],[-72.850942799999984,44.12796620000006],[-72.848424199999954,44.131730000000061],[-72.847536399999967,44.133630000000039],[-72.84680149999997,44.135445300000072],[-72.846666099999936,44.135776800000031],[-72.846637699999974,44.13584620000006],[-72.846259699999962,44.136771700000054],[-72.846155099999976,44.137014200000067],[-72.84587879999998,44.137818800000048],[-72.845806399999958,44.138370300000076],[-72.845794399999988,44.13932310000007],[-72.845737999999983,44.140046900000073],[-72.845483099999967,44.14058870000008],[-72.844850199999939,44.141095900000039],[-72.844582599999967,44.141243700000075],[-72.84433649999994,44.141383800000028],[-72.843745599999977,44.141732200000035],[-72.843311799999981,44.142037200000061],[-72.841632899999979,44.143658800000026],[-72.840975999999955,44.145501700000068],[-72.840868499999942,44.146108900000058],[-72.840779899999973,44.146601900000064],[-72.840489499999933,44.147612600000059],[-72.839478399999962,44.148927700000058],[-72.837933999999962,44.151926300000071],[-72.837486599999977,44.153148300000055],[-72.837429399999962,44.15333940000005],[-72.837020999999936,44.154194000000075],[-72.83602099999996,44.155384000000026],[-72.83504499999998,44.157780000000059],[-72.835145199999943,44.159807500000056],[-72.835000299999933,44.160519500000078],[-72.832350299999973,44.16503350000005],[-72.831710999999984,44.166355000000067],[-72.831379799999979,44.167642300000068],[-72.83176519999995,44.17000470000005],[-72.832380199999989,44.171963400000038],[-72.832398999999953,44.172017200000028],[-72.832661899999948,44.172846400000026],[-72.83272889999995,44.173058000000026],[-72.832787899999971,44.173250400000029],[-72.833021299999984,44.173991000000058],[-72.833310999999981,44.174808600000063],[-72.833630099999937,44.175514600000042],[-72.834501899999964,44.176803500000062],[-72.835366799999974,44.177615600000081],[-72.835893799999951,44.178076500000032],[-72.836127999999974,44.17826800000006],[-72.838310099999944,44.179738900000075],[-72.838427499999966,44.17981270000007],[-72.838670199999967,44.179969600000049],[-72.839679799999942,44.180603900000051],[-72.840035099999966,44.18109400000003],[-72.83994789999997,44.181682600000045],[-72.839317599999958,44.182265400000063],[-72.839251299999944,44.182311900000059],[-72.836925699999938,44.183975100000055],[-72.836829699999953,44.184040800000048],[-72.833345999999949,44.186609000000033],[-72.832410899999957,44.187372700000026],[-72.830945999999983,44.188242000000059],[-72.828229399999941,44.188765100000069],[-72.826305999999988,44.189110000000028],[-72.825731999999959,44.189190100000076],[-72.825118999999972,44.189465000000041],[-72.82441799999998,44.190151000000071],[-72.823808999999983,44.189817000000062],[-72.823571999999956,44.189465200000029],[-72.823533999999938,44.18939800000004],[-72.82350646499998,44.189354278000053]],[[-72.82350646499998,44.189354278000053],[-72.823533999999938,44.18939800000004],[-72.823571999999956,44.189465200000029],[-72.823808999999983,44.189817000000062],[-72.82441799999998,44.190151000000071],[-72.824065999999959,44.190506000000028],[-72.823971499999971,44.190600000000074],[-72.823690599999964,44.190879900000027],[-72.823581999999988,44.190988200000049],[-72.820980499999962,44.193640100000039],[-72.819995699999936,44.194630300000028],[-72.819252699999936,44.195374600000036],[-72.818464099999971,44.196157200000073],[-72.816101099999969,44.198516700000027],[-72.813335699999982,44.200889600000039],[-72.810416499999974,44.202966400000037],[-72.808923199999981,44.204278800000054],[-72.807539499999962,44.20552020000008],[-72.806439499999954,44.20611770000005],[-72.803445399999987,44.206950600000027],[-72.801558999999941,44.20765700000004],[-72.800579099999936,44.208225500000026],[-72.799795899999936,44.208896500000037],[-72.798503099999948,44.210450000000037],[-72.796536999999944,44.21152660000007],[-72.795222799999976,44.212151400000039],[-72.794200799999942,44.212751200000071],[-72.793605399999933,44.213308700000027],[-72.792838999999958,44.214695000000063],[-72.791641999999968,44.217491900000027],[-72.790198999999973,44.219769000000042],[-72.789985999999942,44.220291000000032],[-72.789878999999985,44.221329000000026],[-72.78989299999995,44.221999000000039],[-72.789718999999934,44.222893000000056],[-72.789223599999957,44.223756700000081],[-72.785531599999956,44.22729430000004],[-72.784072399999957,44.228733900000066],[-72.783945799999969,44.228900500000066],[-72.783891899999958,44.228978900000072],[-72.782256999999959,44.232445000000041],[-72.781432999999936,44.233982000000026],[-72.780295999999964,44.235107000000028],[-72.780211999999949,44.235180000000071],[-72.779940999999951,44.235400000000027],[-72.779827999999952,44.235510000000033],[-72.776954499999988,44.237358500000028],[-72.776214999999979,44.237907000000064],[-72.775535999999988,44.238892000000078],[-72.775369299999966,44.239693100000068],[-72.775417199999936,44.240275500000052],[-72.776710999999978,44.240726000000052],[-72.778121999999939,44.241852000000051],[-72.779418099999987,44.242627700000071],[-72.78131099999996,44.243667000000073],[-72.783258999999987,44.244360000000029],[-72.784095999999977,44.244961000000046],[-72.785718599999939,44.246736000000055],[-72.786010999999974,44.247204000000067],[-72.785994999999957,44.248119000000031],[-72.786240999999961,44.248969000000045],[-72.786708399999952,44.249934100000075],[-72.787517599999944,44.251688800000068],[-72.787571199999945,44.251791500000081],[-72.78806899999995,44.252798000000041],[-72.788326999999981,44.253557000000058],[-72.788869499999976,44.255334000000062],[-72.788897999999961,44.255469100000028],[-72.788878999999952,44.256218000000047],[-72.788695999999959,44.256844000000058],[-72.788235999999984,44.258160900000064],[-72.788121799999942,44.258713300000068],[-72.787632999999971,44.261773000000062],[-72.785770999999954,44.264576000000034],[-72.784713999999951,44.267218000000071],[-72.784656999999982,44.268081000000052],[-72.784978199999955,44.268930600000033],[-72.784991699999978,44.268961500000046],[-72.785653999999965,44.270511000000056],[-72.78575399999994,44.271323000000052],[-72.785616999999945,44.271951000000058],[-72.784793999999977,44.273316000000079],[-72.784582399999977,44.273961500000041],[-72.784568999999976,44.276428000000067],[-72.78436789999995,44.277598500000067],[-72.783996999999943,44.278770000000065],[-72.783120999999937,44.280712000000051],[-72.782325999999955,44.282471000000044],[-72.782230999999967,44.283216000000039],[-72.782248999999979,44.284039000000064],[-72.781859999999938,44.284901000000048],[-72.776122999999984,44.291256000000033],[-72.77579499999996,44.292286000000047],[-72.775344999999959,44.294025000000033],[-72.774589999999989,44.295639000000051],[-72.774201699999935,44.297758700000031],[-72.77419059999994,44.297807000000034],[-72.773297299999967,44.299781200000041],[-72.772039899999982,44.302232900000035],[-72.771327299999939,44.303414000000032],[-72.770668499999942,44.304102000000057],[-72.769272299999955,44.306392900000048],[-72.768970999999965,44.306786000000045],[-72.768078999999943,44.307868000000042],[-72.76726999999994,44.309726000000069],[-72.763757999999939,44.312921000000074],[-72.762829999999951,44.313900000000046],[-72.761836999999957,44.315069000000051],[-72.761731999999938,44.315232000000037],[-72.761685999999941,44.31530500000008],[-72.760683399999948,44.317273100000079],[-72.759496899999988,44.319316000000072],[-72.757980299999986,44.32127550000007],[-72.757722999999942,44.321547000000066],[-72.757249999999942,44.321956000000057],[-72.756350599999962,44.32244970000005],[-72.755426799999952,44.322738500000071],[-72.755316899999968,44.322757700000068],[-72.752822999999978,44.32296800000006],[-72.752059999999972,44.323169000000064],[-72.751300999999955,44.323581000000047],[-72.751044999999976,44.323791000000028],[-72.750770999999986,44.324081000000035],[-72.750416099999939,44.324538200000063],[-72.749877999999967,44.325082000000066],[-72.748698199999978,44.325680100000056],[-72.748598999999956,44.325712700000054],[-72.747465599999941,44.32582670000005],[-72.746923999999979,44.325821100000041],[-72.746624599999961,44.32581840000006],[-72.746507599999973,44.325817400000062],[-72.745711999999969,44.325887200000068],[-72.745101999999974,44.326084000000037],[-72.745758999999964,44.326988000000028],[-72.745847699999956,44.327165000000036],[-72.745888799999989,44.32730760000004],[-72.74592789999997,44.327573200000074],[-72.74593189999996,44.327694200000053],[-72.745951799999943,44.328132400000072],[-72.745997399999965,44.328283600000077],[-72.746023199999968,44.328341800000032],[-72.746115599999939,44.328531700000042],[-72.746228599999938,44.328700400000059],[-72.747059499999978,44.329388600000073],[-72.748389799999984,44.330231800000035],[-72.749440599999957,44.330908800000032],[-72.750186299999939,44.331603200000075],[-72.750625699999944,44.332083500000067],[-72.750905599999953,44.332366900000068],[-72.751277899999934,44.332747500000039],[-72.752867999999978,44.334287000000074],[-72.752918899999941,44.334337000000062],[-72.753559699999983,44.334952000000044],[-72.755827899999986,44.337204200000031],[-72.756367499999953,44.337756100000036],[-72.757290099999977,44.338686000000052],[-72.757852999999955,44.339343300000053],[-72.758794899999941,44.340388500000074],[-72.758886099999984,44.340500200000065],[-72.758996899999943,44.340666400000032],[-72.759000499999956,44.340742200000079],[-72.759016499999973,44.340774900000042],[-72.759035999999981,44.340833500000031],[-72.759053999999935,44.340886000000069],[-72.759080199999971,44.340957300000071],[-72.759106299999985,44.341040400000054],[-72.759118899999976,44.341092900000035],[-72.759051399999976,44.341376400000058],[-72.758980899999983,44.341470300000026],[-72.758130499999936,44.341833400000041],[-72.757345899999962,44.342094000000031],[-72.756285999999989,44.342419900000039],[-72.755906099999947,44.342529600000034],[-72.755492799999956,44.342638300000033],[-72.755377999999951,44.342667000000063],[-72.755162899999959,44.342714700000045],[-72.754299099999969,44.34292350000004],[-72.753167599999983,44.343178100000046],[-72.752710899999954,44.343278300000065],[-72.752337799999964,44.34336060000004],[-72.751663999999948,44.343498700000055],[-72.75107399999996,44.343618000000049],[-72.750628799999959,44.343702700000051],[-72.749682999999948,44.343909200000041],[-72.748355299999957,44.344193100000041],[-72.748043699999982,44.344280800000035],[-72.747829599999989,44.344406000000049],[-72.747713899999951,44.344458400000065],[-72.747093999999947,44.344828100000029],[-72.746644899999978,44.34526070000004],[-72.746438799999964,44.345480900000041],[-72.746079899999984,44.345907600000032],[-72.746015499999942,44.34599680000008],[-72.745965499999954,44.346064000000069],[-72.745897399999933,44.346153500000071],[-72.745737099999985,44.346416400000066],[-72.745161199999984,44.347671600000069],[-72.744377999999983,44.348911000000044],[-72.743839499999979,44.34937640000004],[-72.743678599999953,44.34948490000005],[-72.743267999999944,44.349744900000076],[-72.74286589999997,44.349933900000053],[-72.741318999999976,44.350578000000041],[-72.74092909999996,44.35081450000007],[-72.74052729999994,44.351089500000057],[-72.740306799999985,44.351225000000056],[-72.739484899999979,44.351755400000059],[-72.739765040999941,44.352002411000058]],[[-72.739765040999941,44.352002411000058],[-72.739484899999979,44.351755400000059],[-72.737914299999943,44.352759300000059],[-72.737707799999953,44.352910800000075],[-72.736435099999937,44.354431400000067],[-72.736051499999974,44.355099900000027],[-72.735700599999973,44.355798700000037],[-72.735356499999966,44.356394900000055],[-72.735153599999933,44.356683100000055],[-72.734680999999966,44.35720450000008],[-72.734493199999974,44.357382900000061],[-72.733668199999954,44.358323200000029],[-72.733018799999968,44.359729000000073],[-72.732821499999943,44.360445000000027],[-72.732917499999985,44.36199490000007],[-72.732061299999941,44.363280600000053],[-72.731334499999946,44.364170000000058],[-72.730868999999984,44.365014900000062],[-72.730777999999987,44.365190600000062],[-72.729031999999961,44.368004100000064],[-72.728113599999972,44.369331000000045],[-72.726695499999948,44.371915600000079],[-72.726423899999986,44.37248500000004],[-72.726322899999957,44.372948200000053],[-72.726309299999969,44.373127400000044],[-72.726388799999938,44.374555000000043],[-72.726259299999981,44.375018000000068],[-72.725658399999986,44.375860600000067],[-72.725426299999981,44.376162700000066],[-72.724585999999988,44.377712000000031],[-72.724436999999966,44.377885000000049],[-72.723975999999936,44.378220000000056],[-72.722581299999945,44.378767400000072],[-72.722158499999978,44.378981200000055],[-72.721877999999947,44.379150000000038],[-72.720995999999957,44.379957000000047],[-72.720725999999956,44.380356000000063],[-72.720638899999983,44.380757300000027],[-72.720627899999954,44.380935600000043],[-72.720626899999957,44.381072000000074],[-72.720626899999957,44.381483400000036],[-72.720626999999979,44.381680900000049],[-72.719292799999948,44.381623500000046],[-72.71939969999994,44.381095300000027],[-72.720002947999944,44.381192669000029]],[[-72.720002947999944,44.381192669000029],[-72.71939969999994,44.381095300000027],[-72.719292799999948,44.381623500000046],[-72.720626999999979,44.381680900000049],[-72.720626899999957,44.381483400000036],[-72.720626899999957,44.381289800000047],[-72.720626899999957,44.381176700000026],[-72.720626899999957,44.381072000000074],[-72.720627899999954,44.380935600000043],[-72.720638899999983,44.380757300000027],[-72.720725999999956,44.380356000000063],[-72.720214999999939,44.380020000000059],[-72.719986999999946,44.379519000000073],[-72.719832999999937,44.379150000000038],[-72.719082499999956,44.377126200000077],[-72.718993999999952,44.376911000000064],[-72.718148499999984,44.376796500000069],[-72.717816299999981,44.376655300000039],[-72.717551999999955,44.376854000000037],[-72.717186199999958,44.37717710000004],[-72.715804999999989,44.378395000000069],[-72.714176699999939,44.377727400000026],[-72.712737999999945,44.377167000000043],[-72.707976999999971,44.375546000000043],[-72.707457999999974,44.375599000000079],[-72.706977999999935,44.37586600000003],[-72.705344999999966,44.377399000000025],[-72.70480299999997,44.379436000000055],[-72.704444999999964,44.379959000000042],[-72.703772999999956,44.380478000000039],[-72.698714999999936,44.382008000000042],[-72.697913999999969,44.382339000000059],[-72.696303999999941,44.383335000000045],[-72.695525999999973,44.383480000000077],[-72.695037999999954,44.383591000000081],[-72.69377099999997,44.384293000000071],[-72.693015699999933,44.38440490000005],[-72.687850999999966,44.383587000000034],[-72.687652999999955,44.381859000000077],[-72.687939999999969,44.381290000000035],[-72.688834999999983,44.380779000000075],[-72.689895999999976,44.379932000000053],[-72.691139783999972,44.380792567000071]],[[-72.691139783999972,44.380792567000071],[-72.689895999999976,44.379932000000053],[-72.688834999999983,44.380779000000075],[-72.687939999999969,44.381290000000035],[-72.687652999999955,44.381859000000077],[-72.687850999999966,44.383587000000034],[-72.693015699999933,44.38440490000005],[-72.69377099999997,44.384293000000071],[-72.695037999999954,44.383591000000081],[-72.695525999999973,44.383480000000077],[-72.696303999999941,44.383335000000045],[-72.697913999999969,44.382339000000059],[-72.699522999999942,44.38175300000006],[-72.703772999999956,44.380478000000039],[-72.704444999999964,44.379959000000042],[-72.70480299999997,44.379436000000055],[-72.705344999999966,44.377399000000025],[-72.706977999999935,44.37586600000003],[-72.707457999999974,44.375599000000079],[-72.707976999999971,44.375546000000043],[-72.712737999999945,44.377167000000043],[-72.715804999999989,44.378395000000069],[-72.717186199999958,44.37717710000004],[-72.717551999999955,44.376854000000037],[-72.717953999999963,44.376793500000076],[-72.718148499999984,44.376796500000069],[-72.718993999999952,44.376911000000064],[-72.719082499999956,44.377126200000077],[-72.719832999999937,44.379150000000038],[-72.719986999999946,44.379519000000073],[-72.720214999999939,44.380020000000059],[-72.720725999999956,44.380356000000063],[-72.720638899999983,44.380757300000027],[-72.720627899999954,44.380935600000043],[-72.720626899999957,44.381072000000074],[-72.720626899999957,44.381483400000036],[-72.720626999999979,44.381824000000051],[-72.72063559999998,44.381972200000064],[-72.720687999999939,44.382877000000065],[-72.72074699999996,44.383901000000037],[-72.720732399999974,44.384398300000043],[-72.720722699999953,44.384493600000042],[-72.720710999999937,44.384609000000069],[-72.720092399999942,44.386291400000061],[-72.718940999999973,44.388874000000044],[-72.718688999999983,44.390236000000073],[-72.718688999999983,44.391418000000044],[-72.719054999999969,44.392895000000067],[-72.719181999999989,44.393751200000054],[-72.719196799999963,44.39406960000008],[-72.719230999999979,44.395557000000053],[-72.719558999999947,44.395607000000041],[-72.719718899999975,44.394948300000067],[-72.719803999999954,44.394406500000059],[-72.720041103999961,44.394274995000046]],[[-72.720041103999961,44.394274995000046],[-72.719803999999954,44.394406500000059],[-72.719718899999975,44.394948300000067],[-72.719558999999947,44.395607000000041],[-72.719230999999979,44.395557000000053],[-72.719243399999982,44.397106000000065],[-72.718707999999936,44.403129000000035],[-72.718764999999962,44.403984000000037],[-72.71898699999997,44.404579000000069],[-72.720020799999986,44.406088200000056],[-72.721796799999936,44.408848300000045],[-72.722103899999979,44.409839000000034],[-72.72208779999994,44.411248300000068],[-72.721420599999988,44.413284400000066],[-72.721351799999979,44.413885900000025],[-72.72155209999994,44.414626100000078],[-72.722571999999957,44.416588000000047],[-72.722682899999938,44.418746700000042],[-72.722516599999949,44.420112600000039],[-72.721719999999948,44.422855900000059],[-72.721307599999989,44.423680300000058],[-72.720018899999957,44.425014800000042],[-72.718264199999965,44.426800700000058],[-72.718013999999982,44.427009000000055],[-72.716405999999949,44.42831700000005],[-72.714751999999976,44.43048900000008],[-72.714515999999946,44.430866000000037],[-72.71440199999995,44.431057000000067],[-72.714002999999934,44.431723000000034],[-72.713584999999966,44.432522000000063],[-72.713378999999975,44.432861000000059],[-72.712064399999974,44.435067100000026],[-72.712010899999939,44.435144900000068],[-72.711561699999947,44.435800500000028],[-72.711301899999967,44.436217500000055],[-72.709594999999979,44.438705000000027],[-72.708164899999986,44.440102000000081],[-72.706085599999938,44.441515200000026],[-72.704098099999953,44.442308000000025],[-72.703668999999934,44.442449700000054],[-72.702845499999967,44.443056800000079],[-72.702665099999933,44.443255100000044],[-72.702182999999934,44.445149800000081],[-72.701045799999974,44.446559100000059],[-72.699950999999942,44.447937000000081],[-72.69931859999997,44.449092900000039],[-72.699114999999949,44.449420000000032],[-72.698390299999971,44.450378300000068],[-72.697738999999956,44.451092000000074],[-72.697126099999934,44.452083600000037],[-72.69689969999996,44.452773400000069],[-72.696887099999969,44.452811800000063],[-72.696753899999976,44.453234100000032],[-72.696246899999949,44.454116700000043],[-72.695447599999966,44.454876800000079],[-72.694731499999989,44.45576520000003],[-72.694258899999966,44.457309500000065],[-72.693980499999952,44.458020500000032],[-72.693398399999978,44.458914500000049],[-72.693299199999956,44.459088700000052],[-72.693162399999949,44.459352900000056],[-72.693114099999946,44.45944860000003],[-72.693030999999962,44.459638200000029],[-72.692612499999939,44.460940000000051],[-72.691898799999933,44.461388600000078],[-72.691791799999976,44.461451100000033],[-72.691558399999963,44.461646300000041],[-72.69106759999994,44.462203400000078],[-72.690265599999975,44.462741300000062],[-72.689982199999974,44.463325100000077],[-72.689941299999987,44.463519000000076],[-72.689645999999982,44.464595300000042],[-72.689403199999958,44.464937200000065],[-72.689345599999967,44.46498390000005],[-72.688758999999948,44.46517730000005],[-72.688463099999979,44.465244200000029],[-72.687962299999981,44.465334900000073],[-72.687406299999964,44.465435700000057],[-72.687669399999947,44.465941400000077],[-72.687914899999953,44.466252300000065],[-72.688050099999941,44.466423400000053],[-72.688138599999945,44.466534400000057],[-72.688752799999975,44.467235000000073],[-72.687929399999973,44.468754800000056],[-72.68760919999994,44.469417900000053],[-72.687390299999947,44.470164500000067],[-72.687830099999985,44.470934000000057],[-72.688453399999958,44.471799000000033],[-72.688575799999967,44.471949400000028],[-72.688642799999968,44.472022100000061],[-72.688827899999978,44.472222100000067],[-72.689647299999933,44.472871000000055],[-72.689855199999954,44.472953300000029],[-72.690154299999961,44.473015500000031],[-72.696609699999954,44.473485400000072],[-72.698021799999935,44.473745800000074],[-72.698683699999947,44.47390050000007],[-72.699203399999988,44.474024300000053],[-72.700642899999934,44.474424200000044],[-72.701794399999983,44.474733300000025],[-72.701504999999941,44.475049900000045],[-72.701870799999938,44.475254300000074],[-72.701968499999964,44.475335700000073],[-72.701687061999962,44.475596823000046]],[[-72.701687061999962,44.475596823000046],[-72.701968499999964,44.475335700000073],[-72.701870799999938,44.475254300000074],[-72.701504999999941,44.475049900000045],[-72.701794399999983,44.474733300000025],[-72.700642899999934,44.474424200000044],[-72.699780099999941,44.474161700000025],[-72.699203399999988,44.474024300000053],[-72.698683699999947,44.47390050000007],[-72.696837999999957,44.473507000000041],[-72.690154299999961,44.473015500000031],[-72.689855199999954,44.472953300000029],[-72.689647299999933,44.472871000000055],[-72.688827899999978,44.472222100000067],[-72.688642799999968,44.472022100000061],[-72.688575799999967,44.471949400000028],[-72.688453399999958,44.471799000000033],[-72.687830099999985,44.470934000000057],[-72.687390299999947,44.470164500000067],[-72.68760919999994,44.469417900000053],[-72.687929399999973,44.468754800000056],[-72.688752799999975,44.467235000000073],[-72.688138599999945,44.466534400000057],[-72.688050099999941,44.466423400000053],[-72.687914899999953,44.466252300000065],[-72.687669399999947,44.465941400000077],[-72.687406299999964,44.465435700000057],[-72.686809199999971,44.465418300000067],[-72.686567799999978,44.465409600000044],[-72.686467599999958,44.465405000000032],[-72.685908799999936,44.465383700000075],[-72.685440299999982,44.465365800000029],[-72.684838499999955,44.465335200000027],[-72.684649099999945,44.465325600000028],[-72.68467203299997,44.465045043000032]],[[-72.68467203299997,44.465045043000032],[-72.684649099999945,44.465325600000028],[-72.684538499999974,44.465325600000028],[-72.684477399999935,44.465325600000028],[-72.684468299999935,44.465814500000079],[-72.684626786999956,44.465821578000032]],[[-72.684626786999956,44.465821578000032],[-72.684803499999987,44.465753200000051],[-72.684838499999955,44.465335200000027],[-72.685440299999982,44.465365800000029],[-72.685870739999984,44.465382246000047]],[[-72.685870739999984,44.465382246000047],[-72.685908799999936,44.465383700000075],[-72.686467599999958,44.465405000000032],[-72.686567799999978,44.465409600000044],[-72.686809199999971,44.465418300000067],[-72.687406299999964,44.465435700000057],[-72.687669399999947,44.465941400000077],[-72.687914899999953,44.466252300000065],[-72.688050099999941,44.466423400000053],[-72.688138599999945,44.466534400000057],[-72.688752799999975,44.467235000000073],[-72.687929399999973,44.468754800000056],[-72.68760919999994,44.469417900000053],[-72.687390299999947,44.470164500000067],[-72.687830099999985,44.470934000000057],[-72.688453399999958,44.471799000000033],[-72.688575799999967,44.471949400000028],[-72.688642799999968,44.472022100000061],[-72.688827899999978,44.472222100000067],[-72.689647299999933,44.472871000000055],[-72.689855199999954,44.472953300000029],[-72.690154299999961,44.473015500000031],[-72.696837999999957,44.473507000000041],[-72.698683699999947,44.47390050000007],[-72.699203399999988,44.474024300000053],[-72.700642899999934,44.474424200000044],[-72.701590999999951,44.474728000000027],[-72.702849999999955,44.474545000000035],[-72.703620999999941,44.474153400000034],[-72.704355899999939,44.47313900000006],[-72.705817999999965,44.472450000000038],[-72.706356999999969,44.47236300000003],[-72.707424399999979,44.472390700000062],[-72.708385999999962,44.472647800000061],[-72.709393099999943,44.472995500000081],[-72.710602799999947,44.47342610000004],[-72.712104799999963,44.473933300000056],[-72.712150899999983,44.473939900000062],[-72.715905499999963,44.474218500000063],[-72.716262999999969,44.474406500000043],[-72.716779899999949,44.47477740000005],[-72.718131699999958,44.47561950000005],[-72.718397599999946,44.475753600000075],[-72.718583599999988,44.47584640000008],[-72.718971299999964,44.476019500000064],[-72.71938339999997,44.476191500000027],[-72.721259199999963,44.476804200000061],[-72.722270399999957,44.477313200000026],[-72.723281999999983,44.478809000000069],[-72.724208799999985,44.479507000000069],[-72.726776499999971,44.481070000000045],[-72.727065999999979,44.481457000000034],[-72.727186999999958,44.48200810000003],[-72.727539599999943,44.483666800000037],[-72.728316999999947,44.485619000000042],[-72.728352299999983,44.487161000000071],[-72.728510599999936,44.487842200000046],[-72.729057699999942,44.488571200000081],[-72.729496299999937,44.488890600000047],[-72.730237899999963,44.489200700000026],[-72.732207699999947,44.489579900000081],[-72.736503999999968,44.49076800000006],[-72.737169599999959,44.490892400000064],[-72.739818699999944,44.491542700000025],[-72.740386999999942,44.491798000000074],[-72.741340099999945,44.493962600000032],[-72.741454899999951,44.494152500000041],[-72.742726299999958,44.496400600000072],[-72.743909099999939,44.498321400000066],[-72.744397999999933,44.498885800000039],[-72.744509899999969,44.498973800000044],[-72.747704399999975,44.500387600000067],[-72.748036999999954,44.500548300000048],[-72.748420599999974,44.500724300000059],[-72.749186999999949,44.500960400000054],[-72.753002999999978,44.501477000000079],[-72.754370299999948,44.50178180000006],[-72.756528899999978,44.502256600000067],[-72.757076099999949,44.502335000000073],[-72.758082899999977,44.502465800000039],[-72.759582999999964,44.502773000000047],[-72.760543999999982,44.503349000000071],[-72.761107999999979,44.504128000000037],[-72.761571999999944,44.505661000000032],[-72.762252199999978,44.507185400000026],[-72.763301499999955,44.508550100000036],[-72.76534259999994,44.511382900000058],[-72.767721799999947,44.515043700000035],[-72.769572499999981,44.518218500000046],[-72.770242999999937,44.519258900000068],[-72.771198399999946,44.520252800000037],[-72.772292299999947,44.521477300000072],[-72.774105399999939,44.522381800000062],[-72.775446499999987,44.523630600000047],[-72.775856899999951,44.524481600000058],[-72.776117099999965,44.524978800000042],[-72.776516699999945,44.525359300000048],[-72.776632099999972,44.525447300000053],[-72.776886899999965,44.525630800000044],[-72.777437899999939,44.525908800000025],[-72.778548999999941,44.52636300000006],[-72.780646999999988,44.527504000000079],[-72.781225399999983,44.527968600000065],[-72.782939699999986,44.530141800000081],[-72.783142399999974,44.530389700000057],[-72.78358499999996,44.530827000000045],[-72.785308999999984,44.532310000000052],[-72.786143999999979,44.53281000000004],[-72.786592999999982,44.532469000000049],[-72.786781899999937,44.532312300000058],[-72.787142499999959,44.532010500000069],[-72.788072899999975,44.532312900000079],[-72.788042799999971,44.532130100000074],[-72.788023799999962,44.532014700000047],[-72.788001699999938,44.531880400000034],[-72.787974499999962,44.531715600000041],[-72.787951899999939,44.53157820000007],[-72.787581499999987,44.531584208000027]],[[-72.787581499999987,44.531584208000027],[-72.787951899999939,44.53157820000007],[-72.787974499999962,44.531715600000041],[-72.788001699999938,44.531880400000034],[-72.788023799999962,44.532014700000047],[-72.788042799999971,44.532130100000074],[-72.788072899999975,44.532312900000079],[-72.787142499999959,44.532010500000069],[-72.786781899999937,44.532312300000058],[-72.786592999999982,44.532469000000049],[-72.786143999999979,44.53281000000004],[-72.787390999999957,44.533435000000054],[-72.788083799999981,44.533778300000051],[-72.789397999999949,44.534508000000073],[-72.790305999999987,44.535480000000064],[-72.790603999999973,44.536160000000052],[-72.790906799999959,44.538676600000031],[-72.791184899999962,44.53921310000004],[-72.791379099999972,44.539447900000027],[-72.79210299999994,44.540861500000062],[-72.792545999999959,44.541856000000053],[-72.792516999999975,44.542482000000064],[-72.79239599999994,44.542830000000038],[-72.791794999999979,44.543659000000048],[-72.791694999999947,44.54418400000003],[-72.792628999999977,44.546170000000075],[-72.792904999999962,44.547196000000042],[-72.793185999999935,44.547642000000053],[-72.794113999999979,44.548461000000032],[-72.79475199999996,44.549442000000056],[-72.795634399999983,44.549973400000056],[-72.796363999999983,44.550725000000057],[-72.796427999999935,44.551433000000031],[-72.796938999999952,44.551674000000048],[-72.796587999999986,44.552247000000079],[-72.797018999999977,44.552385000000072],[-72.797086999999976,44.552548000000058],[-72.796816999999976,44.553690000000074],[-72.796498999999983,44.554031000000066],[-72.79620099999994,44.554687000000058],[-72.795883999999944,44.555029000000047],[-72.795802999999978,44.555446000000074],[-72.795149999999978,44.555751000000043],[-72.794701999999972,44.55623200000008],[-72.794564999999977,44.556490000000053],[-72.794116237999958,44.55665784200005]],[[-72.794116237999958,44.55665784200005],[-72.794564999999977,44.556490000000053],[-72.794701999999972,44.55623200000008],[-72.795149999999978,44.555751000000043],[-72.795802999999978,44.555446000000074],[-72.795883999999944,44.555029000000047],[-72.79620099999994,44.554687000000058],[-72.796498999999983,44.554031000000066],[-72.796816999999976,44.553690000000074],[-72.797086999999976,44.552548000000058],[-72.797018999999977,44.552385000000072],[-72.796587999999986,44.552247000000079],[-72.796938999999952,44.551674000000048],[-72.796427999999935,44.551433000000031],[-72.796363999999983,44.550725000000057],[-72.795634399999983,44.549973400000056],[-72.79475199999996,44.549442000000056],[-72.794113999999979,44.548461000000032],[-72.793185999999935,44.547642000000053],[-72.792904999999962,44.547196000000042],[-72.792628999999977,44.546170000000075],[-72.791694999999947,44.54418400000003],[-72.791794999999979,44.543659000000048],[-72.79239599999994,44.542830000000038],[-72.792516999999975,44.542482000000064],[-72.792545999999959,44.541856000000053],[-72.79210299999994,44.540861500000062],[-72.791379099999972,44.539447900000027],[-72.791184899999962,44.53921310000004],[-72.790906799999959,44.538676600000031],[-72.790603999999973,44.536160000000052],[-72.790305999999987,44.535480000000064],[-72.789397999999949,44.534508000000073],[-72.788083799999981,44.533778300000051],[-72.787390999999957,44.533435000000054],[-72.786143999999979,44.53281000000004],[-72.785308999999984,44.532310000000052],[-72.78358499999996,44.530827000000045],[-72.781225399999983,44.527968600000065],[-72.780646999999988,44.527504000000079],[-72.778548999999941,44.52636300000006],[-72.777437899999939,44.525908800000025],[-72.776886899999965,44.525630800000044],[-72.776632099999972,44.525447300000053],[-72.776516699999945,44.525359300000048],[-72.776117099999965,44.524978800000042],[-72.775856899999951,44.524481600000058],[-72.775446499999987,44.523630600000047],[-72.774105399999939,44.522381800000062],[-72.772292299999947,44.521477300000072],[-72.771198399999946,44.520252800000037],[-72.770242999999937,44.519258900000068],[-72.769572499999981,44.518218500000046],[-72.767721799999947,44.515043700000035],[-72.76534259999994,44.511382900000058],[-72.763301499999955,44.508550100000036],[-72.762252199999978,44.507185400000026],[-72.761571999999944,44.505661000000032],[-72.761107999999979,44.504128000000037],[-72.760543999999982,44.503349000000071],[-72.759582999999964,44.502773000000047],[-72.758082899999977,44.502465800000039],[-72.757076099999949,44.502335000000073],[-72.756528899999978,44.502256600000067],[-72.754370299999948,44.50178180000006],[-72.753002999999978,44.501477000000079],[-72.749186999999949,44.500960400000054],[-72.748420599999974,44.500724300000059],[-72.748036999999954,44.500548300000048],[-72.747704399999975,44.500387600000067],[-72.744509899999969,44.498973800000044],[-72.744397999999933,44.498885800000039],[-72.743909099999939,44.498321400000066],[-72.742726299999958,44.496400600000072],[-72.741454899999951,44.494152500000041],[-72.741340099999945,44.493962600000032],[-72.740386999999942,44.491798000000074],[-72.739818699999944,44.491542700000025],[-72.737169599999959,44.490892400000064],[-72.736503999999968,44.49076800000006],[-72.735446899999943,44.490509800000041],[-72.735244799999975,44.490450200000055],[-72.732207699999947,44.489579900000081],[-72.730237899999963,44.489200700000026],[-72.729496299999937,44.488890600000047],[-72.729057699999942,44.488571200000081],[-72.728510599999936,44.487842200000046],[-72.728352299999983,44.487161000000071],[-72.728316999999947,44.485619000000042],[-72.727539599999943,44.483666800000037],[-72.727186999999958,44.48200810000003],[-72.727065999999979,44.481457000000034],[-72.726776499999971,44.481070000000045],[-72.724208799999985,44.479507000000069],[-72.723281999999983,44.478809000000069],[-72.722270399999957,44.477313200000026],[-72.721259199999963,44.476804200000061],[-72.71938339999997,44.476191500000027],[-72.718971299999964,44.476019500000064],[-72.718583599999988,44.47584640000008],[-72.718397599999946,44.475753600000075],[-72.718553899999961,44.475566000000072],[-72.718668999999977,44.474912000000074],[-72.718682899999976,44.474681000000032],[-72.718765299999973,44.474193400000047],[-72.718759299999988,44.47413860000006],[-72.718632799999966,44.473943400000053],[-72.719015099999979,44.473902900000041],[-72.719551099999933,44.473844700000029],[-72.720021599999939,44.473750600000074],[-72.721135799999956,44.473278700000037],[-72.724539499999935,44.471969600000079],[-72.72542599999997,44.471958000000029],[-72.726422499999956,44.472044200000028],[-72.727342499999963,44.472097800000029],[-72.729720999999984,44.472579000000053],[-72.730124999999987,44.472858000000031],[-72.730231999999944,44.474045000000046],[-72.731038999999953,44.47536000000008],[-72.73156629999994,44.475762900000063],[-72.731744799999944,44.475716700000078],[-72.731978999999967,44.475014000000044],[-72.733069999999941,44.474174000000062],[-72.735043399999938,44.474024000000043],[-72.736527699999954,44.474394300000029],[-72.737907099999973,44.47474260000007],[-72.738137999999935,44.474469000000056],[-72.739181999999971,44.473209000000054],[-72.740017999999964,44.471789700000045],[-72.740400199999954,44.471318900000028],[-72.740754399999958,44.47083450000008],[-72.741388699999959,44.469909900000061],[-72.741935999999953,44.469048000000043],[-72.742755199999976,44.467862700000069],[-72.744324899999981,44.465636800000027],[-72.744373199999984,44.465555800000061],[-72.744761899999958,44.465481000000068]],[[-72.744761899999958,44.465481000000068],[-72.744548099999975,44.465262500000051],[-72.744373199999984,44.465555800000061],[-72.744324899999981,44.465636800000027],[-72.742755199999976,44.467862700000069],[-72.741935999999953,44.469048000000043],[-72.741388699999959,44.469909900000061],[-72.740754399999958,44.47083450000008],[-72.740400199999954,44.471318900000028],[-72.740017999999964,44.471789700000045],[-72.739181999999971,44.473209000000054],[-72.738137999999935,44.474469000000056],[-72.737907099999973,44.47474260000007],[-72.736527699999954,44.474394300000029],[-72.735043399999938,44.474024000000043],[-72.733069999999941,44.474174000000062],[-72.731978999999967,44.475014000000044],[-72.731744799999944,44.475716700000078],[-72.73156629999994,44.475762900000063],[-72.731038999999953,44.47536000000008],[-72.730231999999944,44.474045000000046],[-72.730124999999987,44.472858000000031],[-72.729720999999984,44.472579000000053],[-72.727342499999963,44.472097800000029],[-72.726422499999956,44.472044200000028],[-72.726594099999943,44.471808800000076],[-72.727451499999972,44.46887520000007],[-72.728210199999978,44.46610400000003],[-72.729033999999956,44.462841000000026],[-72.728942999999958,44.459091000000058],[-72.729384099999947,44.456859000000065],[-72.729649699999982,44.455180000000041],[-72.729349199999945,44.454188300000055],[-72.72885569999994,44.453062500000044],[-72.728820999999982,44.452530000000081],[-72.729842799999972,44.451090400000055],[-72.730765499999961,44.450152200000048],[-72.731800799999974,44.448800400000039],[-72.733289399999933,44.447504000000038],[-72.734413299999972,44.447885100000065],[-72.735287699999958,44.448082300000067],[-72.735877699999946,44.448045900000068],[-72.737029999999947,44.447716000000071],[-72.737599699999976,44.447377700000061],[-72.737967199999957,44.447038700000064],[-72.738610899999969,44.445531800000026],[-72.73920099999998,44.444723700000054],[-72.739879599999938,44.444189400000027],[-72.740469699999949,44.443469400000026],[-72.740635999999938,44.443145800000025],[-72.741485999999952,44.443104000000062],[-72.742873199999963,44.443738900000028],[-72.745116999999937,44.445248000000049],[-72.747001999999952,44.447582000000068],[-72.747994999999946,44.448147000000063],[-72.748954999999967,44.448479000000077],[-72.750937999999962,44.449509000000035],[-72.754378999999972,44.452049000000045],[-72.755744999999933,44.453648000000044],[-72.758361999999977,44.456257000000051],[-72.760184999999979,44.458534000000043],[-72.76086399999997,44.458897000000036],[-72.762031999999977,44.459129000000075],[-72.762119999999982,44.459140000000048],[-72.762809999999945,44.459267000000068],[-72.764106999999967,44.459873000000073],[-72.765716999999938,44.460770000000025],[-72.767333999999948,44.462757000000067],[-72.769034999999974,44.463291000000027],[-72.770080999999948,44.46409600000004],[-72.771766999999954,44.46498900000006],[-72.772979999999961,44.465221000000042],[-72.77352099999996,44.465603000000044],[-72.774466999999959,44.466442000000029],[-72.775397999999939,44.466846000000032],[-72.777152999999942,44.467049000000031],[-72.778121999999939,44.466579000000081],[-72.779319999999984,44.466423000000077],[-72.780581099999949,44.467284300000074],[-72.781441899999948,44.467444400000034],[-72.783436499999937,44.467107700000042],[-72.785800499999937,44.467580100000077],[-72.787579199999982,44.467077200000062],[-72.788300999999933,44.467182500000035],[-72.789189799999974,44.467565300000047],[-72.790361399999938,44.467461800000081],[-72.791813499999989,44.468185700000049],[-72.794086299999947,44.468392900000026],[-72.795649099999935,44.467989100000068],[-72.796964499999945,44.467971600000055],[-72.79886399999998,44.468815600000028],[-72.798774999999978,44.469051000000036],[-72.798163999999986,44.469501000000037],[-72.797667999999987,44.470688000000052],[-72.797294999999963,44.470997000000068],[-72.794402999999988,44.471039000000076],[-72.792083999999988,44.470711000000051],[-72.790180699999951,44.470920100000058],[-72.789392599999985,44.471062200000063],[-72.786747996999964,44.470836640000073]],[[-72.786747996999964,44.470836640000073],[-72.789392599999985,44.471062200000063],[-72.790180699999951,44.470920100000058],[-72.792083999999988,44.470711000000051],[-72.794402999999988,44.471039000000076],[-72.797294999999963,44.470997000000068],[-72.797667999999987,44.470688000000052],[-72.798163999999986,44.469501000000037],[-72.798774999999978,44.469051000000036],[-72.79886399999998,44.468815600000028],[-72.796964499999945,44.467971600000055],[-72.795649099999935,44.467989100000068],[-72.794086299999947,44.468392900000026],[-72.791813499999989,44.468185700000049],[-72.790361399999938,44.467461800000081],[-72.789189799999974,44.467565300000047],[-72.788300999999933,44.467182500000035],[-72.787579199999982,44.467077200000062],[-72.785800499999937,44.467580100000077],[-72.783436499999937,44.467107700000042],[-72.781441899999948,44.467444400000034],[-72.780581099999949,44.467284300000074],[-72.779319999999984,44.466423000000077],[-72.778121999999939,44.466579000000081],[-72.777152999999942,44.467049000000031],[-72.775397999999939,44.466846000000032],[-72.774466999999959,44.466442000000029],[-72.77352099999996,44.465603000000044],[-72.772979999999961,44.465221000000042],[-72.771766999999954,44.46498900000006],[-72.770080999999948,44.46409600000004],[-72.769034999999974,44.463291000000027],[-72.767333999999948,44.462757000000067],[-72.765716999999938,44.460770000000025],[-72.764106999999967,44.459873000000073],[-72.762809999999945,44.459267000000068],[-72.762119999999982,44.459140000000048],[-72.762031999999977,44.459129000000075],[-72.76086399999997,44.458897000000036],[-72.760184999999979,44.458534000000043],[-72.758361999999977,44.456257000000051],[-72.755744999999933,44.453648000000044],[-72.754378999999972,44.452049000000045],[-72.750937999999962,44.449509000000035],[-72.748954999999967,44.448479000000077],[-72.747994999999946,44.448147000000063],[-72.747001999999952,44.447582000000068],[-72.745116999999937,44.445248000000049],[-72.742873199999963,44.443738900000028],[-72.741485999999952,44.443104000000062],[-72.740635999999938,44.443145800000025],[-72.740469699999949,44.443469400000026],[-72.739879599999938,44.444189400000027],[-72.73920099999998,44.444723700000054],[-72.738610899999969,44.445531800000026],[-72.737967199999957,44.447038700000064],[-72.737599699999976,44.447377700000061],[-72.737029999999947,44.447716000000071],[-72.735877699999946,44.448045900000068],[-72.735287699999958,44.448082300000067],[-72.734413299999972,44.447885100000065],[-72.733289399999933,44.447504000000038],[-72.732578999999987,44.447080200000073],[-72.729644299999961,44.44583810000006],[-72.728150699999958,44.444983400000069],[-72.725846299999944,44.443410000000029],[-72.725018999999975,44.443142500000079],[-72.722675299999935,44.442860600000074],[-72.721965099999977,44.442776200000026],[-72.721538299999963,44.442700200000047],[-72.719373399999938,44.442256900000075],[-72.716235299999937,44.441729100000032],[-72.715781799999945,44.441621300000065],[-72.715437099999974,44.441454700000065],[-72.714958499999966,44.441021800000044],[-72.71484449999997,44.440858000000048],[-72.714802599999985,44.440767900000026],[-72.714775399999951,44.440675700000043],[-72.714317799999947,44.439589000000069],[-72.713894099999948,44.438759400000038],[-72.714056599999935,44.437381900000048],[-72.713296599999978,44.436727900000051],[-72.71247939999995,44.436282400000039],[-72.711561699999947,44.435800500000028],[-72.711301899999967,44.436217500000055],[-72.709594999999979,44.438705000000027],[-72.708164899999986,44.440102000000081],[-72.707078099999933,44.440912000000026],[-72.706085599999938,44.441515200000026],[-72.704098099999953,44.442308000000025],[-72.703668999999934,44.442449700000054],[-72.702845499999967,44.443056800000079],[-72.702665099999933,44.443255100000044],[-72.702182999999934,44.445149800000081],[-72.701045799999974,44.446559100000059],[-72.699950999999942,44.447937000000081],[-72.69931859999997,44.449092900000039],[-72.699114999999949,44.449420000000032],[-72.69905099999994,44.449524000000054],[-72.698390299999971,44.450378300000068],[-72.697738999999956,44.451092000000074],[-72.697126099999934,44.452083600000037],[-72.69689969999996,44.452773400000069],[-72.696887099999969,44.452811800000063],[-72.696753899999976,44.453234100000032],[-72.696246899999949,44.454116700000043],[-72.695447599999966,44.454876800000079],[-72.694731499999989,44.45576520000003],[-72.694573199999979,44.456151900000066],[-72.694258899999966,44.457309500000065],[-72.693980499999952,44.458020500000032],[-72.693398399999978,44.458914500000049],[-72.693162399999949,44.459352900000056],[-72.693030999999962,44.459638200000029],[-72.692612499999939,44.460940000000051],[-72.691898799999933,44.461388600000078],[-72.691791799999976,44.461451100000033],[-72.691558399999963,44.461646300000041],[-72.691453799999977,44.461804500000028],[-72.690875299999959,44.462326500000074],[-72.690671599999973,44.462455300000045],[-72.690179799999953,44.462833200000034],[-72.689982199999974,44.463325100000077],[-72.689941299999987,44.463519000000076],[-72.689645999999982,44.464595300000042],[-72.689403199999958,44.464937200000065],[-72.689345599999967,44.46498390000005],[-72.688886899999943,44.465148500000055],[-72.688758999999948,44.46517730000005],[-72.688463099999979,44.465244200000029],[-72.688406417999943,44.465254466000033]],[[-72.688406417999943,44.465254466000033],[-72.687962299999981,44.465334900000073],[-72.687406299999964,44.465435700000057],[-72.687669399999947,44.465941400000077],[-72.687914899999953,44.466252300000065],[-72.688050099999941,44.466423400000053],[-72.688138599999945,44.466534400000057],[-72.688752799999975,44.467235000000073],[-72.687929399999973,44.468754800000056],[-72.68760919999994,44.469417900000053],[-72.687390299999947,44.470164500000067],[-72.687830099999985,44.470934000000057],[-72.688044699999978,44.471251700000039],[-72.688269499999933,44.471565800000064],[-72.688453399999958,44.471799000000033],[-72.688575799999967,44.471949400000028],[-72.688642799999968,44.472022100000061],[-72.688827899999978,44.472222100000067],[-72.689647299999933,44.472871000000055],[-72.689855199999954,44.472953300000029],[-72.690154299999961,44.473015500000031],[-72.696837999999957,44.473507000000041],[-72.698683699999947,44.47390050000007],[-72.699203399999988,44.474024300000053],[-72.700642899999934,44.474424200000044],[-72.701590999999951,44.474728000000027],[-72.702849999999955,44.474545000000035],[-72.703620999999941,44.474153400000034],[-72.704355899999939,44.47313900000006],[-72.705817999999965,44.472450000000038],[-72.706356999999969,44.47236300000003],[-72.707424399999979,44.472390700000062],[-72.708385999999962,44.472647800000061],[-72.709393099999943,44.472995500000081],[-72.710602799999947,44.47342610000004],[-72.712104799999963,44.473933300000056],[-72.712150899999983,44.473939900000062],[-72.712357499999939,44.473965400000054],[-72.71238939999995,44.473802000000035],[-72.711961144999975,44.473682813000039]],[[-72.711961144999975,44.473682813000039],[-72.71238939999995,44.473802000000035],[-72.712357499999939,44.473965400000054],[-72.71286779999997,44.473996600000078],[-72.713545099999976,44.47402610000006],[-72.714032399999951,44.47405370000007],[-72.714365799999939,44.474074500000029],[-72.715905499999963,44.474218500000063],[-72.716336099999978,44.474175800000069],[-72.718255099999965,44.473983400000066],[-72.718632799999966,44.473943400000053],[-72.719015099999979,44.473902900000041],[-72.719551099999933,44.473844700000029],[-72.720021599999939,44.473750600000074],[-72.721135799999956,44.473278700000037],[-72.724539499999935,44.471969600000079],[-72.72542599999997,44.471958000000029],[-72.726422499999956,44.472044200000028],[-72.726594099999943,44.471808800000076],[-72.727451499999972,44.46887520000007],[-72.728988999999956,44.463264000000038],[-72.728942999999958,44.459091000000058],[-72.729644299999961,44.455405900000073],[-72.729349199999945,44.454188300000055],[-72.72885569999994,44.453062500000044],[-72.728820999999982,44.452530000000081],[-72.729842799999972,44.451090400000055],[-72.730765499999961,44.450152200000048],[-72.731800799999974,44.448800400000039],[-72.733289399999933,44.447504000000038],[-72.732578999999987,44.447080200000073],[-72.729644299999961,44.44583810000006],[-72.728150699999958,44.444983400000069],[-72.725846299999944,44.443410000000029],[-72.725018999999975,44.443142500000079],[-72.722675299999935,44.442860600000074],[-72.721965099999977,44.442776200000026],[-72.721538299999963,44.442700200000047],[-72.719373399999938,44.442256900000075],[-72.716235299999937,44.441729100000032],[-72.715781799999945,44.441621300000065],[-72.715437099999974,44.441454700000065],[-72.714958499999966,44.441021800000044],[-72.71484449999997,44.440858000000048],[-72.714802599999985,44.440767900000026],[-72.714775399999951,44.440675700000043],[-72.714317799999947,44.439589000000069],[-72.713894099999948,44.438759400000038],[-72.714056599999935,44.437381900000048],[-72.713296599999978,44.436727900000051],[-72.71247939999995,44.436282400000039],[-72.711561699999947,44.435800500000028],[-72.712010899999939,44.435144900000068],[-72.712064399999974,44.435067100000026],[-72.713378999999975,44.432861000000059],[-72.713584999999966,44.432522000000063],[-72.714002999999934,44.431723000000034],[-72.714751999999976,44.43048900000008],[-72.716405999999949,44.42831700000005],[-72.718013999999982,44.427009000000055],[-72.718264199999965,44.426800700000058],[-72.720018899999957,44.425014800000042],[-72.721307599999989,44.423680300000058],[-72.721719999999948,44.422855900000059],[-72.722516599999949,44.420112600000039],[-72.722682899999938,44.418746700000042],[-72.722571999999957,44.416588000000047],[-72.72155209999994,44.414626100000078],[-72.721351799999979,44.413885900000025],[-72.721420599999988,44.413284400000066],[-72.72208779999994,44.411248300000068],[-72.722103899999979,44.409839000000034],[-72.721796799999936,44.408848300000045],[-72.720020799999986,44.406088200000056],[-72.71898699999997,44.404579000000069],[-72.718764999999962,44.403984000000037],[-72.718707999999936,44.403129000000035],[-72.719243399999982,44.397106000000065],[-72.719196799999963,44.39406960000008],[-72.719181999999989,44.393751200000054],[-72.718749999999943,44.391853000000026],[-72.718642999999986,44.390610000000038],[-72.718940999999973,44.388874000000044],[-72.720092399999942,44.386291400000061],[-72.720710999999937,44.384609000000069],[-72.720722699999953,44.384493600000042],[-72.720732399999974,44.384398300000043],[-72.72074699999996,44.383901000000037],[-72.720626899999957,44.381072000000074],[-72.720725999999956,44.380356000000063],[-72.720995999999957,44.379957000000047],[-72.722158499999978,44.378981200000055],[-72.722581299999945,44.378767400000072],[-72.723975999999936,44.378220000000056],[-72.724436999999966,44.377885000000049],[-72.724585999999988,44.377712000000031],[-72.725426299999981,44.376162700000066],[-72.725658399999986,44.375860600000067],[-72.726380099999972,44.374649200000079],[-72.726322899999957,44.372948200000053],[-72.726423899999986,44.37248500000004],[-72.726695499999948,44.371915600000079],[-72.727960499999938,44.369552500000054],[-72.729031999999961,44.368004100000064],[-72.730777999999987,44.365190600000062],[-72.730868999999984,44.365014900000062],[-72.731334499999946,44.364170000000058],[-72.732061299999941,44.363280600000053],[-72.732917499999985,44.36199490000007],[-72.732821499999943,44.360445000000027],[-72.733018799999968,44.359729000000073],[-72.733668199999954,44.358323200000029],[-72.734493199999974,44.357382900000061],[-72.734680999999966,44.35720450000008],[-72.735153599999933,44.356683100000055],[-72.735356499999966,44.356394900000055],[-72.735700599999973,44.355798700000037],[-72.736051499999974,44.355099900000027],[-72.736435099999937,44.354431400000067],[-72.737707799999953,44.352910800000075],[-72.737914299999943,44.352759300000059],[-72.739484899999979,44.351755400000059],[-72.740306799999985,44.351225000000056],[-72.74052729999994,44.351089500000057],[-72.74092909999996,44.35081450000007],[-72.741318999999976,44.350578000000041],[-72.74286589999997,44.349933900000053],[-72.743267999999944,44.349744900000076],[-72.743839499999979,44.34937640000004],[-72.744377999999983,44.348911000000044],[-72.745161199999984,44.347671600000069],[-72.745737099999985,44.346416400000066],[-72.745897399999933,44.346153500000071],[-72.745965499999954,44.346064000000069],[-72.746015499999942,44.34599680000008],[-72.746079899999984,44.345907600000032],[-72.746644899999978,44.34526070000004],[-72.747093999999947,44.344828100000029],[-72.747713899999951,44.344458400000065],[-72.747829599999989,44.344406000000049],[-72.748083399999985,44.34435220000006],[-72.748344599999939,44.34427560000006],[-72.748470299999951,44.34424910000007],[-72.749104899999963,44.344114300000058],[-72.749628399999949,44.343998000000056],[-72.750153799999964,44.343881400000043],[-72.750770699999975,44.343746100000033],[-72.751197099999956,44.343659800000069],[-72.752116999999942,44.343474900000047],[-72.752434199999982,44.343412700000044],[-72.752805999999964,44.34333410000005],[-72.753283199999942,44.343226400000049],[-72.754152599999941,44.343040100000053],[-72.754401199999961,44.342986800000062],[-72.754721099999983,44.342952600000046],[-72.75525829999998,44.343028400000037],[-72.755626599999971,44.343324500000051],[-72.755647199999942,44.343711300000052],[-72.755268999999942,44.344038400000045],[-72.754810299999974,44.344109300000071],[-72.754096199999935,44.343965100000048],[-72.752805999999964,44.34333410000005],[-72.752710899999954,44.343278300000065],[-72.751551199999938,44.342643000000066],[-72.748940999999945,44.341089000000068],[-72.747805999999969,44.339880000000051],[-72.74726099999998,44.338710000000049],[-72.747016799999983,44.337186900000063],[-72.746657999999968,44.334361000000058],[-72.74620699999997,44.332974000000036],[-72.745576999999969,44.331727000000058],[-72.745459599999947,44.33153550000003],[-72.744014999999933,44.329681000000051],[-72.741900999999984,44.32787970000004],[-72.739041999999984,44.326281000000051],[-72.733660999999984,44.324241000000029],[-72.732271999999966,44.323557000000051],[-72.725659999999948,44.318479000000025],[-72.723475599999972,44.317145900000071],[-72.718379999999968,44.314924000000076],[-72.717076999999961,44.314558000000034],[-72.715689699999984,44.314386100000036],[-72.715434699999946,44.314379200000076],[-72.713585999999964,44.314471100000048],[-72.709684999999979,44.315316900000028],[-72.706857999999954,44.315601800000081],[-72.704163299999948,44.315499500000044],[-72.701252599999975,44.314960900000074],[-72.698277999999959,44.313872500000059],[-72.695839699999965,44.312404500000071],[-72.694708299999945,44.311451300000044],[-72.693709699999943,44.310348100000056],[-72.692362499999945,44.308166000000028],[-72.691652399999953,44.30687770000003],[-72.688672499999939,44.301406400000076],[-72.687403999999958,44.299752000000069],[-72.686957999999947,44.299296000000027],[-72.685347999999976,44.297987000000035],[-72.683468999999945,44.296888000000081],[-72.682882999999947,44.296566000000041],[-72.682724699999937,44.296481700000072],[-72.679822899999976,44.294891200000052],[-72.679703199999949,44.294825700000047],[-72.679333399999962,44.294627100000071],[-72.677306999999985,44.293594000000041],[-72.674747099999934,44.292816400000049],[-72.67077809999995,44.291880300000059],[-72.668601599999988,44.291041200000052],[-72.666769999999985,44.290037000000041],[-72.664772999999968,44.288436000000047],[-72.663718999999958,44.287228000000027],[-72.661758899999938,44.284286000000066],[-72.659003999999982,44.280153000000041],[-72.657586999999978,44.278892900000073],[-72.655998999999952,44.278167000000053],[-72.648206899999934,44.27565050000004],[-72.644809899999984,44.274553300000036],[-72.634853599999985,44.271332000000029],[-72.62302429999994,44.266436900000031],[-72.613277899999957,44.262057700000071],[-72.610677099999975,44.261294900000053],[-72.610457100999952,44.261255500000061],[-72.609900499999981,44.261185900000044],[-72.606276999999977,44.260894000000064],[-72.604482999999959,44.260465000000067],[-72.602772999999956,44.259510000000034],[-72.601467799999966,44.25804160000007],[-72.601114799999948,44.257535700000062],[-72.600358699999958,44.256454200000064],[-72.600249299999973,44.256295800000032],[-72.600137299999972,44.256131900000071],[-72.59985869999997,44.255717200000049],[-72.599648499999944,44.255382500000053],[-72.597376599999961,44.25208340000006],[-72.595884999999953,44.250297600000067],[-72.595796999999948,44.250215000000026],[-72.595706999999948,44.250139000000047],[-72.595449999999971,44.249922800000036],[-72.595137999999963,44.249692000000039],[-72.594905599999947,44.249532300000055],[-72.59357799999998,44.248768000000041],[-72.590105999999935,44.247535000000028],[-72.589211299999988,44.247151600000052],[-72.588725899999986,44.246900800000049],[-72.587847899999986,44.24628800000005],[-72.587112099999956,44.24549230000008],[-72.586544999999944,44.244356000000039],[-72.586195499999974,44.242712700000027],[-72.585202199999969,44.237662000000057],[-72.585297999999966,44.236079000000075],[-72.586663999999985,44.229833000000042],[-72.586775999999986,44.228541000000064],[-72.586584999999957,44.226840000000038],[-72.585427099999947,44.22289470000004],[-72.585360399999956,44.222650700000031],[-72.585053099999982,44.221353800000031],[-72.584381999999948,44.218007000000057],[-72.583970999999963,44.216068000000064],[-72.583901999999966,44.215750000000071],[-72.583880999999963,44.215653000000032],[-72.583715799999936,44.214865800000041],[-72.583663899999976,44.214619000000027],[-72.583624899999961,44.214433700000029],[-72.582854999999938,44.211584000000073],[-72.582026999999982,44.20973500000008],[-72.581706799999949,44.209041700000057],[-72.580330899999979,44.206100700000036],[-72.578454999999963,44.201974000000064],[-72.577782999999954,44.199205000000063],[-72.576238999999987,44.182246000000077],[-72.576205999999956,44.179813000000081],[-72.576439599999958,44.176584800000057],[-72.576967599999989,44.17074260000004],[-72.57701899999995,44.170466000000033],[-72.57715989999997,44.16988630000003],[-72.577907899999957,44.167846000000054],[-72.577947999999935,44.167754000000059],[-72.578071999999963,44.167501000000073],[-72.579213899999957,44.165643000000046],[-72.58109879999995,44.163148300000046],[-72.583807199999967,44.159583600000076],[-72.586027299999955,44.156649200000061],[-72.595253999999954,44.144475000000057],[-72.597332399999971,44.142195600000036],[-72.59997999999996,44.139591000000053],[-72.600788999999963,44.138453000000027],[-72.601316999999938,44.136935000000051],[-72.601426299999957,44.134695800000031],[-72.601442999999961,44.13032400000003],[-72.601936999999964,44.12778000000003],[-72.602640999999949,44.12600800000007],[-72.606574599999988,44.118180100000075],[-72.608212099999946,44.115245500000071],[-72.608268399999986,44.115155000000073],[-72.609267999999986,44.113496000000055],[-72.612223599999936,44.108631400000036],[-72.612329499999987,44.108426300000076],[-72.612869299999943,44.106999600000051],[-72.613186999999982,44.10537000000005],[-72.613216999999963,44.103686000000039],[-72.613061499999958,44.102562700000078],[-72.612570999999946,44.100175000000036],[-72.612100999999939,44.097280000000069],[-72.612241999999981,44.094760000000065],[-72.612792999999954,44.092592000000025],[-72.614714999999933,44.086481000000049],[-72.614968699999963,44.084016701000053],[-72.614957999999945,44.083821300000068],[-72.614521999999965,44.081451000000072],[-72.61373199999997,44.079653000000064],[-72.609894999999938,44.073741000000041],[-72.608813999999938,44.071701000000076],[-72.608269999999948,44.070088000000055],[-72.607324899999981,44.06537000000003],[-72.606276999999977,44.059737000000041],[-72.605840999999941,44.057453000000066],[-72.605044999999961,44.053169000000025],[-72.604995999999971,44.052245000000028],[-72.605156999999963,44.05108000000007],[-72.605962999999974,44.04918500000008],[-72.609509999999943,44.043544000000054],[-72.61026499999997,44.042353000000048],[-72.614659999999958,44.035334000000034],[-72.615946999999949,44.032921000000044],[-72.617231999999944,44.029238000000078],[-72.617588999999953,44.027478000000031],[-72.617793999999947,44.025456000000077],[-72.618021999999939,44.019749000000047],[-72.618453099999954,44.01666060000008],[-72.618930999999975,44.01468600000004],[-72.621997999999962,44.005080000000078],[-72.624367999999947,43.998256000000026],[-72.625940999999955,43.994652000000031],[-72.626348999999948,43.993688000000077],[-72.627195999999969,43.99163800000008],[-72.62760499999996,43.990173000000027],[-72.627920999999958,43.98831000000007],[-72.627996499999938,43.986653000000047],[-72.627948099999969,43.985393400000078],[-72.627252899999974,43.980539800000031],[-72.626938799999948,43.978410000000054],[-72.626809999999978,43.977558000000045],[-72.626357999999982,43.974285000000066],[-72.625629999999944,43.966046000000063],[-72.624734999999987,43.962601000000063],[-72.622630999999956,43.957279000000028],[-72.622149999999976,43.955696000000046],[-72.621693999999934,43.952542000000051],[-72.621829999999989,43.949641000000042],[-72.621894399999974,43.948918300000059],[-72.621950999999967,43.948337001000027],[-72.621975499999962,43.94802930000003],[-72.622027999999943,43.947338400000035],[-72.622279799999944,43.944559600000048],[-72.622285199999965,43.944477900000038],[-72.622391499999935,43.940726000000041],[-72.622132099999988,43.938288600000078],[-72.621340999999973,43.934984000000043],[-72.620003099999963,43.931628500000045],[-72.618945099999962,43.929506600000025],[-72.615515999999957,43.922652200000073],[-72.61456499999997,43.920161000000064],[-72.613937999999962,43.917813000000081],[-72.613565999999935,43.915437000000054],[-72.613444999999956,43.91308900000007],[-72.613756999999964,43.909339000000045],[-72.615580999999963,43.900652000000036],[-72.616053599999987,43.898431901000038],[-72.617640999999935,43.890633000000037],[-72.61782599999998,43.887937000000079],[-72.617741999999964,43.885896000000059],[-72.617387999999949,43.883318000000031],[-72.616627999999935,43.880405000000053],[-72.615267999999958,43.877108000000078],[-72.609034999999949,43.865290000000073],[-72.608474999999942,43.863763000000063],[-72.607985999999983,43.861737000000062],[-72.607583999999974,43.856826000000069],[-72.607323999999949,43.855534000000034],[-72.606890999999962,43.85449600000004],[-72.60632099999998,43.853594000000044],[-72.60480599999994,43.852025000000026],[-72.603725299999951,43.851090100000079],[-72.603057499999977,43.850490600000057],[-72.601527999999973,43.84916400000003],[-72.599857999999983,43.847645000000057],[-72.598093399999982,43.84532820000004],[-72.598007099999961,43.845205700000065],[-72.597972899999945,43.845157200000074],[-72.597783999999933,43.84488900000008],[-72.592480999999964,43.837409000000036],[-72.59047099999998,43.834582000000069],[-72.590364099999988,43.834442100000047],[-72.58834399999995,43.832439000000079],[-72.585395199999937,43.830612200000076],[-72.583733299999949,43.829687000000035],[-72.583166699999936,43.829376900000057],[-72.582383199999981,43.828640200000052],[-72.58230199999997,43.828175000000044],[-72.582528199999956,43.82705930000003],[-72.581384499999956,43.825503100000049],[-72.585535999999934,43.824226000000067],[-72.589177999999947,43.823697000000038],[-72.592752999999959,43.823651000000041],[-72.59621999999996,43.823661000000072],[-72.603521699999988,43.823450100000059],[-72.60480229999996,43.823471400000074],[-72.606082299999969,43.823784400000079],[-72.609140199999956,43.825002500000039],[-72.611483699999951,43.825856000000044],[-72.611969299999942,43.825912100000039],[-72.61390739999996,43.825820300000032],[-72.614383499999974,43.825776700000063],[-72.61469859999994,43.825750700000071],[-72.614749099999983,43.825746500000037],[-72.615669499999967,43.825669300000072],[-72.616642999999954,43.825610800000049],[-72.617419699999971,43.825612300000046],[-72.618396099999984,43.825632600000063],[-72.621967999999981,43.825563000000045],[-72.623208399999953,43.825487800000076],[-72.623493499999938,43.825469800000064],[-72.623982999999953,43.825440000000071],[-72.625324999999975,43.82543000000004],[-72.627562999999952,43.825737000000061],[-72.62833999999998,43.826002000000074],[-72.629059999999981,43.826499000000069],[-72.629091199999948,43.826528300000064],[-72.630086799999958,43.82772570000003],[-72.630396499999961,43.828091400000062],[-72.630873799999961,43.828171700000041],[-72.631061599999953,43.828043000000036],[-72.63121179999996,43.827924000000053],[-72.631424999999979,43.827747000000045],[-72.631671799999936,43.827509900000052],[-72.631838099999982,43.827332900000044],[-72.631993799999975,43.82714320000008],[-72.632066099999975,43.827055200000075],[-72.632099599999947,43.827013600000043],[-72.632307499999968,43.826629500000081],[-72.63233699999995,43.82593380000003],[-72.632069999999942,43.825008000000025],[-72.631753999999944,43.824131000000079],[-72.631668399999967,43.823866600000031],[-72.631478299999969,43.823289900000077],[-72.631348199999934,43.822798000000034],[-72.63165239999995,43.822185200000035],[-72.631849599999953,43.822024700000043],[-72.632057499999974,43.821875400000067],[-72.632437399999958,43.821602300000052],[-72.632958099999939,43.821056700000042],[-72.635282699999948,43.817591200000038],[-72.636227399999939,43.815778700000067],[-72.637025999999935,43.814575000000048],[-72.638432999999964,43.813193000000069],[-72.640033999999957,43.812011000000041],[-72.64143299999995,43.811337000000037],[-72.642772999999977,43.810884000000044],[-72.645883999999967,43.810222000000067],[-72.646715999999969,43.810138000000052],[-72.646984999999972,43.810126000000025],[-72.647738499999946,43.810097400000075],[-72.648127199999976,43.810079300000041],[-72.648733899999968,43.810047600000075],[-72.650601499999937,43.809947300000033],[-72.651137699999936,43.809922200000074],[-72.651631899999984,43.809893500000044],[-72.65232599999996,43.809853100000055],[-72.657531999999946,43.809486800000059],[-72.659096399999953,43.809059300000058],[-72.660516399999949,43.808374700000059],[-72.660814499999958,43.80821700000007],[-72.662494999999979,43.80746380000005],[-72.66349409999998,43.806264600000077],[-72.663797699999975,43.805841100000066],[-72.663921799999969,43.805684700000029],[-72.664886999999965,43.804652300000043],[-72.665168999999935,43.804060100000072],[-72.665076199999987,43.803096700000026],[-72.664284499999951,43.801897600000075],[-72.663065999999958,43.799641000000065],[-72.662755999999945,43.795555000000036],[-72.662979299999961,43.794748300000037],[-72.663627299999973,43.793916700000068],[-72.66492489999996,43.793117400000028],[-72.666071299999942,43.792903200000069],[-72.667992199999958,43.792815300000029],[-72.67037659999994,43.793117100000075],[-72.672099999999944,43.792945100000054],[-72.676641299999972,43.792186700000059],[-72.677690799999937,43.791768800000057],[-72.678674499999943,43.790969500000074],[-72.679990799999985,43.788790900000038],[-72.681361099999947,43.787757900000031],[-72.684891999999934,43.786433000000045],[-72.685047999999938,43.78637400000008],[-72.689034999999933,43.78467100000006],[-72.691989999999976,43.78235600000005],[-72.693238999999949,43.781786000000068],[-72.695010999999965,43.781217000000026],[-72.695656999999983,43.780848000000049],[-72.700414799999976,43.776252000000056],[-72.701565099999982,43.775625300000058],[-72.702225299999952,43.775417800000071],[-72.702833799999951,43.77521310000003],[-72.703484799999956,43.774876900000038],[-72.703858299999979,43.774433800000054],[-72.703913699999987,43.774027800000056],[-72.703716799999938,43.773318300000028],[-72.703646599999956,43.772627900000032],[-72.704036499999972,43.771152800000038],[-72.704670599999986,43.770134300000052],[-72.705327499999953,43.769618100000059],[-72.707519299999944,43.768461700000046],[-72.708919999999978,43.767502000000036],[-72.709234999999978,43.767284000000075],[-72.711737299999982,43.765377700000045],[-72.712681799999984,43.765046600000062],[-72.713730999999939,43.764880000000062],[-72.715649999999982,43.764470000000074],[-72.719646999999952,43.763005000000078],[-72.72079199999996,43.761986000000036],[-72.721405999999945,43.76112500000005],[-72.721527999999978,43.760889000000077],[-72.721847999999966,43.760259000000076],[-72.722324999999955,43.75935400000003],[-72.72335499999997,43.75875700000006],[-72.725034999999934,43.758538000000044],[-72.725964999999974,43.758482000000072],[-72.732872999999984,43.758638000000076],[-72.737644999999986,43.759183000000064],[-72.738870999999961,43.759550000000047],[-72.739799999999946,43.760039000000063],[-72.74100599999997,43.760950000000037],[-72.741771999999969,43.761894000000041],[-72.742791999999952,43.763278000000071],[-72.743869999999959,43.765544000000034],[-72.744424999999978,43.766056000000049],[-72.745947999999942,43.766992000000073],[-72.746880999999973,43.767309000000068],[-72.749041999999974,43.767580000000066],[-72.750063999999952,43.767848000000072],[-72.751322999999957,43.768223000000035],[-72.754830999999967,43.768886000000066],[-72.756269999999972,43.76936500000005],[-72.757707799999935,43.770073100000047],[-72.758749999999964,43.770780000000059],[-72.760363599999948,43.77221140000006],[-72.760556999999949,43.772392000000025],[-72.760699999999986,43.772524000000033],[-72.761532999999986,43.773329000000047],[-72.762387999999987,43.774117000000047],[-72.762476599999957,43.774187700000027],[-72.763535299999944,43.774899700000049],[-72.766281299999946,43.776092700000049],[-72.768236999999942,43.776460400000076],[-72.768578899999966,43.776478300000065],[-72.778317999999956,43.776960000000031],[-72.779990999999939,43.777266000000054],[-72.780898999999977,43.777605000000051],[-72.784786699999984,43.779536600000029],[-72.785613699999942,43.779666600000041],[-72.786789399999975,43.779542400000025],[-72.790660999999943,43.778893000000039],[-72.792059999999935,43.778664000000049],[-72.792772699999944,43.778557900000067],[-72.794696599999952,43.77825770000004],[-72.795806299999981,43.778274500000066],[-72.798521999999934,43.778807000000029],[-72.798786999999948,43.778819000000055],[-72.799980999999946,43.778718000000026],[-72.802708999999936,43.77813100000003],[-72.804767999999967,43.777844000000073],[-72.806650999999988,43.777203000000043],[-72.809086999999977,43.776392000000044],[-72.810574999999972,43.775652000000036],[-72.812031999999988,43.774278000000038],[-72.812243999999964,43.774067000000059],[-72.81301899999994,43.773082000000045],[-72.813050999999973,43.771816000000058],[-72.813011999999958,43.771197000000029],[-72.812944999999957,43.76927500000005],[-72.813220999999942,43.768614000000071],[-72.813758199999938,43.768052300000079],[-72.813909699999954,43.767886000000033],[-72.814593999999943,43.766892000000041],[-72.815392999999972,43.766068000000075],[-72.817821799999933,43.764019800000028],[-72.818186699999956,43.763461600000028],[-72.818217599999969,43.763383600000054],[-72.818590999999969,43.761446000000035],[-72.820159299999943,43.756958100000077],[-72.820441999999957,43.755990000000054],[-72.820326999999963,43.755071000000044],[-72.820293999999933,43.754910000000052],[-72.820310499999948,43.75412700000004],[-72.820546499999978,43.753307500000062],[-72.82058139999998,43.753189300000031],[-72.820740999999941,43.751682000000073],[-72.82057999999995,43.746814000000029],[-72.820648999999946,43.745748000000049],[-72.81997599999994,43.742787000000078],[-72.820496999999989,43.737018000000035],[-72.820788999999934,43.735627000000079],[-72.820753999999965,43.734735000000057],[-72.820731999999964,43.734539000000041],[-72.820721999999989,43.733863000000042],[-72.820835999999986,43.732972000000075],[-72.82132699999994,43.731465000000071],[-72.822601999999961,43.730003000000067],[-72.822887999999978,43.729483000000073],[-72.823013999999944,43.727751000000069],[-72.823081399999978,43.725304100000074],[-72.822543199999984,43.723762200000067],[-72.822904799999947,43.722547000000077],[-72.82274579999995,43.721554000000026],[-72.822816499999988,43.721030900000073],[-72.823047499999973,43.719774900000061],[-72.824051399999973,43.718550100000073],[-72.824577299999987,43.717881500000033],[-72.824805799999979,43.717709700000057],[-72.825364199999967,43.717361500000038],[-72.825643599999978,43.717160500000034],[-72.826532999999984,43.716179000000068],[-72.826908999999944,43.715419000000054],[-72.826955999999939,43.714378000000067],[-72.826638999999943,43.713260000000048],[-72.826451999999961,43.712734000000069],[-72.82627599999995,43.710745000000031],[-72.825991999999985,43.709455000000048],[-72.825601999999947,43.708566000000076],[-72.82500269999997,43.707497100000069],[-72.823428999999976,43.705103000000065],[-72.821875999999975,43.702341000000047],[-72.821008999999947,43.701692000000037],[-72.818134599999951,43.701015000000041],[-72.817229999999938,43.700644000000068],[-72.816469999999981,43.69991200000004],[-72.815694999999948,43.699166000000048],[-72.814433099999974,43.698473600000057],[-72.81395219999996,43.69799560000007],[-72.813756999999953,43.697490000000073],[-72.813778899999988,43.696978000000058],[-72.813983999999948,43.696094000000073],[-72.814246999999966,43.695124000000078],[-72.814300899999978,43.693850100000077],[-72.813656299999934,43.692139100000077],[-72.813252999999975,43.691637000000071],[-72.812154999999962,43.690744000000052],[-72.811788999999976,43.689865000000054],[-72.81191599999994,43.688895000000059],[-72.812966999999958,43.687667000000033],[-72.813437999999962,43.686567000000025],[-72.813694999999939,43.685504000000037],[-72.813593999999966,43.683997000000033],[-72.813310999999942,43.682577000000038],[-72.811791999999969,43.680892000000028],[-72.810972999999933,43.680137000000059],[-72.810780999999963,43.679353000000049],[-72.81077259999995,43.679129400000079],[-72.810504499999979,43.677883200000053],[-72.810469999999953,43.67704400000008],[-72.809913999999935,43.675550000000044],[-72.809507799999949,43.674444300000062],[-72.809142999999949,43.673881000000051],[-72.808478199999968,43.673250800000062],[-72.807784999999967,43.672594000000061],[-72.807046999999955,43.671604000000059],[-72.806763999999987,43.671284000000071],[-72.806033399999933,43.670534200000077],[-72.805670499999962,43.670107600000051],[-72.805495999999948,43.669712000000061],[-72.805516099999977,43.669203300000049],[-72.805619999999976,43.66889400000008],[-72.805307999999968,43.668559000000073],[-72.804571099999976,43.668228100000078],[-72.804506699999934,43.668162100000075],[-72.804096999999956,43.668127000000027],[-72.803899899999976,43.668104800000037],[-72.803639999999973,43.668067000000065],[-72.803588499999989,43.667802600000073],[-72.80351399999995,43.667647000000045],[-72.803479899999957,43.667603100000065],[-72.802759599999945,43.666784200000052],[-72.801376999999945,43.665267000000028],[-72.79984399999995,43.663617000000045],[-72.79707099999996,43.660641000000055],[-72.795496999999955,43.659619000000077],[-72.794989499999986,43.659362400000077],[-72.79376689999998,43.658829700000069],[-72.793166999999983,43.658639000000051],[-72.792122999999947,43.658429400000045],[-72.790276999999946,43.658070000000066],[-72.789492999999936,43.657470000000046],[-72.789368999999965,43.657236000000069],[-72.789297999999974,43.656426000000067],[-72.789750999999967,43.655610000000081],[-72.790709999999933,43.654193000000078],[-72.790747999999951,43.654105000000072],[-72.791564999999935,43.654508000000078],[-72.792223999999976,43.655179000000032],[-72.79274799999996,43.655102000000056],[-72.793109999999956,43.655069000000026],[-72.794600574999947,43.655462697000075]]]},"properties":{"OBJECTID":1,"Name":"Airbnb, 95 Priscilla Lane, Killington - Airbnb, 95 Priscilla Lane, Killington","FirstStopID":20,"LastStopID":38,"StopCount":19,"StartTime":1790668800000,"EndTime":1790715376000,"StartTimeUTC":1790683200000,"EndTimeUTC":1790729776000,"TotalWait_Minutes":null,"TotalWait_TimeAt1KPH":null,"TotalWait_TravelTime":null,"TotalWait_TruckMinutes":null,"TotalWait_TruckTravelTime":null,"TotalWait_WalkTime":null,"TotalViolation_Minutes":null,"TotalViolation_TimeAt1KPH":null,"TotalViolation_TravelTime":null,"TotalViolation_TruckMinutes":null,"TotalViolation_TruckTravelTime":null,"TotalViolation_WalkTime":null,"Total_Minutes":null,"Total_TimeAt1KPH":null,"Total_TravelTime":776.27191812251715,"Total_TruckMinutes":null,"Total_TruckTravelTime":null,"Total_WalkTime":null,"Total_Kilometers":314.34244593061663,"Total_Miles":null,"Shape_Length":3.2155124555874459}}]}