{"type":"FeatureCollection","features":[{"type":"Feature","id":1,"geometry":{"type":"Point","coordinates":[-71.017139799999939,42.36630480000008]},"properties":{"ObjectID":1,"RouteID":1,"Sequence":1,"DirectionPointType":51,"StopID":1,"DisplayText":"Start at Boston Logan International Airport","ArrivalTime":null,"ArrivalUTCOffset":null,"Name":"Boston Logan International Airport","ExitName":null,"AlternateName":null,"IntersectingName":null,"BranchName":null,"TowardName":null,"Level":null,"ShortVoiceInstruction":"Start","VoiceInstruction":"Start at Boston Logan International Airport","Azimuth":null}},{"type":"Feature","id":2,"geometry":{"type":"Point","coordinates":[-71.017139799999939,42.36630480000008]},"properties":{"ObjectID":2,"RouteID":1,"Sequence":2,"DirectionPointType":52,"StopID":null,"DisplayText":"Go north on Terminal C","ArrivalTime":null,"ArrivalUTCOffset":null,"Name":"Terminal C","ExitName":null,"AlternateName":null,"IntersectingName":null,"BranchName":null,"TowardName":null,"Level":null,"ShortVoiceInstruction":"Continue on Terminal C","VoiceInstruction":"Go north on Terminal C","Azimuth":358.32162475585938}},{"type":"Feature","id":3,"geometry":{"type":"Point","coordinates":[-71.018097687999955,42.367238019000069]},"properties":{"ObjectID":3,"RouteID":1,"Sequence":3,"DirectionPointType":304,"StopID":null,"DisplayText":"Bear right on Terminal Access Rd (Terminal Rd)","ArrivalTime":null,"ArrivalUTCOffset":null,"Name":"Terminal Access Rd","ExitName":null,"AlternateName":"Terminal Rd","IntersectingName":null,"BranchName":null,"TowardName":null,"Level":null,"ShortVoiceInstruction":"Bear right","VoiceInstruction":"Bear right on Terminal Access Road (Terminal Road)","Azimuth":311.12887573242188}},{"type":"Feature","id":4,"geometry":{"type":"Point","coordinates":[-71.018928703999961,42.36765371100006]},"properties":{"ObjectID":4,"RouteID":1,"Sequence":4,"DirectionPointType":200,"StopID":null,"DisplayText":"Keep left at the fork toward Terminals A B C / Central Parking / Airport Exit","ArrivalTime":null,"ArrivalUTCOffset":null,"Name":null,"ExitName":null,"AlternateName":null,"IntersectingName":null,"BranchName":null,"TowardName":"Terminals A B C / Central Parking / Airport Exit","Level":null,"ShortVoiceInstruction":"Keep left","VoiceInstruction":"Keep left at the fork toward Terminals A B C, Central Parking, Airport Exit","Azimuth":280.23373413085938}},{"type":"Feature","id":5,"geometry":{"type":"Point","coordinates":[-71.021570908999934,42.36804053600008]},"properties":{"ObjectID":5,"RouteID":1,"Sequence":5,"DirectionPointType":300,"StopID":null,"DisplayText":"Keep right at the fork toward Cell Phone Lot / Gen. Aviation / Economy / Fuel/Food / Hotels","ArrivalTime":null,"ArrivalUTCOffset":null,"Name":null,"ExitName":null,"AlternateName":null,"IntersectingName":null,"BranchName":null,"TowardName":"Cell Phone Lot / Gen. Aviation / Economy / Fuel/Food / Hotels","Level":null,"ShortVoiceInstruction":"Keep right","VoiceInstruction":"Keep right at the fork toward Cell Phone Lot, Gen. Aviation, Economy, Fuel Food, Hotels","Azimuth":288.26458740234375}},{"type":"Feature","id":6,"geometry":{"type":"Point","coordinates":[-71.02617345799996,42.370136316000071]},"properties":{"ObjectID":6,"RouteID":1,"Sequence":6,"DirectionPointType":52,"StopID":null,"DisplayText":"Continue forward to William F McClellan Hwy S (MA-1A S)","ArrivalTime":null,"ArrivalUTCOffset":null,"Name":"William F McClellan Hwy S","ExitName":null,"AlternateName":"MA-1A S","IntersectingName":null,"BranchName":null,"TowardName":null,"Level":null,"ShortVoiceInstruction":"Continue on William F McClellan Highway South","VoiceInstruction":"Continue forward to William F McClellan Highway South (MA  Massachusetts 1A)","Azimuth":323.34478759765625}},{"type":"Feature","id":7,"geometry":{"type":"Point","coordinates":[-71.027537176999942,42.37164897200006]},"properties":{"ObjectID":7,"RouteID":1,"Sequence":7,"DirectionPointType":300,"StopID":null,"DisplayText":"Keep right at the fork to merge onto MA-1A S toward I-93 N / Sumner Tunnel","ArrivalTime":null,"ArrivalUTCOffset":null,"Name":null,"ExitName":null,"AlternateName":null,"IntersectingName":null,"BranchName":"MA-1A S","TowardName":"I-93 N / Sumner Tunnel","Level":null,"ShortVoiceInstruction":"Keep right","VoiceInstruction":"Keep right at the fork to merge onto Massachusetts 1A S toward I 93 N, Sumner Tunnel","Azimuth":316.7325439453125}},{"type":"Feature","id":8,"geometry":{"type":"Point","coordinates":[-71.054960702999949,42.362700049000068]},"properties":{"ObjectID":8,"RouteID":1,"Sequence":8,"DirectionPointType":201,"StopID":null,"DisplayText":"Take the exit on the left to I-93 N toward Gov't Center","ArrivalTime":null,"ArrivalUTCOffset":null,"Name":null,"ExitName":null,"AlternateName":null,"IntersectingName":null,"BranchName":"I-93 N","TowardName":"Gov't Center","Level":null,"ShortVoiceInstruction":"Take ramp left","VoiceInstruction":"Take the exit on the left to I 93 N toward Gov't Center","Azimuth":216.61155700683594}},{"type":"Feature","id":9,"geometry":{"type":"Point","coordinates":[-71.056111339999973,42.362290130000076]},"properties":{"ObjectID":9,"RouteID":1,"Sequence":9,"DirectionPointType":300,"StopID":null,"DisplayText":"Keep right at the fork to merge onto I-93 N","ArrivalTime":null,"ArrivalUTCOffset":null,"Name":null,"ExitName":null,"AlternateName":null,"IntersectingName":null,"BranchName":"I-93 N","TowardName":null,"Level":null,"ShortVoiceInstruction":"Keep right","VoiceInstruction":"Keep right at the fork to merge onto I 93 N","Azimuth":309.0860595703125}},{"type":"Feature","id":10,"geometry":{"type":"Point","coordinates":[-71.082938239999976,42.390863177000028]},"properties":{"ObjectID":10,"RouteID":1,"Sequence":10,"DirectionPointType":1000,"StopID":null,"DisplayText":"Keep left at the fork to stay on I-93 N","ArrivalTime":null,"ArrivalUTCOffset":null,"Name":"I-93 N","ExitName":null,"AlternateName":null,"IntersectingName":null,"BranchName":null,"TowardName":null,"Level":null,"ShortVoiceInstruction":null,"VoiceInstruction":"Keep left at the fork to stay on I  I 93","Azimuth":null}},{"type":"Feature","id":11,"geometry":{"type":"Point","coordinates":[-71.118906313999958,42.502759362000063]},"properties":{"ObjectID":11,"RouteID":1,"Sequence":11,"DirectionPointType":301,"StopID":null,"DisplayText":"Take exit 28B on the right to merge onto I-95 S toward Waltham","ArrivalTime":null,"ArrivalUTCOffset":null,"Name":null,"ExitName":"28B","AlternateName":null,"IntersectingName":null,"BranchName":"I-95 S","TowardName":"Waltham","Level":null,"ShortVoiceInstruction":"Take ramp right","VoiceInstruction":"Take exit 28B on the right to merge onto I 95 S toward Waltham","Azimuth":17.306716918945312}},{"type":"Feature","id":12,"geometry":{"type":"Point","coordinates":[-71.191503013999977,42.488856776000034]},"properties":{"ObjectID":12,"RouteID":1,"Sequence":12,"DirectionPointType":52,"StopID":null,"DisplayText":"Go forward on US-3 N (I-95 S)","ArrivalTime":null,"ArrivalUTCOffset":null,"Name":"US-3 N","ExitName":null,"AlternateName":"I-95 S","IntersectingName":null,"BranchName":null,"TowardName":null,"Level":null,"ShortVoiceInstruction":"Continue on US  U.S. 3","VoiceInstruction":"Go forward on US  U.S. 3 (I  I 95)","Azimuth":231.77813720703125}},{"type":"Feature","id":13,"geometry":{"type":"Point","coordinates":[-71.209785364999959,42.479601857000034]},"properties":{"ObjectID":13,"RouteID":1,"Sequence":13,"DirectionPointType":301,"StopID":null,"DisplayText":"Take exit 50B-A on the right to merge onto US-3 N toward Nashua / NH / Middlesex Tpk / Burlington","ArrivalTime":null,"ArrivalUTCOffset":null,"Name":null,"ExitName":"50B-A","AlternateName":null,"IntersectingName":null,"BranchName":"US-3 N","TowardName":"Nashua / NH / Middlesex Tpk / Burlington","Level":null,"ShortVoiceInstruction":"Take ramp right","VoiceInstruction":"Take exit 50B A on the right to merge onto U.S. 3 N toward Nashua, NH, Middlesex Tpk, Burlington","Azimuth":262.19168090820312}},{"type":"Feature","id":14,"geometry":{"type":"Point","coordinates":[-71.216582648999974,42.477719696000065]},"properties":{"ObjectID":14,"RouteID":1,"Sequence":14,"DirectionPointType":301,"StopID":null,"DisplayText":"Take exit 50A on the right to merge onto US-3 N toward Lowell","ArrivalTime":null,"ArrivalUTCOffset":null,"Name":null,"ExitName":"50A","AlternateName":null,"IntersectingName":null,"BranchName":"US-3 N","TowardName":"Lowell","Level":null,"ShortVoiceInstruction":"Take ramp right","VoiceInstruction":"Take exit 50A on the right to merge onto U.S. 3 N toward Lowell","Azimuth":259.66485595703125}},{"type":"Feature","id":15,"geometry":{"type":"Point","coordinates":[-71.323059229999956,42.602075092000064]},"properties":{"ObjectID":15,"RouteID":1,"Sequence":15,"DirectionPointType":301,"StopID":null,"DisplayText":"Take the exit on the right to merge onto the highway","ArrivalTime":null,"ArrivalUTCOffset":null,"Name":null,"ExitName":null,"AlternateName":null,"IntersectingName":null,"BranchName":null,"TowardName":null,"Level":null,"ShortVoiceInstruction":"Take ramp right","VoiceInstruction":"Take the exit on the right to merge onto the highway","Azimuth":351.6668701171875}},{"type":"Feature","id":16,"geometry":{"type":"Point","coordinates":[-71.325530968999942,42.607992928000044]},"properties":{"ObjectID":16,"RouteID":1,"Sequence":16,"DirectionPointType":301,"StopID":null,"DisplayText":"Take exit 81B on the right to merge onto I-495 S toward Marlboro","ArrivalTime":null,"ArrivalUTCOffset":null,"Name":null,"ExitName":"81B","AlternateName":null,"IntersectingName":null,"BranchName":"I-495 S","TowardName":"Marlboro","Level":null,"ShortVoiceInstruction":"Take ramp right","VoiceInstruction":"Take exit 81B on the right to merge onto I 4 95 S toward Marlboro","Azimuth":347.77883911132812}},{"type":"Feature","id":17,"geometry":{"type":"Point","coordinates":[-71.331007150999937,42.607253921000051]},"properties":{"ObjectID":17,"RouteID":1,"Sequence":17,"DirectionPointType":52,"StopID":null,"DisplayText":"Take the exit to merge onto I-495 S","ArrivalTime":null,"ArrivalUTCOffset":null,"Name":"I-495 S","ExitName":null,"AlternateName":null,"IntersectingName":null,"BranchName":null,"TowardName":null,"Level":null,"ShortVoiceInstruction":"Continue on I  I 4 95","VoiceInstruction":"Take the exit to merge onto I  I 4 95","Azimuth":268.04965209960938}},{"type":"Feature","id":18,"geometry":{"type":"Point","coordinates":[-71.506223665999983,42.523642108000047]},"properties":{"ObjectID":18,"RouteID":1,"Sequence":18,"DirectionPointType":301,"StopID":null,"DisplayText":"Take exit 78B on the right to merge onto MA-2 W toward Leominster","ArrivalTime":null,"ArrivalUTCOffset":null,"Name":null,"ExitName":"78B","AlternateName":null,"IntersectingName":null,"BranchName":"MA-2 W","TowardName":"Leominster","Level":null,"ShortVoiceInstruction":"Take ramp right","VoiceInstruction":"Take exit 78B on the right to merge onto Massachusetts 2 W toward Leominster","Azimuth":250.8333740234375}},{"type":"Feature","id":19,"geometry":{"type":"Point","coordinates":[-71.517410418999987,42.525091256000053]},"properties":{"ObjectID":19,"RouteID":1,"Sequence":19,"DirectionPointType":52,"StopID":null,"DisplayText":"Go forward on George W Stanton Hwy (MA-2 W)","ArrivalTime":null,"ArrivalUTCOffset":null,"Name":"George W Stanton Hwy","ExitName":null,"AlternateName":"MA-2 W","IntersectingName":null,"BranchName":null,"TowardName":null,"Level":null,"ShortVoiceInstruction":"Continue on George W Stanton Highway","VoiceInstruction":"Go forward on George W Stanton Highway (MA  Massachusetts 2)","Azimuth":294.56158447265625}},{"type":"Feature","id":20,"geometry":{"type":"Point","coordinates":[-71.763007590999962,42.547411603000057]},"properties":{"ObjectID":20,"RouteID":1,"Sequence":20,"DirectionPointType":52,"StopID":null,"DisplayText":"Go forward on Mass State Hwy (MA-2 W)","ArrivalTime":null,"ArrivalUTCOffset":null,"Name":"Mass State Hwy","ExitName":null,"AlternateName":"MA-2 W","IntersectingName":null,"BranchName":null,"TowardName":null,"Level":null,"ShortVoiceInstruction":"Continue on Mass State Highway","VoiceInstruction":"Go forward on Mass State Highway (MA  Massachusetts 2)","Azimuth":310.72784423828125}},{"type":"Feature","id":21,"geometry":{"type":"Point","coordinates":[-71.831640983999989,42.549357272000066]},"properties":{"ObjectID":21,"RouteID":1,"Sequence":21,"DirectionPointType":52,"StopID":null,"DisplayText":"Go forward on George W Stanton Hwy (MA-2 W)","ArrivalTime":null,"ArrivalUTCOffset":null,"Name":"George W Stanton Hwy","ExitName":null,"AlternateName":"MA-2 W","IntersectingName":null,"BranchName":null,"TowardName":null,"Level":null,"ShortVoiceInstruction":"Continue on George W Stanton Highway","VoiceInstruction":"Go forward on George W Stanton Highway (MA  Massachusetts 2)","Azimuth":268.835693359375}},{"type":"Feature","id":22,"geometry":{"type":"Point","coordinates":[-71.988170293999985,42.567532247000031]},"properties":{"ObjectID":22,"RouteID":1,"Sequence":22,"DirectionPointType":52,"StopID":null,"DisplayText":"Go forward on State Route 2 (MA-2 W)","ArrivalTime":null,"ArrivalUTCOffset":null,"Name":"State Route 2","ExitName":null,"AlternateName":"MA-2 W","IntersectingName":null,"BranchName":null,"TowardName":null,"Level":null,"ShortVoiceInstruction":"Continue on State Route 2","VoiceInstruction":"Go forward on State Route 2 (MA  Massachusetts 2)","Azimuth":273.74624633789062}},{"type":"Feature","id":23,"geometry":{"type":"Point","coordinates":[-72.128185825999935,42.571354304000067]},"properties":{"ObjectID":23,"RouteID":1,"Sequence":23,"DirectionPointType":52,"StopID":null,"DisplayText":"Go forward on US Highway 202 (US-202 S)","ArrivalTime":null,"ArrivalUTCOffset":null,"Name":"US Highway 202","ExitName":null,"AlternateName":"US-202 S","IntersectingName":null,"BranchName":null,"TowardName":null,"Level":null,"ShortVoiceInstruction":"Continue on US Highway 2 oh 2","VoiceInstruction":"Go forward on US Highway 2 oh 2 (US  U.S. 2 oh 2)","Azimuth":282.46490478515625}},{"type":"Feature","id":24,"geometry":{"type":"Point","coordinates":[-72.280112585999973,42.560858082000038]},"properties":{"ObjectID":24,"RouteID":1,"Sequence":24,"DirectionPointType":52,"StopID":null,"DisplayText":"Go forward on Mohawk Trl (US-202 S)","ArrivalTime":null,"ArrivalUTCOffset":null,"Name":"Mohawk Trl","ExitName":null,"AlternateName":"US-202 S","IntersectingName":null,"BranchName":null,"TowardName":null,"Level":null,"ShortVoiceInstruction":"Continue on Mohawk Trail","VoiceInstruction":"Go forward on Mohawk Trail (US  U.S. 2 oh 2)","Azimuth":254.01528930664062}},{"type":"Feature","id":25,"geometry":{"type":"Point","coordinates":[-72.366793940999969,42.599205663000077]},"properties":{"ObjectID":25,"RouteID":1,"Sequence":25,"DirectionPointType":52,"StopID":null,"DisplayText":"Continue forward on E Main St (MA-2)","ArrivalTime":null,"ArrivalUTCOffset":null,"Name":"E Main St","ExitName":null,"AlternateName":"MA-2","IntersectingName":null,"BranchName":null,"TowardName":null,"Level":null,"ShortVoiceInstruction":"Continue on East Main Street","VoiceInstruction":"Continue forward on East Main Street (MA  Massachusetts 2)","Azimuth":270}},{"type":"Feature","id":26,"geometry":{"type":"Point","coordinates":[-72.406554856999946,42.602848741000059]},"properties":{"ObjectID":26,"RouteID":1,"Sequence":26,"DirectionPointType":305,"StopID":null,"DisplayText":"Turn right on Mountain Rd","ArrivalTime":null,"ArrivalUTCOffset":null,"Name":"Mountain Rd","ExitName":null,"AlternateName":null,"IntersectingName":null,"BranchName":null,"TowardName":null,"Level":null,"ShortVoiceInstruction":"Turn right","VoiceInstruction":"Turn right on Mountain Road","Azimuth":56.652503967285156}},{"type":"Feature","id":27,"geometry":{"type":"Point","coordinates":[-72.418743090999953,42.629886037000063]},"properties":{"ObjectID":27,"RouteID":1,"Sequence":27,"DirectionPointType":52,"StopID":null,"DisplayText":"Continue forward on Old Wendell Rd","ArrivalTime":null,"ArrivalUTCOffset":null,"Name":"Old Wendell Rd","ExitName":null,"AlternateName":null,"IntersectingName":null,"BranchName":null,"TowardName":null,"Level":null,"ShortVoiceInstruction":"Continue on Old Wendell Road","VoiceInstruction":"Continue forward on Old Wendell Road","Azimuth":339.573486328125}},{"type":"Feature","id":28,"geometry":{"type":"Point","coordinates":[-72.421747532999973,42.640774856000064]},"properties":{"ObjectID":28,"RouteID":1,"Sequence":28,"DirectionPointType":205,"StopID":null,"DisplayText":"At the stop sign, turn left on S Mountain Rd","ArrivalTime":null,"ArrivalUTCOffset":null,"Name":"S Mountain Rd","ExitName":null,"AlternateName":null,"IntersectingName":null,"BranchName":null,"TowardName":null,"Level":null,"ShortVoiceInstruction":"Turn left","VoiceInstruction":"At the stop sign, turn left on South Mountain Road","Azimuth":289.49307250976562}},{"type":"Feature","id":29,"geometry":{"type":"Point","coordinates":[-72.461572373999957,42.65798565700004]},"properties":{"ObjectID":29,"RouteID":1,"Sequence":29,"DirectionPointType":305,"StopID":null,"DisplayText":"At the stop sign, turn right on Millers Falls Rd (MA-63)","ArrivalTime":null,"ArrivalUTCOffset":null,"Name":"Millers Falls Rd","ExitName":null,"AlternateName":"MA-63","IntersectingName":null,"BranchName":null,"TowardName":null,"Level":null,"ShortVoiceInstruction":"Turn right","VoiceInstruction":"At the stop sign, turn right on Millers Falls Road (MA  Massachusetts 63)","Azimuth":14.534457206726074}},{"type":"Feature","id":30,"geometry":{"type":"Point","coordinates":[-72.460038190999967,42.684780465000074]},"properties":{"ObjectID":30,"RouteID":1,"Sequence":30,"DirectionPointType":205,"StopID":null,"DisplayText":"Turn left on Northfield Rd (MA-10)","ArrivalTime":null,"ArrivalUTCOffset":null,"Name":"Northfield Rd","ExitName":null,"AlternateName":"MA-10","IntersectingName":null,"BranchName":null,"TowardName":null,"Level":null,"ShortVoiceInstruction":"Turn left","VoiceInstruction":"Turn left on Northfield Road (MA  Massachusetts 10)","Azimuth":271.97494506835938}},{"type":"Feature","id":31,"geometry":{"type":"Point","coordinates":[-72.540007493999951,42.670375585000045]},"properties":{"ObjectID":31,"RouteID":1,"Sequence":31,"DirectionPointType":301,"StopID":null,"DisplayText":"Take the exit on the right to merge onto I-91 N toward Brattleboro VT / White River Jct VT","ArrivalTime":null,"ArrivalUTCOffset":null,"Name":null,"ExitName":null,"AlternateName":null,"IntersectingName":null,"BranchName":"I-91 N","TowardName":"Brattleboro VT / White River Jct VT","Level":null,"ShortVoiceInstruction":"Take ramp right","VoiceInstruction":"Take the exit on the right to merge onto I 91 N toward Brattleboro VT, White River Junction VT","Azimuth":294.6959228515625}},{"type":"Feature","id":32,"geometry":{"type":"Point","coordinates":[-72.569966683999951,42.730119753000054]},"properties":{"ObjectID":32,"RouteID":1,"Sequence":32,"DirectionPointType":1005,"StopID":null,"DisplayText":"Entering Vermont","ArrivalTime":null,"ArrivalUTCOffset":null,"Name":null,"ExitName":null,"AlternateName":null,"IntersectingName":null,"BranchName":null,"TowardName":null,"Level":null,"ShortVoiceInstruction":null,"VoiceInstruction":"Entering Vermont","Azimuth":null}},{"type":"Feature","id":33,"geometry":{"type":"Point","coordinates":[-72.565023203999942,42.832934224000041]},"properties":{"ObjectID":33,"RouteID":1,"Sequence":33,"DirectionPointType":301,"StopID":null,"DisplayText":"Take exit 1 on the right to US-5 toward VT-142 / Brattleboro / Guilford / MILEPOINT EXIT 7","ArrivalTime":null,"ArrivalUTCOffset":null,"Name":null,"ExitName":"1","AlternateName":null,"IntersectingName":null,"BranchName":"US-5","TowardName":"VT-142 / Brattleboro / Guilford / MILEPOINT EXIT 7","Level":null,"ShortVoiceInstruction":"Take ramp right","VoiceInstruction":"Take exit 1 on the right to U.S. 5 toward Vermont 1 42, Brattleboro, Guilford, MILEPOINT EXIT 7","Azimuth":355.42437744140625}},{"type":"Feature","id":34,"geometry":{"type":"Point","coordinates":[-72.566280381999945,42.835659315000044]},"properties":{"ObjectID":34,"RouteID":1,"Sequence":34,"DirectionPointType":305,"StopID":null,"DisplayText":"Turn right on Canal St (US-5 N) toward Brattleboro / Hinsdale NH","ArrivalTime":null,"ArrivalUTCOffset":null,"Name":"Canal St","ExitName":null,"AlternateName":"US-5 N","IntersectingName":null,"BranchName":null,"TowardName":"Brattleboro / Hinsdale NH","Level":null,"ShortVoiceInstruction":"Turn right","VoiceInstruction":"Turn right on Canal Street (US  U.S. 5) toward Brattleboro, Hinsdale NH","Azimuth":330.73699951171875}},{"type":"Feature","id":35,"geometry":{"type":"Point","coordinates":[-72.561081205999983,42.848384107000072]},"properties":{"ObjectID":35,"RouteID":1,"Sequence":35,"DirectionPointType":205,"StopID":null,"DisplayText":"At the stop sign, turn left on Elm St","ArrivalTime":null,"ArrivalUTCOffset":null,"Name":"Elm St","ExitName":null,"AlternateName":null,"IntersectingName":null,"BranchName":null,"TowardName":null,"Level":null,"ShortVoiceInstruction":"Turn left","VoiceInstruction":"At the stop sign, turn left on Elm Street","Azimuth":354.72903442382812}},{"type":"Feature","id":36,"geometry":{"type":"Point","coordinates":[-72.56110251399997,42.850116157000059]},"properties":{"ObjectID":36,"RouteID":1,"Sequence":36,"DirectionPointType":305,"StopID":null,"DisplayText":"At the stop sign, turn right on Elm St","ArrivalTime":null,"ArrivalUTCOffset":null,"Name":"Elm St","ExitName":null,"AlternateName":null,"IntersectingName":null,"BranchName":null,"TowardName":null,"Level":null,"ShortVoiceInstruction":"Turn right","VoiceInstruction":"At the stop sign, turn right on Elm Street","Azimuth":24.291824340820312}},{"type":"Feature","id":37,"geometry":{"type":"Point","coordinates":[-72.561187745999973,42.851276630000029]},"properties":{"ObjectID":37,"RouteID":1,"Sequence":37,"DirectionPointType":305,"StopID":null,"DisplayText":"At the stop sign, turn right on Elliot St","ArrivalTime":null,"ArrivalUTCOffset":null,"Name":"Elliot St","ExitName":null,"AlternateName":null,"IntersectingName":null,"BranchName":null,"TowardName":null,"Level":null,"ShortVoiceInstruction":"Turn right","VoiceInstruction":"At the stop sign, turn right on Elliot Street","Azimuth":57.666275024414062}},{"type":"Feature","id":38,"geometry":{"type":"Point","coordinates":[-72.557970222999984,42.852125335000039]},"properties":{"ObjectID":38,"RouteID":1,"Sequence":38,"DirectionPointType":205,"StopID":null,"DisplayText":"At the traffic light, turn left on Main St (US-5 N)","ArrivalTime":null,"ArrivalUTCOffset":null,"Name":"Main St","ExitName":null,"AlternateName":"US-5 N","IntersectingName":null,"BranchName":null,"TowardName":null,"Level":null,"ShortVoiceInstruction":"Turn left","VoiceInstruction":"At the traffic light, turn left on Main Street (US  U.S. 5)","Azimuth":332.3475341796875}},{"type":"Feature","id":39,"geometry":{"type":"Point","coordinates":[-72.558507815999974,42.853196499000035]},"properties":{"ObjectID":39,"RouteID":1,"Sequence":39,"DirectionPointType":50,"StopID":2,"DisplayText":"Arrive at Brattleboro Main Street, on the right","ArrivalTime":null,"ArrivalUTCOffset":null,"Name":"Brattleboro Main Street","ExitName":null,"AlternateName":null,"IntersectingName":null,"BranchName":null,"TowardName":null,"Level":null,"ShortVoiceInstruction":"Arrive","VoiceInstruction":"Arrive at Brattleboro Main Street, on the right","Azimuth":null}},{"type":"Feature","id":40,"geometry":{"type":"Point","coordinates":[-72.558507815999974,42.853196499000035]},"properties":{"ObjectID":40,"RouteID":1,"Sequence":40,"DirectionPointType":51,"StopID":2,"DisplayText":"Depart Brattleboro Main Street","ArrivalTime":null,"ArrivalUTCOffset":null,"Name":"Brattleboro Main Street","ExitName":null,"AlternateName":null,"IntersectingName":null,"BranchName":null,"TowardName":null,"Level":null,"ShortVoiceInstruction":"Depart","VoiceInstruction":"Depart Brattleboro Main Street","Azimuth":null}},{"type":"Feature","id":41,"geometry":{"type":"Point","coordinates":[-72.558507815999974,42.853196499000035]},"properties":{"ObjectID":41,"RouteID":1,"Sequence":41,"DirectionPointType":52,"StopID":null,"DisplayText":"Continue northwest on Main St (US-5 N)","ArrivalTime":null,"ArrivalUTCOffset":null,"Name":"Main St","ExitName":null,"AlternateName":"US-5 N","IntersectingName":null,"BranchName":null,"TowardName":null,"Level":null,"ShortVoiceInstruction":"Continue on Main Street","VoiceInstruction":"Continue northwest on Main Street (US  U.S. 5)","Azimuth":335.8695068359375}},{"type":"Feature","id":42,"geometry":{"type":"Point","coordinates":[-72.558545541999933,42.853262714000039]},"properties":{"ObjectID":42,"RouteID":1,"Sequence":42,"DirectionPointType":205,"StopID":null,"DisplayText":"At the traffic light, turn left on High St (VT-9)","ArrivalTime":null,"ArrivalUTCOffset":null,"Name":"High St","ExitName":null,"AlternateName":"VT-9","IntersectingName":null,"BranchName":null,"TowardName":null,"Level":null,"ShortVoiceInstruction":"Turn left","VoiceInstruction":"At the traffic light, turn left on High Street (VT  Vermont 9)","Azimuth":263.70761108398438}},{"type":"Feature","id":43,"geometry":{"type":"Point","coordinates":[-72.566514771999948,42.852333181000063]},"properties":{"ObjectID":43,"RouteID":1,"Sequence":43,"DirectionPointType":52,"StopID":null,"DisplayText":"Continue forward on Western Ave (VT-9)","ArrivalTime":null,"ArrivalUTCOffset":null,"Name":"Western Ave","ExitName":null,"AlternateName":"VT-9","IntersectingName":null,"BranchName":null,"TowardName":null,"Level":null,"ShortVoiceInstruction":"Continue on Western Avenue","VoiceInstruction":"Continue forward on Western Avenue (VT  Vermont 9)","Azimuth":256.189697265625}},{"type":"Feature","id":44,"geometry":{"type":"Point","coordinates":[-72.585095435999961,42.85006996900006]},"properties":{"ObjectID":44,"RouteID":1,"Sequence":44,"DirectionPointType":205,"StopID":null,"DisplayText":"Turn left on Guilford St","ArrivalTime":null,"ArrivalUTCOffset":null,"Name":"Guilford St","ExitName":null,"AlternateName":null,"IntersectingName":null,"BranchName":null,"TowardName":null,"Level":null,"ShortVoiceInstruction":"Turn left","VoiceInstruction":"Turn left on Guilford Street","Azimuth":180.76374816894531}},{"type":"Feature","id":45,"geometry":{"type":"Point","coordinates":[-72.585564213999987,42.849330961000078]},"properties":{"ObjectID":45,"RouteID":1,"Sequence":45,"DirectionPointType":305,"StopID":null,"DisplayText":"Turn right","ArrivalTime":null,"ArrivalUTCOffset":null,"Name":null,"ExitName":null,"AlternateName":null,"IntersectingName":null,"BranchName":null,"TowardName":null,"Level":null,"ShortVoiceInstruction":"Turn right","VoiceInstruction":"Turn right","Azimuth":286.49612426757812}},{"type":"Feature","id":46,"geometry":{"type":"Point","coordinates":[-72.585564213999987,42.849330961000078]},"properties":{"ObjectID":46,"RouteID":1,"Sequence":46,"DirectionPointType":1006,"StopID":null,"DisplayText":"Restriction: Avoid Unpaved Roads","ArrivalTime":null,"ArrivalUTCOffset":null,"Name":"Avoid Unpaved Roads","ExitName":null,"AlternateName":null,"IntersectingName":null,"BranchName":null,"TowardName":null,"Level":null,"ShortVoiceInstruction":null,"VoiceInstruction":"Restriction: Avoid Unpaved Roads","Azimuth":null}},{"type":"Feature","id":47,"geometry":{"type":"Point","coordinates":[-72.586299799999949,42.849617500000079]},"properties":{"ObjectID":47,"RouteID":1,"Sequence":47,"DirectionPointType":50,"StopID":3,"DisplayText":"Arrive at Historic Creamery Covered Bridge, on the right","ArrivalTime":null,"ArrivalUTCOffset":null,"Name":"Historic Creamery Covered Bridge","ExitName":null,"AlternateName":null,"IntersectingName":null,"BranchName":null,"TowardName":null,"Level":null,"ShortVoiceInstruction":"Arrive","VoiceInstruction":"Arrive at Historic Creamery Covered Bridge, on the right","Azimuth":null}},{"type":"Feature","id":48,"geometry":{"type":"Point","coordinates":[-72.586299799999949,42.849617500000079]},"properties":{"ObjectID":48,"RouteID":1,"Sequence":48,"DirectionPointType":51,"StopID":3,"DisplayText":"Depart Historic Creamery Covered Bridge","ArrivalTime":null,"ArrivalUTCOffset":null,"Name":"Historic Creamery Covered Bridge","ExitName":null,"AlternateName":null,"IntersectingName":null,"BranchName":null,"TowardName":null,"Level":null,"ShortVoiceInstruction":"Depart","VoiceInstruction":"Depart Historic Creamery Covered Bridge","Azimuth":null}},{"type":"Feature","id":49,"geometry":{"type":"Point","coordinates":[-72.586299799999949,42.849617500000079]},"properties":{"ObjectID":49,"RouteID":1,"Sequence":49,"DirectionPointType":303,"StopID":null,"DisplayText":"Go back south","ArrivalTime":null,"ArrivalUTCOffset":null,"Name":null,"ExitName":null,"AlternateName":null,"IntersectingName":null,"BranchName":null,"TowardName":null,"Level":null,"ShortVoiceInstruction":"Make a U-turn","VoiceInstruction":"Go back south","Azimuth":160.26361083984375}},{"type":"Feature","id":50,"geometry":{"type":"Point","coordinates":[-72.585564213999987,42.849330961000078]},"properties":{"ObjectID":50,"RouteID":1,"Sequence":50,"DirectionPointType":205,"StopID":null,"DisplayText":"Turn left on Guilford St","ArrivalTime":null,"ArrivalUTCOffset":null,"Name":"Guilford St","ExitName":null,"AlternateName":null,"IntersectingName":null,"BranchName":null,"TowardName":null,"Level":null,"ShortVoiceInstruction":"Turn left","VoiceInstruction":"Turn left on Guilford Street","Azimuth":28.683120727539062}},{"type":"Feature","id":51,"geometry":{"type":"Point","coordinates":[-72.585095435999961,42.85006996900006]},"properties":{"ObjectID":51,"RouteID":1,"Sequence":51,"DirectionPointType":205,"StopID":null,"DisplayText":"At the stop sign, turn left on Western Ave (VT-9)","ArrivalTime":null,"ArrivalUTCOffset":null,"Name":"Western Ave","ExitName":null,"AlternateName":"VT-9","IntersectingName":null,"BranchName":null,"TowardName":null,"Level":null,"ShortVoiceInstruction":"Turn left","VoiceInstruction":"At the stop sign, turn left on Western Avenue (VT  Vermont 9)","Azimuth":269.9234619140625}},{"type":"Feature","id":52,"geometry":{"type":"Point","coordinates":[-72.605849525999986,42.860733622000055]},"properties":{"ObjectID":52,"RouteID":1,"Sequence":52,"DirectionPointType":52,"StopID":null,"DisplayText":"Continue forward on Marlboro Rd (VT-9)","ArrivalTime":null,"ArrivalUTCOffset":null,"Name":"Marlboro Rd","ExitName":null,"AlternateName":"VT-9","IntersectingName":null,"BranchName":null,"TowardName":null,"Level":null,"ShortVoiceInstruction":"Continue on Marlboro Road","VoiceInstruction":"Continue forward on Marlboro Road (VT  Vermont 9)","Azimuth":306.448974609375}},{"type":"Feature","id":53,"geometry":{"type":"Point","coordinates":[-72.678275760999952,42.877037983000037]},"properties":{"ObjectID":53,"RouteID":1,"Sequence":53,"DirectionPointType":52,"StopID":null,"DisplayText":"Continue forward on Molly Stark Trl (VT-9)","ArrivalTime":null,"ArrivalUTCOffset":null,"Name":"Molly Stark Trl","ExitName":null,"AlternateName":"VT-9","IntersectingName":null,"BranchName":null,"TowardName":null,"Level":null,"ShortVoiceInstruction":"Continue on Molly Stark Trail","VoiceInstruction":"Continue forward on Molly Stark Trail (VT  Vermont 9)","Azimuth":280.00909423828125}},{"type":"Feature","id":54,"geometry":{"type":"Point","coordinates":[-72.770177600999943,42.857789137000054]},"properties":{"ObjectID":54,"RouteID":1,"Sequence":54,"DirectionPointType":205,"StopID":null,"DisplayText":"Turn left on Adams Cross Rd","ArrivalTime":null,"ArrivalUTCOffset":null,"Name":"Adams Cross Rd","ExitName":null,"AlternateName":null,"IntersectingName":null,"BranchName":null,"TowardName":null,"Level":null,"ShortVoiceInstruction":"Turn left","VoiceInstruction":"Turn left on Adams Cross Road","Azimuth":175.21771240234375}},{"type":"Feature","id":55,"geometry":{"type":"Point","coordinates":[-72.787863324999989,42.859261379000031]},"properties":{"ObjectID":55,"RouteID":1,"Sequence":55,"DirectionPointType":205,"StopID":null,"DisplayText":"Turn left on VT Route 9 (VT-9)","ArrivalTime":null,"ArrivalUTCOffset":null,"Name":"VT Route 9","ExitName":null,"AlternateName":"VT-9","IntersectingName":null,"BranchName":null,"TowardName":null,"Level":null,"ShortVoiceInstruction":"Turn left","VoiceInstruction":"Turn left on VT Route 9 (VT  Vermont 9)","Azimuth":226.06015014648438}},{"type":"Feature","id":56,"geometry":{"type":"Point","coordinates":[-72.799987633999933,42.858314526000072]},"properties":{"ObjectID":56,"RouteID":1,"Sequence":56,"DirectionPointType":306,"StopID":null,"DisplayText":"Make a sharp right on Old Hogback Rd","ArrivalTime":null,"ArrivalUTCOffset":null,"Name":"Old Hogback Rd","ExitName":null,"AlternateName":null,"IntersectingName":null,"BranchName":null,"TowardName":null,"Level":null,"ShortVoiceInstruction":"Make a sharp right","VoiceInstruction":"Make a sharp right on Old Hogback Road","Azimuth":93.5206298828125}},{"type":"Feature","id":57,"geometry":{"type":"Point","coordinates":[-72.79833330799994,42.857104198000059]},"properties":{"ObjectID":57,"RouteID":1,"Sequence":57,"DirectionPointType":50,"StopID":4,"DisplayText":"Arrive at Hogback Mountain Overlook, on the left","ArrivalTime":null,"ArrivalUTCOffset":null,"Name":"Hogback Mountain Overlook","ExitName":null,"AlternateName":null,"IntersectingName":null,"BranchName":null,"TowardName":null,"Level":null,"ShortVoiceInstruction":"Arrive","VoiceInstruction":"Arrive at Hogback Mountain Overlook, on the left","Azimuth":null}},{"type":"Feature","id":58,"geometry":{"type":"Point","coordinates":[-72.79833330799994,42.857104198000059]},"properties":{"ObjectID":58,"RouteID":1,"Sequence":58,"DirectionPointType":51,"StopID":4,"DisplayText":"Depart Hogback Mountain Overlook","ArrivalTime":null,"ArrivalUTCOffset":null,"Name":"Hogback Mountain Overlook","ExitName":null,"AlternateName":null,"IntersectingName":null,"BranchName":null,"TowardName":null,"Level":null,"ShortVoiceInstruction":"Depart","VoiceInstruction":"Depart Hogback Mountain Overlook","Azimuth":null}},{"type":"Feature","id":59,"geometry":{"type":"Point","coordinates":[-72.79833330799994,42.857104198000059]},"properties":{"ObjectID":59,"RouteID":1,"Sequence":59,"DirectionPointType":303,"StopID":null,"DisplayText":"Go back northwest on Old Hogback Rd","ArrivalTime":null,"ArrivalUTCOffset":null,"Name":"Old Hogback Rd","ExitName":null,"AlternateName":null,"IntersectingName":null,"BranchName":null,"TowardName":null,"Level":null,"ShortVoiceInstruction":"Make a U-turn","VoiceInstruction":"Go back northwest on Old Hogback Road","Azimuth":314.9638671875}},{"type":"Feature","id":60,"geometry":{"type":"Point","coordinates":[-72.799987633999933,42.858314526000072]},"properties":{"ObjectID":60,"RouteID":1,"Sequence":60,"DirectionPointType":304,"StopID":null,"DisplayText":"Bear right on Molly Stark Trl (VT-9)","ArrivalTime":null,"ArrivalUTCOffset":null,"Name":"Molly Stark Trl","ExitName":null,"AlternateName":"VT-9","IntersectingName":null,"BranchName":null,"TowardName":null,"Level":null,"ShortVoiceInstruction":"Bear right","VoiceInstruction":"Bear right on Molly Stark Trail (VT  Vermont 9)","Azimuth":304.31280517578125}},{"type":"Feature","id":61,"geometry":{"type":"Point","coordinates":[-72.814498450999963,42.85491393500007]},"properties":{"ObjectID":61,"RouteID":1,"Sequence":61,"DirectionPointType":205,"StopID":null,"DisplayText":"Turn left on Molly Stark State Park","ArrivalTime":null,"ArrivalUTCOffset":null,"Name":"Molly Stark State Park","ExitName":null,"AlternateName":null,"IntersectingName":null,"BranchName":null,"TowardName":null,"Level":null,"ShortVoiceInstruction":"Turn left","VoiceInstruction":"Turn left on Molly Stark State Park","Azimuth":179.16448974609375}},{"type":"Feature","id":62,"geometry":{"type":"Point","coordinates":[-72.814897755999937,42.852414907000025]},"properties":{"ObjectID":62,"RouteID":1,"Sequence":62,"DirectionPointType":50,"StopID":5,"DisplayText":"Arrive at Molly Stark State Park (Mount Olga Trail), on the right","ArrivalTime":null,"ArrivalUTCOffset":null,"Name":"Molly Stark State Park (Mount Olga Trail)","ExitName":null,"AlternateName":null,"IntersectingName":null,"BranchName":null,"TowardName":null,"Level":null,"ShortVoiceInstruction":"Arrive","VoiceInstruction":"Arrive at Molly Stark State Park (Mount Olga Trail), on the right","Azimuth":null}},{"type":"Feature","id":63,"geometry":{"type":"Point","coordinates":[-72.814897755999937,42.852414907000025]},"properties":{"ObjectID":63,"RouteID":1,"Sequence":63,"DirectionPointType":51,"StopID":5,"DisplayText":"Depart Molly Stark State Park (Mount Olga Trail)","ArrivalTime":null,"ArrivalUTCOffset":null,"Name":"Molly Stark State Park (Mount Olga Trail)","ExitName":null,"AlternateName":null,"IntersectingName":null,"BranchName":null,"TowardName":null,"Level":null,"ShortVoiceInstruction":"Depart","VoiceInstruction":"Depart Molly Stark State Park (Mount Olga Trail)","Azimuth":null}},{"type":"Feature","id":64,"geometry":{"type":"Point","coordinates":[-72.814897755999937,42.852414907000025]},"properties":{"ObjectID":64,"RouteID":1,"Sequence":64,"DirectionPointType":303,"StopID":null,"DisplayText":"Go back east on Molly Stark State Park","ArrivalTime":null,"ArrivalUTCOffset":null,"Name":"Molly Stark State Park","ExitName":null,"AlternateName":null,"IntersectingName":null,"BranchName":null,"TowardName":null,"Level":null,"ShortVoiceInstruction":"Make a U-turn","VoiceInstruction":"Go back east on Molly Stark State Park","Azimuth":88.4891357421875}},{"type":"Feature","id":65,"geometry":{"type":"Point","coordinates":[-72.814498450999963,42.85491393500007]},"properties":{"ObjectID":65,"RouteID":1,"Sequence":65,"DirectionPointType":205,"StopID":null,"DisplayText":"Turn left on Molly Stark Trl (VT-9)","ArrivalTime":null,"ArrivalUTCOffset":null,"Name":"Molly Stark Trl","ExitName":null,"AlternateName":"VT-9","IntersectingName":null,"BranchName":null,"TowardName":null,"Level":null,"ShortVoiceInstruction":"Turn left","VoiceInstruction":"Turn left on Molly Stark Trail (VT  Vermont 9)","Azimuth":268.499755859375}},{"type":"Feature","id":66,"geometry":{"type":"Point","coordinates":[-72.858734068999979,42.864590319000058]},"properties":{"ObjectID":66,"RouteID":1,"Sequence":66,"DirectionPointType":52,"StopID":null,"DisplayText":"Continue forward on E Main St (VT-9)","ArrivalTime":null,"ArrivalUTCOffset":null,"Name":"E Main St","ExitName":null,"AlternateName":"VT-9","IntersectingName":null,"BranchName":null,"TowardName":null,"Level":null,"ShortVoiceInstruction":"Continue on East Main Street","VoiceInstruction":"Continue forward on East Main Street (VT  Vermont 9)","Azimuth":283.39132690429688}},{"type":"Feature","id":67,"geometry":{"type":"Point","coordinates":[-72.880902853999942,42.871186589000047]},"properties":{"ObjectID":67,"RouteID":1,"Sequence":67,"DirectionPointType":50,"StopID":6,"DisplayText":"Arrive at Wilmington village, on the right","ArrivalTime":null,"ArrivalUTCOffset":null,"Name":"Wilmington village","ExitName":null,"AlternateName":null,"IntersectingName":null,"BranchName":null,"TowardName":null,"Level":null,"ShortVoiceInstruction":"Arrive","VoiceInstruction":"Arrive at Wilmington village, on the right","Azimuth":null}},{"type":"Feature","id":68,"geometry":{"type":"Point","coordinates":[-72.880902853999942,42.871186589000047]},"properties":{"ObjectID":68,"RouteID":1,"Sequence":68,"DirectionPointType":51,"StopID":6,"DisplayText":"Depart Wilmington village","ArrivalTime":null,"ArrivalUTCOffset":null,"Name":"Wilmington village","ExitName":null,"AlternateName":null,"IntersectingName":null,"BranchName":null,"TowardName":null,"Level":null,"ShortVoiceInstruction":"Depart","VoiceInstruction":"Depart Wilmington village","Azimuth":null}},{"type":"Feature","id":69,"geometry":{"type":"Point","coordinates":[-72.880902853999942,42.871186589000047]},"properties":{"ObjectID":69,"RouteID":1,"Sequence":69,"DirectionPointType":52,"StopID":null,"DisplayText":"Continue west on E Main St (VT-9)","ArrivalTime":null,"ArrivalUTCOffset":null,"Name":"E Main St","ExitName":null,"AlternateName":"VT-9","IntersectingName":null,"BranchName":null,"TowardName":null,"Level":null,"ShortVoiceInstruction":"Continue on East Main Street","VoiceInstruction":"Continue west on East Main Street (VT  Vermont 9)","Azimuth":282.013427734375}},{"type":"Feature","id":70,"geometry":{"type":"Point","coordinates":[-72.88170420199998,42.871316445000048]},"properties":{"ObjectID":70,"RouteID":1,"Sequence":70,"DirectionPointType":52,"StopID":null,"DisplayText":"Continue forward on VT Route 9 W (VT-9)","ArrivalTime":null,"ArrivalUTCOffset":null,"Name":"VT Route 9 W","ExitName":null,"AlternateName":"VT-9","IntersectingName":null,"BranchName":null,"TowardName":null,"Level":null,"ShortVoiceInstruction":"Continue on VT Route 9 West","VoiceInstruction":"Continue forward on VT Route 9 West (VT  Vermont 9)","Azimuth":274.39895629882812}},{"type":"Feature","id":71,"geometry":{"type":"Point","coordinates":[-72.890632295999978,42.874122366000051]},"properties":{"ObjectID":71,"RouteID":1,"Sequence":71,"DirectionPointType":305,"StopID":null,"DisplayText":"Turn right on Haystack Rd","ArrivalTime":null,"ArrivalUTCOffset":null,"Name":"Haystack Rd","ExitName":null,"AlternateName":null,"IntersectingName":null,"BranchName":null,"TowardName":null,"Level":null,"ShortVoiceInstruction":"Turn right","VoiceInstruction":"Turn right on Haystack Road","Azimuth":357.2508544921875}},{"type":"Feature","id":72,"geometry":{"type":"Point","coordinates":[-72.892550024999935,42.876997568000036]},"properties":{"ObjectID":72,"RouteID":1,"Sequence":72,"DirectionPointType":305,"StopID":null,"DisplayText":"Turn right at Town Farm Rd to stay on Haystack Rd","ArrivalTime":null,"ArrivalUTCOffset":null,"Name":"Haystack Rd","ExitName":null,"AlternateName":null,"IntersectingName":"Town Farm Rd","BranchName":null,"TowardName":null,"Level":null,"ShortVoiceInstruction":"Turn right","VoiceInstruction":"Turn right at Town Farm Road to stay on Haystack Road","Azimuth":327.2156982421875}},{"type":"Feature","id":73,"geometry":{"type":"Point","coordinates":[-72.894446445999961,42.88999371500006]},"properties":{"ObjectID":73,"RouteID":1,"Sequence":73,"DirectionPointType":305,"StopID":null,"DisplayText":"Turn right on Ray Hill Rd","ArrivalTime":null,"ArrivalUTCOffset":null,"Name":"Ray Hill Rd","ExitName":null,"AlternateName":null,"IntersectingName":null,"BranchName":null,"TowardName":null,"Level":null,"ShortVoiceInstruction":"Turn right","VoiceInstruction":"Turn right on Ray Hill Road","Azimuth":50.440322875976562}},{"type":"Feature","id":74,"geometry":{"type":"Point","coordinates":[-72.88345146599994,42.890397860000064]},"properties":{"ObjectID":74,"RouteID":1,"Sequence":74,"DirectionPointType":206,"StopID":null,"DisplayText":"At the stop sign, make a sharp left on Mann Rd","ArrivalTime":null,"ArrivalUTCOffset":null,"Name":"Mann Rd","ExitName":null,"AlternateName":null,"IntersectingName":null,"BranchName":null,"TowardName":null,"Level":null,"ShortVoiceInstruction":"Make a sharp left","VoiceInstruction":"At the stop sign, make a sharp left on Mann Road","Azimuth":346.97415161132812}},{"type":"Feature","id":75,"geometry":{"type":"Point","coordinates":[-72.878507985999988,42.910258696000028]},"properties":{"ObjectID":75,"RouteID":1,"Sequence":75,"DirectionPointType":205,"StopID":null,"DisplayText":"Turn left on Sturgis Rd","ArrivalTime":null,"ArrivalUTCOffset":null,"Name":"Sturgis Rd","ExitName":null,"AlternateName":null,"IntersectingName":null,"BranchName":null,"TowardName":null,"Level":null,"ShortVoiceInstruction":"Turn left","VoiceInstruction":"Turn left on Sturgis Road","Azimuth":314.84359741210938}},{"type":"Feature","id":76,"geometry":{"type":"Point","coordinates":[-72.881235422999964,42.913133899000059]},"properties":{"ObjectID":76,"RouteID":1,"Sequence":76,"DirectionPointType":204,"StopID":null,"DisplayText":"Bear left on Coldbrook Rd","ArrivalTime":null,"ArrivalUTCOffset":null,"Name":"Coldbrook Rd","ExitName":null,"AlternateName":null,"IntersectingName":null,"BranchName":null,"TowardName":null,"Level":null,"ShortVoiceInstruction":"Bear left","VoiceInstruction":"Bear left on Coldbrook Road","Azimuth":305.17227172851562}},{"type":"Feature","id":77,"geometry":{"type":"Point","coordinates":[-72.885710124999946,42.926401400000032]},"properties":{"ObjectID":77,"RouteID":1,"Sequence":77,"DirectionPointType":52,"StopID":null,"DisplayText":"Continue forward on Handle Rd","ArrivalTime":null,"ArrivalUTCOffset":null,"Name":"Handle Rd","ExitName":null,"AlternateName":null,"IntersectingName":null,"BranchName":null,"TowardName":null,"Level":null,"ShortVoiceInstruction":"Continue on Handle Road","VoiceInstruction":"Continue forward on Handle Road","Azimuth":332.13360595703125}},{"type":"Feature","id":78,"geometry":{"type":"Point","coordinates":[-72.891505927999958,42.971480880000058]},"properties":{"ObjectID":78,"RouteID":1,"Sequence":78,"DirectionPointType":305,"StopID":null,"DisplayText":"Turn right at Overbrook Dr to stay on Handle Rd","ArrivalTime":null,"ArrivalUTCOffset":null,"Name":"Handle Rd","ExitName":null,"AlternateName":null,"IntersectingName":"Overbrook Dr","BranchName":null,"TowardName":null,"Level":null,"ShortVoiceInstruction":"Turn right","VoiceInstruction":"Turn right at Overbrook Drive to stay on Handle Road","Azimuth":303.0196533203125}},{"type":"Feature","id":79,"geometry":{"type":"Point","coordinates":[-72.892464792999988,42.972092871000029]},"properties":{"ObjectID":79,"RouteID":1,"Sequence":79,"DirectionPointType":205,"StopID":null,"DisplayText":"At the stop sign, turn left on N Access Rd","ArrivalTime":null,"ArrivalUTCOffset":null,"Name":"N Access Rd","ExitName":null,"AlternateName":null,"IntersectingName":null,"BranchName":null,"TowardName":null,"Level":null,"ShortVoiceInstruction":"Turn left","VoiceInstruction":"At the stop sign, turn left on North Access Road","Azimuth":271.01272583007812}},{"type":"Feature","id":80,"geometry":{"type":"Point","coordinates":[-72.89715257499995,42.970580214000051]},"properties":{"ObjectID":80,"RouteID":1,"Sequence":80,"DirectionPointType":52,"StopID":null,"DisplayText":"Continue forward on Mount Snow Properties","ArrivalTime":null,"ArrivalUTCOffset":null,"Name":"Mount Snow Properties","ExitName":null,"AlternateName":null,"IntersectingName":null,"BranchName":null,"TowardName":null,"Level":null,"ShortVoiceInstruction":"Continue on Mount Snow Properties","VoiceInstruction":"Continue forward on Mount Snow Properties","Azimuth":152.0478515625}},{"type":"Feature","id":81,"geometry":{"type":"Point","coordinates":[-72.896555947999957,42.969569852000063]},"properties":{"ObjectID":81,"RouteID":1,"Sequence":81,"DirectionPointType":306,"StopID":null,"DisplayText":"Make a sharp right on Summit Work Rd","ArrivalTime":null,"ArrivalUTCOffset":null,"Name":"Summit Work Rd","ExitName":null,"AlternateName":null,"IntersectingName":null,"BranchName":null,"TowardName":null,"Level":null,"ShortVoiceInstruction":"Make a sharp right","VoiceInstruction":"Make a sharp right on Summit Work Road","Azimuth":254.7955322265625}},{"type":"Feature","id":82,"geometry":{"type":"Point","coordinates":[-72.897280422999984,42.96929272400007]},"properties":{"ObjectID":82,"RouteID":1,"Sequence":82,"DirectionPointType":205,"StopID":null,"DisplayText":"Turn left","ArrivalTime":null,"ArrivalUTCOffset":null,"Name":null,"ExitName":null,"AlternateName":null,"IntersectingName":null,"BranchName":null,"TowardName":null,"Level":null,"ShortVoiceInstruction":"Turn left","VoiceInstruction":"Turn left","Azimuth":119.30682373046875}},{"type":"Feature","id":83,"geometry":{"type":"Point","coordinates":[-72.897280422999984,42.96929272400007]},"properties":{"ObjectID":83,"RouteID":1,"Sequence":83,"DirectionPointType":1006,"StopID":null,"DisplayText":"Restriction: Avoid Unpaved Roads","ArrivalTime":null,"ArrivalUTCOffset":null,"Name":"Avoid Unpaved Roads","ExitName":null,"AlternateName":null,"IntersectingName":null,"BranchName":null,"TowardName":null,"Level":null,"ShortVoiceInstruction":null,"VoiceInstruction":"Restriction: Avoid Unpaved Roads","Azimuth":null}},{"type":"Feature","id":84,"geometry":{"type":"Point","coordinates":[-72.895365833999961,42.967790444000059]},"properties":{"ObjectID":84,"RouteID":1,"Sequence":84,"DirectionPointType":50,"StopID":7,"DisplayText":"Arrive at Mount Snow, Bluebird Express, on the right","ArrivalTime":null,"ArrivalUTCOffset":null,"Name":"Mount Snow, Bluebird Express","ExitName":null,"AlternateName":null,"IntersectingName":null,"BranchName":null,"TowardName":null,"Level":null,"ShortVoiceInstruction":"Arrive","VoiceInstruction":"Arrive at Mount Snow, Bluebird Express, on the right","Azimuth":null}},{"type":"Feature","id":85,"geometry":{"type":"Point","coordinates":[-72.895365833999961,42.967790444000059]},"properties":{"ObjectID":85,"RouteID":1,"Sequence":85,"DirectionPointType":51,"StopID":7,"DisplayText":"Depart Mount Snow, Bluebird Express","ArrivalTime":null,"ArrivalUTCOffset":null,"Name":"Mount Snow, Bluebird Express","ExitName":null,"AlternateName":null,"IntersectingName":null,"BranchName":null,"TowardName":null,"Level":null,"ShortVoiceInstruction":"Depart","VoiceInstruction":"Depart Mount Snow, Bluebird Express","Azimuth":null}},{"type":"Feature","id":86,"geometry":{"type":"Point","coordinates":[-72.895365833999961,42.967790444000059]},"properties":{"ObjectID":86,"RouteID":1,"Sequence":86,"DirectionPointType":303,"StopID":null,"DisplayText":"Go back northwest","ArrivalTime":null,"ArrivalUTCOffset":null,"Name":null,"ExitName":null,"AlternateName":null,"IntersectingName":null,"BranchName":null,"TowardName":null,"Level":null,"ShortVoiceInstruction":"Make a U-turn","VoiceInstruction":"Go back northwest","Azimuth":320.8790283203125}},{"type":"Feature","id":87,"geometry":{"type":"Point","coordinates":[-72.897280422999984,42.96929272400007]},"properties":{"ObjectID":87,"RouteID":1,"Sequence":87,"DirectionPointType":305,"StopID":null,"DisplayText":"Turn right on Summit Work Rd","ArrivalTime":null,"ArrivalUTCOffset":null,"Name":"Summit Work Rd","ExitName":null,"AlternateName":null,"IntersectingName":null,"BranchName":null,"TowardName":null,"Level":null,"ShortVoiceInstruction":"Turn right","VoiceInstruction":"Turn right on Summit Work Road","Azimuth":42.610546112060547}},{"type":"Feature","id":88,"geometry":{"type":"Point","coordinates":[-72.896555947999957,42.969569852000063]},"properties":{"ObjectID":88,"RouteID":1,"Sequence":88,"DirectionPointType":206,"StopID":null,"DisplayText":"Make a sharp left on Mount Snow Properties","ArrivalTime":null,"ArrivalUTCOffset":null,"Name":"Mount Snow Properties","ExitName":null,"AlternateName":null,"IntersectingName":null,"BranchName":null,"TowardName":null,"Level":null,"ShortVoiceInstruction":"Make a sharp left","VoiceInstruction":"Make a sharp left on Mount Snow Properties","Azimuth":321.0067138671875}},{"type":"Feature","id":89,"geometry":{"type":"Point","coordinates":[-72.89715257499995,42.970580214000051]},"properties":{"ObjectID":89,"RouteID":1,"Sequence":89,"DirectionPointType":52,"StopID":null,"DisplayText":"At the stop sign, continue forward on N Access Rd","ArrivalTime":null,"ArrivalUTCOffset":null,"Name":"N Access Rd","ExitName":null,"AlternateName":null,"IntersectingName":null,"BranchName":null,"TowardName":null,"Level":null,"ShortVoiceInstruction":"Continue on North Access Road","VoiceInstruction":"At the stop sign, continue forward on North Access Road","Azimuth":341.9315185546875}},{"type":"Feature","id":90,"geometry":{"type":"Point","coordinates":[-72.887627853999959,42.970678364000037]},"properties":{"ObjectID":90,"RouteID":1,"Sequence":90,"DirectionPointType":205,"StopID":null,"DisplayText":"At the stop sign, turn left on VT Route 100 (VT-100)","ArrivalTime":null,"ArrivalUTCOffset":null,"Name":"VT Route 100","ExitName":null,"AlternateName":"VT-100","IntersectingName":null,"BranchName":null,"TowardName":null,"Level":null,"ShortVoiceInstruction":"Turn left","VoiceInstruction":"At the stop sign, turn left on VT Route 100 (VT  Vermont 100)","Azimuth":353.48590087890625}},{"type":"Feature","id":91,"geometry":{"type":"Point","coordinates":[-72.752918038999951,43.066818669000043]},"properties":{"ObjectID":91,"RouteID":1,"Sequence":91,"DirectionPointType":205,"StopID":null,"DisplayText":"Turn left on Henderson Rd","ArrivalTime":null,"ArrivalUTCOffset":null,"Name":"Henderson Rd","ExitName":null,"AlternateName":null,"IntersectingName":null,"BranchName":null,"TowardName":null,"Level":null,"ShortVoiceInstruction":"Turn left","VoiceInstruction":"Turn left on Henderson Road","Azimuth":337.34954833984375}},{"type":"Feature","id":92,"geometry":{"type":"Point","coordinates":[-72.751980482999954,43.072072554000044]},"properties":{"ObjectID":92,"RouteID":1,"Sequence":92,"DirectionPointType":305,"StopID":null,"DisplayText":"Turn right on Howard Rd","ArrivalTime":null,"ArrivalUTCOffset":null,"Name":"Howard Rd","ExitName":null,"AlternateName":null,"IntersectingName":null,"BranchName":null,"TowardName":null,"Level":null,"ShortVoiceInstruction":"Turn right","VoiceInstruction":"Turn right on Howard Road","Azimuth":79.956398010253906}},{"type":"Feature","id":93,"geometry":{"type":"Point","coordinates":[-72.748741650999989,43.07701466900005]},"properties":{"ObjectID":93,"RouteID":1,"Sequence":93,"DirectionPointType":205,"StopID":null,"DisplayText":"Turn left on River Rd","ArrivalTime":null,"ArrivalUTCOffset":null,"Name":"River Rd","ExitName":null,"AlternateName":null,"IntersectingName":null,"BranchName":null,"TowardName":null,"Level":null,"ShortVoiceInstruction":"Turn left","VoiceInstruction":"Turn left on River Road","Azimuth":327.09475708007812}},{"type":"Feature","id":94,"geometry":{"type":"Point","coordinates":[-72.755261929999961,43.083798530000081]},"properties":{"ObjectID":94,"RouteID":1,"Sequence":94,"DirectionPointType":205,"StopID":null,"DisplayText":"Turn left on VT Route 30 (VT-30)","ArrivalTime":null,"ArrivalUTCOffset":null,"Name":"VT Route 30","ExitName":null,"AlternateName":"VT-30","IntersectingName":null,"BranchName":null,"TowardName":null,"Level":null,"ShortVoiceInstruction":"Turn left","VoiceInstruction":"Turn left on VT Route 30 (VT  Vermont 30)","Azimuth":274.52227783203125}},{"type":"Feature","id":95,"geometry":{"type":"Point","coordinates":[-72.840984420999973,43.14618696000008]},"properties":{"ObjectID":95,"RouteID":1,"Sequence":95,"DirectionPointType":305,"StopID":null,"DisplayText":"Turn right on VT Route 100 N (VT-100)","ArrivalTime":null,"ArrivalUTCOffset":null,"Name":"VT Route 100 N","ExitName":null,"AlternateName":"VT-100","IntersectingName":null,"BranchName":null,"TowardName":null,"Level":null,"ShortVoiceInstruction":"Turn right","VoiceInstruction":"Turn right on VT Route 100 North (VT  Vermont 100)","Azimuth":346.05435180664062}},{"type":"Feature","id":96,"geometry":{"type":"Point","coordinates":[-72.815222925999933,43.192478876000052]},"properties":{"ObjectID":96,"RouteID":1,"Sequence":96,"DirectionPointType":52,"StopID":null,"DisplayText":"Continue forward on Middletown Rd (VT-100)","ArrivalTime":null,"ArrivalUTCOffset":null,"Name":"Middletown Rd","ExitName":null,"AlternateName":"VT-100","IntersectingName":null,"BranchName":null,"TowardName":null,"Level":null,"ShortVoiceInstruction":"Continue on Middletown Road","VoiceInstruction":"Continue forward on Middletown Road (VT  Vermont 100)","Azimuth":31.920217514038086}},{"type":"Feature","id":97,"geometry":{"type":"Point","coordinates":[-72.815031153999939,43.192796418000057]},"properties":{"ObjectID":97,"RouteID":1,"Sequence":97,"DirectionPointType":205,"StopID":null,"DisplayText":"At the stop sign, turn left on VT Route 100 (VT-100)","ArrivalTime":null,"ArrivalUTCOffset":null,"Name":"VT Route 100","ExitName":null,"AlternateName":"VT-100","IntersectingName":null,"BranchName":null,"TowardName":null,"Level":null,"ShortVoiceInstruction":"Turn left","VoiceInstruction":"At the stop sign, turn left on VT Route 100 (VT  Vermont 100)","Azimuth":300.19161987304688}},{"type":"Feature","id":98,"geometry":{"type":"Point","coordinates":[-72.814690223999946,43.229336893000038]},"properties":{"ObjectID":98,"RouteID":1,"Sequence":98,"DirectionPointType":304,"StopID":null,"DisplayText":"At the stop sign, bear right on N Main St (VT-11)","ArrivalTime":null,"ArrivalUTCOffset":null,"Name":"N Main St","ExitName":null,"AlternateName":"VT-11","IntersectingName":null,"BranchName":null,"TowardName":null,"Level":null,"ShortVoiceInstruction":"Bear right","VoiceInstruction":"At the stop sign, bear right on North Main Street (VT  Vermont 11)","Azimuth":85.952995300292969}},{"type":"Feature","id":99,"geometry":{"type":"Point","coordinates":[-72.807765090999965,43.22688893000003]},"properties":{"ObjectID":99,"RouteID":1,"Sequence":99,"DirectionPointType":205,"StopID":null,"DisplayText":"Turn left on VT Route 100 (VT-100)","ArrivalTime":null,"ArrivalUTCOffset":null,"Name":"VT Route 100","ExitName":null,"AlternateName":"VT-100","IntersectingName":null,"BranchName":null,"TowardName":null,"Level":null,"ShortVoiceInstruction":"Turn left","VoiceInstruction":"Turn left on VT Route 100 (VT  Vermont 100)","Azimuth":55.256092071533203}},{"type":"Feature","id":100,"geometry":{"type":"Point","coordinates":[-72.795491624999954,43.249648063000052]},"properties":{"ObjectID":100,"RouteID":1,"Sequence":100,"DirectionPointType":52,"StopID":null,"DisplayText":"Continue forward on Main St (VT-100)","ArrivalTime":null,"ArrivalUTCOffset":null,"Name":"Main St","ExitName":null,"AlternateName":"VT-100","IntersectingName":null,"BranchName":null,"TowardName":null,"Level":null,"ShortVoiceInstruction":"Continue on Main Street","VoiceInstruction":"Continue forward on Main Street (VT  Vermont 100)","Azimuth":34.3931884765625}},{"type":"Feature","id":101,"geometry":{"type":"Point","coordinates":[-72.79294436899994,43.290714721000029]},"properties":{"ObjectID":101,"RouteID":1,"Sequence":101,"DirectionPointType":50,"StopID":8,"DisplayText":"Arrive at Weston: The Vermont Country Store, on the right","ArrivalTime":null,"ArrivalUTCOffset":null,"Name":"Weston: The Vermont Country Store","ExitName":null,"AlternateName":null,"IntersectingName":null,"BranchName":null,"TowardName":null,"Level":null,"ShortVoiceInstruction":"Arrive","VoiceInstruction":"Arrive at Weston: The Vermont Country Store, on the right","Azimuth":null}},{"type":"Feature","id":102,"geometry":{"type":"Point","coordinates":[-72.79294436899994,43.290714721000029]},"properties":{"ObjectID":102,"RouteID":1,"Sequence":102,"DirectionPointType":51,"StopID":8,"DisplayText":"Depart Weston: The Vermont Country Store","ArrivalTime":null,"ArrivalUTCOffset":null,"Name":"Weston: The Vermont Country Store","ExitName":null,"AlternateName":null,"IntersectingName":null,"BranchName":null,"TowardName":null,"Level":null,"ShortVoiceInstruction":"Depart","VoiceInstruction":"Depart Weston: The Vermont Country Store","Azimuth":null}},{"type":"Feature","id":103,"geometry":{"type":"Point","coordinates":[-72.79294436899994,43.290714721000029]},"properties":{"ObjectID":103,"RouteID":1,"Sequence":103,"DirectionPointType":52,"StopID":null,"DisplayText":"Continue north on Main St (VT-100)","ArrivalTime":null,"ArrivalUTCOffset":null,"Name":"Main St","ExitName":null,"AlternateName":"VT-100","IntersectingName":null,"BranchName":null,"TowardName":null,"Level":null,"ShortVoiceInstruction":"Continue on Main Street","VoiceInstruction":"Continue north on Main Street (VT  Vermont 100)","Azimuth":5.822174072265625}},{"type":"Feature","id":104,"geometry":{"type":"Point","coordinates":[-72.78654222199998,43.29845722400006]},"properties":{"ObjectID":104,"RouteID":1,"Sequence":104,"DirectionPointType":52,"StopID":null,"DisplayText":"Continue forward on VT Route 100 (VT-100)","ArrivalTime":null,"ArrivalUTCOffset":null,"Name":"VT Route 100","ExitName":null,"AlternateName":"VT-100","IntersectingName":null,"BranchName":null,"TowardName":null,"Level":null,"ShortVoiceInstruction":"Continue on VT Route 100","VoiceInstruction":"Continue forward on VT Route 100 (VT  Vermont 100)","Azimuth":33.318618774414062}},{"type":"Feature","id":105,"geometry":{"type":"Point","coordinates":[-72.78598821199995,43.336799031000055]},"properties":{"ObjectID":105,"RouteID":1,"Sequence":105,"DirectionPointType":305,"StopID":null,"DisplayText":"Turn right at Route 155 to stay on VT Route 100 (VT-100)","ArrivalTime":null,"ArrivalUTCOffset":null,"Name":"VT Route 100","ExitName":null,"AlternateName":"VT-100","IntersectingName":"Route 155","BranchName":null,"TowardName":null,"Level":null,"ShortVoiceInstruction":"Turn right","VoiceInstruction":"Turn right at Route 1 55 to stay on VT Route 100 (VT  Vermont 100)","Azimuth":50.526073455810547}},{"type":"Feature","id":106,"geometry":{"type":"Point","coordinates":[-72.709470820999968,43.386947643000042]},"properties":{"ObjectID":106,"RouteID":1,"Sequence":106,"DirectionPointType":52,"StopID":null,"DisplayText":"Continue forward on Andover St (VT-100)","ArrivalTime":null,"ArrivalUTCOffset":null,"Name":"Andover St","ExitName":null,"AlternateName":"VT-100","IntersectingName":null,"BranchName":null,"TowardName":null,"Level":null,"ShortVoiceInstruction":"Continue on Andover Street","VoiceInstruction":"Continue forward on Andover Street (VT  Vermont 100)","Azimuth":13.807844161987305}},{"type":"Feature","id":107,"geometry":{"type":"Point","coordinates":[-72.704079871999966,43.394204932000036]},"properties":{"ObjectID":107,"RouteID":1,"Sequence":107,"DirectionPointType":206,"StopID":null,"DisplayText":"Make a sharp left on Pond St (VT-100)","ArrivalTime":null,"ArrivalUTCOffset":null,"Name":"Pond St","ExitName":null,"AlternateName":"VT-100","IntersectingName":null,"BranchName":null,"TowardName":null,"Level":null,"ShortVoiceInstruction":"Make a sharp left","VoiceInstruction":"Make a sharp left on Pond Street (VT  Vermont 100)","Azimuth":291.69146728515625}},{"type":"Feature","id":108,"geometry":{"type":"Point","coordinates":[-72.704527341999949,43.396075545000031]},"properties":{"ObjectID":108,"RouteID":1,"Sequence":108,"DirectionPointType":205,"StopID":null,"DisplayText":"At the stop sign, turn left on Pond St (VT-100)","ArrivalTime":null,"ArrivalUTCOffset":null,"Name":"Pond St","ExitName":null,"AlternateName":"VT-100","IntersectingName":null,"BranchName":null,"TowardName":null,"Level":null,"ShortVoiceInstruction":"Turn left","VoiceInstruction":"At the stop sign, turn left on Pond Street (VT  Vermont 100)","Azimuth":314.2493896484375}},{"type":"Feature","id":109,"geometry":{"type":"Point","coordinates":[-72.706999080999935,43.419925870000043]},"properties":{"ObjectID":109,"RouteID":1,"Sequence":109,"DirectionPointType":305,"StopID":null,"DisplayText":"At the traffic light, turn right on VT Route 100 N (VT-100)","ArrivalTime":null,"ArrivalUTCOffset":null,"Name":"VT Route 100 N","ExitName":null,"AlternateName":"VT-100","IntersectingName":null,"BranchName":null,"TowardName":null,"Level":null,"ShortVoiceInstruction":"Turn right","VoiceInstruction":"At the traffic light, turn right on VT Route 100 North (VT  Vermont 100)","Azimuth":50.492324829101562}},{"type":"Feature","id":110,"geometry":{"type":"Point","coordinates":[-72.703113903999963,43.475262603000033]},"properties":{"ObjectID":110,"RouteID":1,"Sequence":110,"DirectionPointType":50,"StopID":9,"DisplayText":"Arrive at Echo Lake pull-off, Plymouth, on the right","ArrivalTime":null,"ArrivalUTCOffset":null,"Name":"Echo Lake pull-off, Plymouth","ExitName":null,"AlternateName":null,"IntersectingName":null,"BranchName":null,"TowardName":null,"Level":null,"ShortVoiceInstruction":"Arrive","VoiceInstruction":"Arrive at Echo Lake pull off, Plymouth, on the right","Azimuth":null}},{"type":"Feature","id":111,"geometry":{"type":"Point","coordinates":[-72.703113903999963,43.475262603000033]},"properties":{"ObjectID":111,"RouteID":1,"Sequence":111,"DirectionPointType":51,"StopID":9,"DisplayText":"Depart Echo Lake pull-off, Plymouth","ArrivalTime":null,"ArrivalUTCOffset":null,"Name":"Echo Lake pull-off, Plymouth","ExitName":null,"AlternateName":null,"IntersectingName":null,"BranchName":null,"TowardName":null,"Level":null,"ShortVoiceInstruction":"Depart","VoiceInstruction":"Depart Echo Lake pull off, Plymouth","Azimuth":null}},{"type":"Feature","id":112,"geometry":{"type":"Point","coordinates":[-72.703113903999963,43.475262603000033]},"properties":{"ObjectID":112,"RouteID":1,"Sequence":112,"DirectionPointType":52,"StopID":null,"DisplayText":"Continue north on VT Route 100 N (VT-100)","ArrivalTime":null,"ArrivalUTCOffset":null,"Name":"VT Route 100 N","ExitName":null,"AlternateName":"VT-100","IntersectingName":null,"BranchName":null,"TowardName":null,"Level":null,"ShortVoiceInstruction":"Continue on VT Route 100 North","VoiceInstruction":"Continue north on VT Route 100 North (VT  Vermont 100)","Azimuth":351.08795166015625}},{"type":"Feature","id":113,"geometry":{"type":"Point","coordinates":[-72.748954731999959,43.600053266000032]},"properties":{"ObjectID":113,"RouteID":1,"Sequence":113,"DirectionPointType":205,"StopID":null,"DisplayText":"At the stop sign, turn left on US Route 4 (US-4 E)","ArrivalTime":null,"ArrivalUTCOffset":null,"Name":"US Route 4","ExitName":null,"AlternateName":"US-4 E","IntersectingName":null,"BranchName":null,"TowardName":null,"Level":null,"ShortVoiceInstruction":"Turn left","VoiceInstruction":"At the stop sign, turn left on US Route 4 (US  U.S. 4)","Azimuth":293.71255493164062}},{"type":"Feature","id":114,"geometry":{"type":"Point","coordinates":[-72.785199811999973,43.665270711000062]},"properties":{"ObjectID":114,"RouteID":1,"Sequence":114,"DirectionPointType":205,"StopID":null,"DisplayText":"Turn left on W Hill Rd","ArrivalTime":null,"ArrivalUTCOffset":null,"Name":"W Hill Rd","ExitName":null,"AlternateName":null,"IntersectingName":null,"BranchName":null,"TowardName":null,"Level":null,"ShortVoiceInstruction":"Turn left","VoiceInstruction":"Turn left on West Hill Road","Azimuth":239.38536071777344}},{"type":"Feature","id":115,"geometry":{"type":"Point","coordinates":[-72.790271139999959,43.658071157000052]},"properties":{"ObjectID":115,"RouteID":1,"Sequence":115,"DirectionPointType":205,"StopID":null,"DisplayText":"At the traffic light, turn left on Killington Rd","ArrivalTime":null,"ArrivalUTCOffset":null,"Name":"Killington Rd","ExitName":null,"AlternateName":null,"IntersectingName":null,"BranchName":null,"TowardName":null,"Level":null,"ShortVoiceInstruction":"Turn left","VoiceInstruction":"At the traffic light, turn left on Killington Road","Azimuth":117.52521514892578}},{"type":"Feature","id":116,"geometry":{"type":"Point","coordinates":[-72.789759745999959,43.655611647000057]},"properties":{"ObjectID":116,"RouteID":1,"Sequence":116,"DirectionPointType":205,"StopID":null,"DisplayText":"Turn left on Summit Rd","ArrivalTime":null,"ArrivalUTCOffset":null,"Name":"Summit Rd","ExitName":null,"AlternateName":null,"IntersectingName":null,"BranchName":null,"TowardName":null,"Level":null,"ShortVoiceInstruction":"Turn left","VoiceInstruction":"Turn left on Summit Road","Azimuth":111.47305297851562}},{"type":"Feature","id":117,"geometry":{"type":"Point","coordinates":[-72.788417334999963,43.655507724000074]},"properties":{"ObjectID":117,"RouteID":1,"Sequence":117,"DirectionPointType":205,"StopID":null,"DisplayText":"Turn left","ArrivalTime":null,"ArrivalUTCOffset":null,"Name":null,"ExitName":null,"AlternateName":null,"IntersectingName":null,"BranchName":null,"TowardName":null,"Level":null,"ShortVoiceInstruction":"Turn left","VoiceInstruction":"Turn left","Azimuth":11.038056373596191}},{"type":"Feature","id":118,"geometry":{"type":"Point","coordinates":[-72.788417334999963,43.655507724000074]},"properties":{"ObjectID":118,"RouteID":1,"Sequence":118,"DirectionPointType":1006,"StopID":null,"DisplayText":"Restriction: Through Traffic Prohibited","ArrivalTime":null,"ArrivalUTCOffset":null,"Name":"Through Traffic Prohibited","ExitName":null,"AlternateName":null,"IntersectingName":null,"BranchName":null,"TowardName":null,"Level":null,"ShortVoiceInstruction":null,"VoiceInstruction":"Restriction: Through Traffic Prohibited","Azimuth":null}},{"type":"Feature","id":119,"geometry":{"type":"Point","coordinates":[-72.788513164999983,43.656237783000051]},"properties":{"ObjectID":119,"RouteID":1,"Sequence":119,"DirectionPointType":50,"StopID":10,"DisplayText":"Arrive at The Foundry at Summit Pond (dinner), on the left","ArrivalTime":null,"ArrivalUTCOffset":null,"Name":"The Foundry at Summit Pond (dinner)","ExitName":null,"AlternateName":null,"IntersectingName":null,"BranchName":null,"TowardName":null,"Level":null,"ShortVoiceInstruction":"Arrive","VoiceInstruction":"Arrive at The Foundry at Summit Pond (dinner), on the left","Azimuth":null}},{"type":"Feature","id":120,"geometry":{"type":"Point","coordinates":[-72.788513164999983,43.656237783000051]},"properties":{"ObjectID":120,"RouteID":1,"Sequence":120,"DirectionPointType":51,"StopID":10,"DisplayText":"Depart The Foundry at Summit Pond (dinner)","ArrivalTime":null,"ArrivalUTCOffset":null,"Name":"The Foundry at Summit Pond (dinner)","ExitName":null,"AlternateName":null,"IntersectingName":null,"BranchName":null,"TowardName":null,"Level":null,"ShortVoiceInstruction":"Depart","VoiceInstruction":"Depart The Foundry at Summit Pond (dinner)","Azimuth":null}},{"type":"Feature","id":121,"geometry":{"type":"Point","coordinates":[-72.788513164999983,43.656237783000051]},"properties":{"ObjectID":121,"RouteID":1,"Sequence":121,"DirectionPointType":303,"StopID":null,"DisplayText":"Go back southeast","ArrivalTime":null,"ArrivalUTCOffset":null,"Name":null,"ExitName":null,"AlternateName":null,"IntersectingName":null,"BranchName":null,"TowardName":null,"Level":null,"ShortVoiceInstruction":"Make a U-turn","VoiceInstruction":"Go back southeast","Azimuth":156.48541259765625}},{"type":"Feature","id":122,"geometry":{"type":"Point","coordinates":[-72.788417334999963,43.655507724000074]},"properties":{"ObjectID":122,"RouteID":1,"Sequence":122,"DirectionPointType":305,"StopID":null,"DisplayText":"Turn right on Summit Rd","ArrivalTime":null,"ArrivalUTCOffset":null,"Name":"Summit Rd","ExitName":null,"AlternateName":null,"IntersectingName":null,"BranchName":null,"TowardName":null,"Level":null,"ShortVoiceInstruction":"Turn right","VoiceInstruction":"Turn right on Summit Road","Azimuth":278.411376953125}},{"type":"Feature","id":123,"geometry":{"type":"Point","coordinates":[-72.789759745999959,43.655611647000057]},"properties":{"ObjectID":123,"RouteID":1,"Sequence":123,"DirectionPointType":205,"StopID":null,"DisplayText":"Turn left on Killington Rd","ArrivalTime":null,"ArrivalUTCOffset":null,"Name":"Killington Rd","ExitName":null,"AlternateName":null,"IntersectingName":null,"BranchName":null,"TowardName":null,"Level":null,"ShortVoiceInstruction":"Turn left","VoiceInstruction":"Turn left on Killington Road","Azimuth":218.82318115234375}},{"type":"Feature","id":124,"geometry":{"type":"Point","coordinates":[-72.790739917999986,43.654104764000067]},"properties":{"ObjectID":124,"RouteID":1,"Sequence":124,"DirectionPointType":305,"StopID":null,"DisplayText":"Turn right on Bigelow Dr (Biglow Dr)","ArrivalTime":null,"ArrivalUTCOffset":null,"Name":"Bigelow Dr","ExitName":null,"AlternateName":"Biglow Dr","IntersectingName":null,"BranchName":null,"TowardName":null,"Level":null,"ShortVoiceInstruction":"Turn right","VoiceInstruction":"Turn right on Bigelow Drive (Biglow Drive)","Azimuth":282.56185913085938}},{"type":"Feature","id":125,"geometry":{"type":"Point","coordinates":[-72.792742879999935,43.65510357900007]},"properties":{"ObjectID":125,"RouteID":1,"Sequence":125,"DirectionPointType":52,"StopID":null,"DisplayText":"Continue forward on Priscilla Ln","ArrivalTime":null,"ArrivalUTCOffset":null,"Name":"Priscilla Ln","ExitName":null,"AlternateName":null,"IntersectingName":null,"BranchName":null,"TowardName":null,"Level":null,"ShortVoiceInstruction":"Continue on Priscilla Lane","VoiceInstruction":"Continue forward on Priscilla Lane","Azimuth":253.60739135742188}},{"type":"Feature","id":126,"geometry":{"type":"Point","coordinates":[-72.794546504999971,43.655453838000028]},"properties":{"ObjectID":126,"RouteID":1,"Sequence":126,"DirectionPointType":50,"StopID":11,"DisplayText":"Finish at Airbnb, 95 Priscilla Lane, Killington, on the left","ArrivalTime":null,"ArrivalUTCOffset":null,"Name":"Airbnb, 95 Priscilla Lane, Killington","ExitName":null,"AlternateName":null,"IntersectingName":null,"BranchName":null,"TowardName":null,"Level":null,"ShortVoiceInstruction":"Finish","VoiceInstruction":"Finish at Airbnb, 95 Priscilla Lane, Killington, on the left","Azimuth":null}}]}