{"type":"FeatureCollection","features":[{"type":"Feature","id":1,"geometry":{"type":"Point","coordinates":[-72.794600574999947,43.655462697000075]},"properties":{"ObjectID":1,"RouteID":1,"Sequence":1,"DirectionPointType":51,"StopID":1,"DisplayText":"Start at Airbnb, 95 Priscilla Lane, Killington","ArrivalTime":null,"ArrivalUTCOffset":null,"Name":"Airbnb, 95 Priscilla Lane, Killington","ExitName":null,"AlternateName":null,"IntersectingName":null,"BranchName":null,"TowardName":null,"Level":null,"ShortVoiceInstruction":"Start","VoiceInstruction":"Start at Airbnb, 95 Priscilla Lane, Killington","Azimuth":null}},{"type":"Feature","id":2,"geometry":{"type":"Point","coordinates":[-72.794600574999947,43.655462697000075]},"properties":{"ObjectID":2,"RouteID":1,"Sequence":2,"DirectionPointType":52,"StopID":null,"DisplayText":"Go east on Priscilla Ln toward Killington Rd","ArrivalTime":null,"ArrivalUTCOffset":null,"Name":"Priscilla Ln","ExitName":null,"AlternateName":null,"IntersectingName":"Killington Rd","BranchName":null,"TowardName":null,"Level":null,"ShortVoiceInstruction":"Continue on Priscilla Lane","VoiceInstruction":"Go east on Priscilla Lane toward Killington Road","Azimuth":100.71672058105469}},{"type":"Feature","id":3,"geometry":{"type":"Point","coordinates":[-72.792742879999935,43.65510357900007]},"properties":{"ObjectID":3,"RouteID":1,"Sequence":3,"DirectionPointType":52,"StopID":null,"DisplayText":"Continue forward on Bigelow Dr (Biglow Dr)","ArrivalTime":null,"ArrivalUTCOffset":null,"Name":"Bigelow Dr","ExitName":null,"AlternateName":"Biglow Dr","IntersectingName":null,"BranchName":null,"TowardName":null,"Level":null,"ShortVoiceInstruction":"Continue on Bigelow Drive","VoiceInstruction":"Continue forward on Bigelow Drive (Biglow Drive)","Azimuth":69.848251342773438}},{"type":"Feature","id":4,"geometry":{"type":"Point","coordinates":[-72.790739917999986,43.654104764000067]},"properties":{"ObjectID":4,"RouteID":1,"Sequence":4,"DirectionPointType":205,"StopID":null,"DisplayText":"Turn left on Killington Rd","ArrivalTime":null,"ArrivalUTCOffset":null,"Name":"Killington Rd","ExitName":null,"AlternateName":null,"IntersectingName":null,"BranchName":null,"TowardName":null,"Level":null,"ShortVoiceInstruction":"Turn left","VoiceInstruction":"Turn left on Killington Road","Azimuth":23.355545043945312}},{"type":"Feature","id":5,"geometry":{"type":"Point","coordinates":[-72.789482739999983,43.657470714000056]},"properties":{"ObjectID":5,"RouteID":1,"Sequence":5,"DirectionPointType":200,"StopID":null,"DisplayText":"Keep left at the fork onto Killington Rd","ArrivalTime":null,"ArrivalUTCOffset":null,"Name":"Killington Rd","ExitName":null,"AlternateName":null,"IntersectingName":null,"BranchName":null,"TowardName":null,"Level":null,"ShortVoiceInstruction":"Keep left","VoiceInstruction":"Keep left at the fork onto Killington Road","Azimuth":321.2752685546875}},{"type":"Feature","id":6,"geometry":{"type":"Point","coordinates":[-72.803631318999976,43.668134366000061]},"properties":{"ObjectID":6,"RouteID":1,"Sequence":6,"DirectionPointType":205,"StopID":null,"DisplayText":"At the stop sign, turn left on US Route 4 (US-4 W)","ArrivalTime":null,"ArrivalUTCOffset":null,"Name":"US Route 4","ExitName":null,"AlternateName":"US-4 W","IntersectingName":null,"BranchName":null,"TowardName":null,"Level":null,"ShortVoiceInstruction":"Turn left","VoiceInstruction":"At the stop sign, turn left on US Route 4 (US  U.S. 4)","Azimuth":278.85198974609375}},{"type":"Feature","id":7,"geometry":{"type":"Point","coordinates":[-72.804568875999962,43.668226742000058]},"properties":{"ObjectID":7,"RouteID":1,"Sequence":7,"DirectionPointType":300,"StopID":null,"DisplayText":"Keep right at the fork onto Route 100 (VT-100)","ArrivalTime":null,"ArrivalUTCOffset":null,"Name":"Route 100","ExitName":null,"AlternateName":"VT-100","IntersectingName":null,"BranchName":null,"TowardName":null,"Level":null,"ShortVoiceInstruction":"Keep right","VoiceInstruction":"Keep right at the fork onto Route 100 (VT  Vermont 100)","Azimuth":291.66006469726562}},{"type":"Feature","id":8,"geometry":{"type":"Point","coordinates":[-72.805612972999938,43.668896468000071]},"properties":{"ObjectID":8,"RouteID":1,"Sequence":8,"DirectionPointType":305,"StopID":null,"DisplayText":"Turn right to stay on Route 100 (VT-100)","ArrivalTime":null,"ArrivalUTCOffset":null,"Name":"Route 100","ExitName":null,"AlternateName":"VT-100","IntersectingName":null,"BranchName":null,"TowardName":null,"Level":null,"ShortVoiceInstruction":"Turn right","VoiceInstruction":"Turn right to stay on Route 100 (VT  Vermont 100)","Azimuth":21.27960205078125}},{"type":"Feature","id":9,"geometry":{"type":"Point","coordinates":[-72.825365581999961,43.717359219000059]},"properties":{"ObjectID":9,"RouteID":1,"Sequence":9,"DirectionPointType":52,"StopID":null,"DisplayText":"Continue forward on VT Route 100 (VT-100)","ArrivalTime":null,"ArrivalUTCOffset":null,"Name":"VT Route 100","ExitName":null,"AlternateName":"VT-100","IntersectingName":null,"BranchName":null,"TowardName":null,"Level":null,"ShortVoiceInstruction":"Continue on VT Route 100","VoiceInstruction":"Continue forward on VT Route 100 (VT  Vermont 100)","Azimuth":55.1873779296875}},{"type":"Feature","id":10,"geometry":{"type":"Point","coordinates":[-72.762485375999972,43.774187770000026]},"properties":{"ObjectID":10,"RouteID":1,"Sequence":10,"DirectionPointType":205,"StopID":null,"DisplayText":"At the stop sign, turn left on VT Route 100 (VT-100)","ArrivalTime":null,"ArrivalUTCOffset":null,"Name":"VT Route 100","ExitName":null,"AlternateName":"VT-100","IntersectingName":null,"BranchName":null,"TowardName":null,"Level":null,"ShortVoiceInstruction":"Turn left","VoiceInstruction":"At the stop sign, turn left on VT Route 100 (VT  Vermont 100)","Azimuth":67.250289916992188}},{"type":"Feature","id":11,"geometry":{"type":"Point","coordinates":[-72.753770362999944,43.78349465000008]},"properties":{"ObjectID":11,"RouteID":1,"Sequence":11,"DirectionPointType":206,"StopID":null,"DisplayText":"Make a sharp left at Blackmer Blvd / Stockbridge Cmn to stay on VT Route 100 (VT-100)","ArrivalTime":null,"ArrivalUTCOffset":null,"Name":"VT Route 100","ExitName":null,"AlternateName":"VT-100","IntersectingName":"Blackmer Blvd / Stockbridge Cmn","BranchName":null,"TowardName":null,"Level":null,"ShortVoiceInstruction":"Make a sharp left","VoiceInstruction":"Make a sharp left at Blackmer Boulevard, Stockbridge Common to stay on VT Route 100 (VT  Vermont 100)","Azimuth":312.4710693359375}},{"type":"Feature","id":12,"geometry":{"type":"Point","coordinates":[-72.808276484999965,43.86718729200004]},"properties":{"ObjectID":12,"RouteID":1,"Sequence":12,"DirectionPointType":52,"StopID":null,"DisplayText":"Continue forward on S Main St (VT-100)","ArrivalTime":null,"ArrivalUTCOffset":null,"Name":"S Main St","ExitName":null,"AlternateName":"VT-100","IntersectingName":null,"BranchName":null,"TowardName":null,"Level":null,"ShortVoiceInstruction":"Continue on South Main Street","VoiceInstruction":"Continue forward on South Main Street (VT  Vermont 100)","Azimuth":24.012847900390625}},{"type":"Feature","id":13,"geometry":{"type":"Point","coordinates":[-72.806891458999985,43.877429479000057]},"properties":{"ObjectID":13,"RouteID":1,"Sequence":13,"DirectionPointType":52,"StopID":null,"DisplayText":"Continue forward on VT Route 100 N (VT-100)","ArrivalTime":null,"ArrivalUTCOffset":null,"Name":"VT Route 100 N","ExitName":null,"AlternateName":"VT-100","IntersectingName":null,"BranchName":null,"TowardName":null,"Level":null,"ShortVoiceInstruction":"Continue on VT Route 100 North","VoiceInstruction":"Continue forward on VT Route 100 North (VT  Vermont 100)","Azimuth":34.898521423339844}},{"type":"Feature","id":14,"geometry":{"type":"Point","coordinates":[-72.849840136999944,44.017658793000066]},"properties":{"ObjectID":14,"RouteID":1,"Sequence":14,"DirectionPointType":50,"StopID":2,"DisplayText":"Arrive at Moss Glen Falls, Granville Gulf, on the left","ArrivalTime":null,"ArrivalUTCOffset":null,"Name":"Moss Glen Falls, Granville Gulf","ExitName":null,"AlternateName":null,"IntersectingName":null,"BranchName":null,"TowardName":null,"Level":null,"ShortVoiceInstruction":"Arrive","VoiceInstruction":"Arrive at Moss Glen Falls, Granville Gulf, on the left","Azimuth":null}},{"type":"Feature","id":15,"geometry":{"type":"Point","coordinates":[-72.849840136999944,44.017658793000066]},"properties":{"ObjectID":15,"RouteID":1,"Sequence":15,"DirectionPointType":51,"StopID":2,"DisplayText":"Depart Moss Glen Falls, Granville Gulf","ArrivalTime":null,"ArrivalUTCOffset":null,"Name":"Moss Glen Falls, Granville Gulf","ExitName":null,"AlternateName":null,"IntersectingName":null,"BranchName":null,"TowardName":null,"Level":null,"ShortVoiceInstruction":"Depart","VoiceInstruction":"Depart Moss Glen Falls, Granville Gulf","Azimuth":null}},{"type":"Feature","id":16,"geometry":{"type":"Point","coordinates":[-72.849840136999944,44.017658793000066]},"properties":{"ObjectID":16,"RouteID":1,"Sequence":16,"DirectionPointType":52,"StopID":null,"DisplayText":"Continue northeast on VT Route 100 N (VT-100)","ArrivalTime":null,"ArrivalUTCOffset":null,"Name":"VT Route 100 N","ExitName":null,"AlternateName":"VT-100","IntersectingName":null,"BranchName":null,"TowardName":null,"Level":null,"ShortVoiceInstruction":"Continue on VT Route 100 North","VoiceInstruction":"Continue northeast on VT Route 100 North (VT  Vermont 100)","Azimuth":38.497364044189453}},{"type":"Feature","id":17,"geometry":{"type":"Point","coordinates":[-72.85781781999998,44.118051598000079]},"properties":{"ObjectID":17,"RouteID":1,"Sequence":17,"DirectionPointType":305,"StopID":null,"DisplayText":"Turn right on Main St","ArrivalTime":null,"ArrivalUTCOffset":null,"Name":"Main St","ExitName":null,"AlternateName":null,"IntersectingName":null,"BranchName":null,"TowardName":null,"Level":null,"ShortVoiceInstruction":"Turn right","VoiceInstruction":"Turn right on Main Street","Azimuth":122.05203247070312}},{"type":"Feature","id":18,"geometry":{"type":"Point","coordinates":[-72.855756058999987,44.11457682200006]},"properties":{"ObjectID":18,"RouteID":1,"Sequence":18,"DirectionPointType":50,"StopID":3,"DisplayText":"Arrive at Warren Store (breakfast), on the right","ArrivalTime":null,"ArrivalUTCOffset":null,"Name":"Warren Store (breakfast)","ExitName":null,"AlternateName":null,"IntersectingName":null,"BranchName":null,"TowardName":null,"Level":null,"ShortVoiceInstruction":"Arrive","VoiceInstruction":"Arrive at Warren Store (breakfast), on the right","Azimuth":null}},{"type":"Feature","id":19,"geometry":{"type":"Point","coordinates":[-72.855756058999987,44.11457682200006]},"properties":{"ObjectID":19,"RouteID":1,"Sequence":19,"DirectionPointType":51,"StopID":3,"DisplayText":"Depart Warren Store (breakfast)","ArrivalTime":null,"ArrivalUTCOffset":null,"Name":"Warren Store (breakfast)","ExitName":null,"AlternateName":null,"IntersectingName":null,"BranchName":null,"TowardName":null,"Level":null,"ShortVoiceInstruction":"Depart","VoiceInstruction":"Depart Warren Store (breakfast)","Azimuth":null}},{"type":"Feature","id":20,"geometry":{"type":"Point","coordinates":[-72.855756058999987,44.11457682200006]},"properties":{"ObjectID":20,"RouteID":1,"Sequence":20,"DirectionPointType":303,"StopID":null,"DisplayText":"Go back north on Main St","ArrivalTime":null,"ArrivalUTCOffset":null,"Name":"Main St","ExitName":null,"AlternateName":null,"IntersectingName":null,"BranchName":null,"TowardName":null,"Level":null,"ShortVoiceInstruction":"Make a U-turn","VoiceInstruction":"Go back north on Main Street","Azimuth":346.68264770507812}},{"type":"Feature","id":21,"geometry":{"type":"Point","coordinates":[-72.85781781999998,44.118051598000079]},"properties":{"ObjectID":21,"RouteID":1,"Sequence":21,"DirectionPointType":305,"StopID":null,"DisplayText":"At the stop sign, turn right on VT Route 100 (VT-100)","ArrivalTime":null,"ArrivalUTCOffset":null,"Name":"VT Route 100","ExitName":null,"AlternateName":"VT-100","IntersectingName":null,"BranchName":null,"TowardName":null,"Level":null,"ShortVoiceInstruction":"Turn right","VoiceInstruction":"At the stop sign, turn right on VT Route 100 (VT  Vermont 100)","Azimuth":18.951114654541016}},{"type":"Feature","id":22,"geometry":{"type":"Point","coordinates":[-72.840877879999937,44.146110803000056]},"properties":{"ObjectID":22,"RouteID":1,"Sequence":22,"DirectionPointType":52,"StopID":null,"DisplayText":"Continue forward on Main St (VT-100)","ArrivalTime":null,"ArrivalUTCOffset":null,"Name":"Main St","ExitName":null,"AlternateName":"VT-100","IntersectingName":null,"BranchName":null,"TowardName":null,"Level":null,"ShortVoiceInstruction":"Continue on Main Street","VoiceInstruction":"Continue forward on Main Street (VT  Vermont 100)","Azimuth":9.9783935546875}},{"type":"Feature","id":23,"geometry":{"type":"Point","coordinates":[-72.824428025999964,44.190151054000069]},"properties":{"ObjectID":23,"RouteID":1,"Sequence":23,"DirectionPointType":305,"StopID":null,"DisplayText":"Turn right on Bridge St","ArrivalTime":null,"ArrivalUTCOffset":null,"Name":"Bridge St","ExitName":null,"AlternateName":null,"IntersectingName":null,"BranchName":null,"TowardName":null,"Level":null,"ShortVoiceInstruction":"Turn right","VoiceInstruction":"Turn right on Bridge Street","Azimuth":117.99025726318359}},{"type":"Feature","id":24,"geometry":{"type":"Point","coordinates":[-72.82350646499998,44.189354278000053]},"properties":{"ObjectID":24,"RouteID":1,"Sequence":24,"DirectionPointType":50,"StopID":4,"DisplayText":"Arrive at Historic Waitsfield (Great Eddy) Covered Bridge and Mad River, on the left","ArrivalTime":null,"ArrivalUTCOffset":null,"Name":"Historic Waitsfield (Great Eddy) Covered Bridge and Mad River","ExitName":null,"AlternateName":null,"IntersectingName":null,"BranchName":null,"TowardName":null,"Level":null,"ShortVoiceInstruction":"Arrive","VoiceInstruction":"Arrive at Historic Waitsfield (Great Eddy) Covered Bridge and Mad River, on the left","Azimuth":null}},{"type":"Feature","id":25,"geometry":{"type":"Point","coordinates":[-72.82350646499998,44.189354278000053]},"properties":{"ObjectID":25,"RouteID":1,"Sequence":25,"DirectionPointType":51,"StopID":4,"DisplayText":"Depart Historic Waitsfield (Great Eddy) Covered Bridge and Mad River","ArrivalTime":null,"ArrivalUTCOffset":null,"Name":"Historic Waitsfield (Great Eddy) Covered Bridge and Mad River","ExitName":null,"AlternateName":null,"IntersectingName":null,"BranchName":null,"TowardName":null,"Level":null,"ShortVoiceInstruction":"Depart","VoiceInstruction":"Depart Historic Waitsfield (Great Eddy) Covered Bridge and Mad River","Azimuth":null}},{"type":"Feature","id":26,"geometry":{"type":"Point","coordinates":[-72.82350646499998,44.189354278000053]},"properties":{"ObjectID":26,"RouteID":1,"Sequence":26,"DirectionPointType":303,"StopID":null,"DisplayText":"Go back northwest on Bridge St","ArrivalTime":null,"ArrivalUTCOffset":null,"Name":"Bridge St","ExitName":null,"AlternateName":null,"IntersectingName":null,"BranchName":null,"TowardName":null,"Level":null,"ShortVoiceInstruction":"Make a U-turn","VoiceInstruction":"Go back northwest on Bridge Street","Azimuth":327.79794311523438}},{"type":"Feature","id":27,"geometry":{"type":"Point","coordinates":[-72.824428025999964,44.190151054000069]},"properties":{"ObjectID":27,"RouteID":1,"Sequence":27,"DirectionPointType":305,"StopID":null,"DisplayText":"At the stop sign, turn right on Main St (VT-100)","ArrivalTime":null,"ArrivalUTCOffset":null,"Name":"Main St","ExitName":null,"AlternateName":"VT-100","IntersectingName":null,"BranchName":null,"TowardName":null,"Level":null,"ShortVoiceInstruction":"Turn right","VoiceInstruction":"At the stop sign, turn right on Main Street (VT  Vermont 100)","Azimuth":44.756866455078125}},{"type":"Feature","id":28,"geometry":{"type":"Point","coordinates":[-72.789227042999983,44.223758592000081]},"properties":{"ObjectID":28,"RouteID":1,"Sequence":28,"DirectionPointType":52,"StopID":null,"DisplayText":"Continue forward on VT Route 100 S (VT-100)","ArrivalTime":null,"ArrivalUTCOffset":null,"Name":"VT Route 100 S","ExitName":null,"AlternateName":"VT-100","IntersectingName":null,"BranchName":null,"TowardName":null,"Level":null,"ShortVoiceInstruction":"Continue on VT Route 100 South","VoiceInstruction":"Continue forward on VT Route 100 South (VT  Vermont 100)","Azimuth":38.183933258056641}},{"type":"Feature","id":29,"geometry":{"type":"Point","coordinates":[-72.756348642999967,44.322450784000068]},"properties":{"ObjectID":29,"RouteID":1,"Sequence":29,"DirectionPointType":205,"StopID":null,"DisplayText":"Turn left on Main St","ArrivalTime":null,"ArrivalUTCOffset":null,"Name":"Main St","ExitName":null,"AlternateName":null,"IntersectingName":null,"BranchName":null,"TowardName":null,"Level":null,"ShortVoiceInstruction":"Turn left","VoiceInstruction":"Turn left on Main Street","Azimuth":332.47140502929688}},{"type":"Feature","id":30,"geometry":{"type":"Point","coordinates":[-72.752641033999964,44.327190827000038]},"properties":{"ObjectID":30,"RouteID":1,"Sequence":30,"DirectionPointType":206,"StopID":null,"DisplayText":"Make a sharp left on River Rd","ArrivalTime":null,"ArrivalUTCOffset":null,"Name":"River Rd","ExitName":null,"AlternateName":null,"IntersectingName":null,"BranchName":null,"TowardName":null,"Level":null,"ShortVoiceInstruction":"Make a sharp left","VoiceInstruction":"Make a sharp left on River Road","Azimuth":292.75149536132812}},{"type":"Feature","id":31,"geometry":{"type":"Point","coordinates":[-72.764573569999982,44.337300224000046]},"properties":{"ObjectID":31,"RouteID":1,"Sequence":31,"DirectionPointType":305,"StopID":null,"DisplayText":"Turn right on Winooski St","ArrivalTime":null,"ArrivalUTCOffset":null,"Name":"Winooski St","ExitName":null,"AlternateName":null,"IntersectingName":null,"BranchName":null,"TowardName":null,"Level":null,"ShortVoiceInstruction":"Turn right","VoiceInstruction":"Turn right on Winooski Street","Azimuth":83.107574462890625}},{"type":"Feature","id":32,"geometry":{"type":"Point","coordinates":[-72.75786151899996,44.33934404200005]},"properties":{"ObjectID":32,"RouteID":1,"Sequence":32,"DirectionPointType":205,"StopID":null,"DisplayText":"At the stop sign, turn left on N Main St (US-2 E)","ArrivalTime":null,"ArrivalUTCOffset":null,"Name":"N Main St","ExitName":null,"AlternateName":"US-2 E","IntersectingName":null,"BranchName":null,"TowardName":null,"Level":null,"ShortVoiceInstruction":"Turn left","VoiceInstruction":"At the stop sign, turn left on North Main Street (US  U.S. 2)","Azimuth":317.80020141601562}},{"type":"Feature","id":33,"geometry":{"type":"Point","coordinates":[-72.758990847999939,44.340666174000035]},"properties":{"ObjectID":33,"RouteID":1,"Sequence":33,"DirectionPointType":305,"StopID":null,"DisplayText":"Turn right to stay on N Main St (US-2 E)","ArrivalTime":null,"ArrivalUTCOffset":null,"Name":"N Main St","ExitName":null,"AlternateName":"US-2 E","IntersectingName":null,"BranchName":null,"TowardName":null,"Level":null,"ShortVoiceInstruction":"Turn right","VoiceInstruction":"Turn right to stay on North Main Street (US  U.S. 2)","Azimuth":357.28085327148438}},{"type":"Feature","id":34,"geometry":{"type":"Point","coordinates":[-72.759054771999956,44.341376314000058]},"properties":{"ObjectID":34,"RouteID":1,"Sequence":34,"DirectionPointType":302,"StopID":null,"DisplayText":"At the roundabout, take the first exit onto Waterbury Stowe Rd (VT-100)","ArrivalTime":null,"ArrivalUTCOffset":null,"Name":"Waterbury Stowe Rd","ExitName":null,"AlternateName":"VT-100","IntersectingName":null,"BranchName":null,"TowardName":null,"Level":null,"ShortVoiceInstruction":"Take the roundabout","VoiceInstruction":"At the roundabout, take the first exit onto Waterbury Stowe Road (VT  Vermont 100)","Azimuth":39.845458984375}},{"type":"Feature","id":35,"geometry":{"type":"Point","coordinates":[-72.739493934999985,44.351757065000072]},"properties":{"ObjectID":35,"RouteID":1,"Sequence":35,"DirectionPointType":205,"StopID":null,"DisplayText":"Turn left","ArrivalTime":null,"ArrivalUTCOffset":null,"Name":null,"ExitName":null,"AlternateName":null,"IntersectingName":null,"BranchName":null,"TowardName":null,"Level":null,"ShortVoiceInstruction":"Turn left","VoiceInstruction":"Turn left","Azimuth":311.40383911132812}},{"type":"Feature","id":36,"geometry":{"type":"Point","coordinates":[-72.739765040999941,44.352002411000058]},"properties":{"ObjectID":36,"RouteID":1,"Sequence":36,"DirectionPointType":50,"StopID":5,"DisplayText":"Arrive at Ben & Jerry's Factory and Flavor Graveyard, on the left","ArrivalTime":null,"ArrivalUTCOffset":null,"Name":"Ben & Jerry's Factory and Flavor Graveyard","ExitName":null,"AlternateName":null,"IntersectingName":null,"BranchName":null,"TowardName":null,"Level":null,"ShortVoiceInstruction":"Arrive","VoiceInstruction":"Arrive at Ben & Jerry's Factory and Flavor Graveyard, on the left","Azimuth":null}},{"type":"Feature","id":37,"geometry":{"type":"Point","coordinates":[-72.739765040999941,44.352002411000058]},"properties":{"ObjectID":37,"RouteID":1,"Sequence":37,"DirectionPointType":51,"StopID":5,"DisplayText":"Depart Ben & Jerry's Factory and Flavor Graveyard","ArrivalTime":null,"ArrivalUTCOffset":null,"Name":"Ben & Jerry's Factory and Flavor Graveyard","ExitName":null,"AlternateName":null,"IntersectingName":null,"BranchName":null,"TowardName":null,"Level":null,"ShortVoiceInstruction":"Depart","VoiceInstruction":"Depart Ben & Jerry's Factory and Flavor Graveyard","Azimuth":null}},{"type":"Feature","id":38,"geometry":{"type":"Point","coordinates":[-72.739765040999941,44.352002411000058]},"properties":{"ObjectID":38,"RouteID":1,"Sequence":38,"DirectionPointType":303,"StopID":null,"DisplayText":"Go back southeast","ArrivalTime":null,"ArrivalUTCOffset":null,"Name":null,"ExitName":null,"AlternateName":null,"IntersectingName":null,"BranchName":null,"TowardName":null,"Level":null,"ShortVoiceInstruction":"Make a U-turn","VoiceInstruction":"Go back southeast","Azimuth":131.40383911132812}},{"type":"Feature","id":39,"geometry":{"type":"Point","coordinates":[-72.739493934999985,44.351757065000072]},"properties":{"ObjectID":39,"RouteID":1,"Sequence":39,"DirectionPointType":205,"StopID":null,"DisplayText":"Turn left on Waterbury Stowe Rd (VT-100)","ArrivalTime":null,"ArrivalUTCOffset":null,"Name":"Waterbury Stowe Rd","ExitName":null,"AlternateName":"VT-100","IntersectingName":null,"BranchName":null,"TowardName":null,"Level":null,"ShortVoiceInstruction":"Turn left","VoiceInstruction":"Turn left on Waterbury Stowe Road (VT  Vermont 100)","Azimuth":57.168205261230469}},{"type":"Feature","id":40,"geometry":{"type":"Point","coordinates":[-72.720636265999985,44.381681111000034]},"properties":{"ObjectID":40,"RouteID":1,"Sequence":40,"DirectionPointType":305,"StopID":null,"DisplayText":"Turn right","ArrivalTime":null,"ArrivalUTCOffset":null,"Name":null,"ExitName":null,"AlternateName":null,"IntersectingName":null,"BranchName":null,"TowardName":null,"Level":null,"ShortVoiceInstruction":"Turn right","VoiceInstruction":"Turn right","Azimuth":97.507904052734375}},{"type":"Feature","id":41,"geometry":{"type":"Point","coordinates":[-72.720636265999985,44.381681111000034]},"properties":{"ObjectID":41,"RouteID":1,"Sequence":41,"DirectionPointType":1006,"StopID":null,"DisplayText":"Restriction: Through Traffic Prohibited","ArrivalTime":null,"ArrivalUTCOffset":null,"Name":"Through Traffic Prohibited","ExitName":null,"AlternateName":null,"IntersectingName":null,"BranchName":null,"TowardName":null,"Level":null,"ShortVoiceInstruction":null,"VoiceInstruction":"Restriction: Through Traffic Prohibited","Azimuth":null}},{"type":"Feature","id":42,"geometry":{"type":"Point","coordinates":[-72.719293855999979,44.38162337600005]},"properties":{"ObjectID":42,"RouteID":1,"Sequence":42,"DirectionPointType":305,"StopID":null,"DisplayText":"Turn right","ArrivalTime":null,"ArrivalUTCOffset":null,"Name":null,"ExitName":null,"AlternateName":null,"IntersectingName":null,"BranchName":null,"TowardName":null,"Level":null,"ShortVoiceInstruction":"Turn right","VoiceInstruction":"Turn right","Azimuth":181.16725158691406}},{"type":"Feature","id":43,"geometry":{"type":"Point","coordinates":[-72.720002947999944,44.381192669000029]},"properties":{"ObjectID":43,"RouteID":1,"Sequence":43,"DirectionPointType":50,"StopID":6,"DisplayText":"Arrive at Cold Hollow Cider Mill, on the right","ArrivalTime":null,"ArrivalUTCOffset":null,"Name":"Cold Hollow Cider Mill","ExitName":null,"AlternateName":null,"IntersectingName":null,"BranchName":null,"TowardName":null,"Level":null,"ShortVoiceInstruction":"Arrive","VoiceInstruction":"Arrive at Cold Hollow Cider Mill, on the right","Azimuth":null}},{"type":"Feature","id":44,"geometry":{"type":"Point","coordinates":[-72.720002947999944,44.381192669000029]},"properties":{"ObjectID":44,"RouteID":1,"Sequence":44,"DirectionPointType":51,"StopID":6,"DisplayText":"Depart Cold Hollow Cider Mill","ArrivalTime":null,"ArrivalUTCOffset":null,"Name":"Cold Hollow Cider Mill","ExitName":null,"AlternateName":null,"IntersectingName":null,"BranchName":null,"TowardName":null,"Level":null,"ShortVoiceInstruction":"Depart","VoiceInstruction":"Depart Cold Hollow Cider Mill","Azimuth":null}},{"type":"Feature","id":45,"geometry":{"type":"Point","coordinates":[-72.720002947999944,44.381192669000029]},"properties":{"ObjectID":45,"RouteID":1,"Sequence":45,"DirectionPointType":303,"StopID":null,"DisplayText":"Go back east","ArrivalTime":null,"ArrivalUTCOffset":null,"Name":null,"ExitName":null,"AlternateName":null,"IntersectingName":null,"BranchName":null,"TowardName":null,"Level":null,"ShortVoiceInstruction":"Make a U-turn","VoiceInstruction":"Go back east","Azimuth":101.66098022460938}},{"type":"Feature","id":46,"geometry":{"type":"Point","coordinates":[-72.719293855999979,44.38162337600005]},"properties":{"ObjectID":46,"RouteID":1,"Sequence":46,"DirectionPointType":205,"StopID":null,"DisplayText":"Turn left","ArrivalTime":null,"ArrivalUTCOffset":null,"Name":null,"ExitName":null,"AlternateName":null,"IntersectingName":null,"BranchName":null,"TowardName":null,"Level":null,"ShortVoiceInstruction":"Turn left","VoiceInstruction":"Turn left","Azimuth":269.24481201171875}},{"type":"Feature","id":47,"geometry":{"type":"Point","coordinates":[-72.720636265999985,44.381681111000034]},"properties":{"ObjectID":47,"RouteID":1,"Sequence":47,"DirectionPointType":205,"StopID":null,"DisplayText":"Turn left on Waterbury-Stowe Rd (VT-100)","ArrivalTime":null,"ArrivalUTCOffset":null,"Name":"Waterbury-Stowe Rd","ExitName":null,"AlternateName":"VT-100","IntersectingName":null,"BranchName":null,"TowardName":null,"Level":null,"ShortVoiceInstruction":"Turn left","VoiceInstruction":"Turn left on Waterbury Stowe Road (VT  Vermont 100)","Azimuth":179.97097778320312}},{"type":"Feature","id":48,"geometry":{"type":"Point","coordinates":[-72.720721497999989,44.380353206000052]},"properties":{"ObjectID":48,"RouteID":1,"Sequence":48,"DirectionPointType":205,"StopID":null,"DisplayText":"Turn left on Hollow Rd (Seminary Rd)","ArrivalTime":null,"ArrivalUTCOffset":null,"Name":"Hollow Rd","ExitName":null,"AlternateName":"Seminary Rd","IntersectingName":null,"BranchName":null,"TowardName":null,"Level":null,"ShortVoiceInstruction":"Turn left","VoiceInstruction":"Turn left on Hollow Road (Seminary Road)","Azimuth":114.80018615722656}},{"type":"Feature","id":49,"geometry":{"type":"Point","coordinates":[-72.718995541999959,44.376912200000049]},"properties":{"ObjectID":49,"RouteID":1,"Sequence":49,"DirectionPointType":205,"StopID":null,"DisplayText":"At the stop sign, turn left on Howard Ave","ArrivalTime":null,"ArrivalUTCOffset":null,"Name":"Howard Ave","ExitName":null,"AlternateName":null,"IntersectingName":null,"BranchName":null,"TowardName":null,"Level":null,"ShortVoiceInstruction":"Turn left","VoiceInstruction":"At the stop sign, turn left on Howard Avenue","Azimuth":98.327522277832031}},{"type":"Feature","id":50,"geometry":{"type":"Point","coordinates":[-72.717823596999949,44.376658166000027]},"properties":{"ObjectID":50,"RouteID":1,"Sequence":50,"DirectionPointType":205,"StopID":null,"DisplayText":"At the stop sign, turn left on Maple St","ArrivalTime":null,"ArrivalUTCOffset":null,"Name":"Maple St","ExitName":null,"AlternateName":null,"IntersectingName":null,"BranchName":null,"TowardName":null,"Level":null,"ShortVoiceInstruction":"Turn left","VoiceInstruction":"At the stop sign, turn left on Maple Street","Azimuth":53.064239501953125}},{"type":"Feature","id":51,"geometry":{"type":"Point","coordinates":[-72.715799326999957,44.378395990000058]},"properties":{"ObjectID":51,"RouteID":1,"Sequence":51,"DirectionPointType":305,"StopID":null,"DisplayText":"Turn right on Loomis Hill Rd","ArrivalTime":null,"ArrivalUTCOffset":null,"Name":"Loomis Hill Rd","ExitName":null,"AlternateName":null,"IntersectingName":null,"BranchName":null,"TowardName":null,"Level":null,"ShortVoiceInstruction":"Turn right","VoiceInstruction":"Turn right on Loomis Hill Road","Azimuth":112.29351806640625}},{"type":"Feature","id":52,"geometry":{"type":"Point","coordinates":[-72.687843098999963,44.383586365000042]},"properties":{"ObjectID":52,"RouteID":1,"Sequence":52,"DirectionPointType":305,"StopID":null,"DisplayText":"Turn right on Shaw Mansion Rd","ArrivalTime":null,"ArrivalUTCOffset":null,"Name":"Shaw Mansion Rd","ExitName":null,"AlternateName":null,"IntersectingName":null,"BranchName":null,"TowardName":null,"Level":null,"ShortVoiceInstruction":"Turn right","VoiceInstruction":"Turn right on Shaw Mansion Road","Azimuth":173.46334838867188}},{"type":"Feature","id":53,"geometry":{"type":"Point","coordinates":[-72.689888675999953,44.379931740000075]},"properties":{"ObjectID":53,"RouteID":1,"Sequence":53,"DirectionPointType":305,"StopID":null,"DisplayText":"Turn right on Thurston Ln","ArrivalTime":null,"ArrivalUTCOffset":null,"Name":"Thurston Ln","ExitName":null,"AlternateName":null,"IntersectingName":null,"BranchName":null,"TowardName":null,"Level":null,"ShortVoiceInstruction":"Turn right","VoiceInstruction":"Turn right on Thurston Lane","Azimuth":306.91995239257812}},{"type":"Feature","id":54,"geometry":{"type":"Point","coordinates":[-72.691139783999972,44.380792567000071]},"properties":{"ObjectID":54,"RouteID":1,"Sequence":54,"DirectionPointType":50,"StopID":7,"DisplayText":"Arrive at Hunger Mountain Orchard (pick-your-own apples), on the right","ArrivalTime":null,"ArrivalUTCOffset":null,"Name":"Hunger Mountain Orchard (pick-your-own apples)","ExitName":null,"AlternateName":null,"IntersectingName":null,"BranchName":null,"TowardName":null,"Level":null,"ShortVoiceInstruction":"Arrive","VoiceInstruction":"Arrive at Hunger Mountain Orchard (pick your own apples), on the right","Azimuth":null}},{"type":"Feature","id":55,"geometry":{"type":"Point","coordinates":[-72.691139783999972,44.380792567000071]},"properties":{"ObjectID":55,"RouteID":1,"Sequence":55,"DirectionPointType":51,"StopID":7,"DisplayText":"Depart Hunger Mountain Orchard (pick-your-own apples)","ArrivalTime":null,"ArrivalUTCOffset":null,"Name":"Hunger Mountain Orchard (pick-your-own apples)","ExitName":null,"AlternateName":null,"IntersectingName":null,"BranchName":null,"TowardName":null,"Level":null,"ShortVoiceInstruction":"Depart","VoiceInstruction":"Depart Hunger Mountain Orchard (pick your own apples)","Azimuth":null}},{"type":"Feature","id":56,"geometry":{"type":"Point","coordinates":[-72.691139783999972,44.380792567000071]},"properties":{"ObjectID":56,"RouteID":1,"Sequence":56,"DirectionPointType":303,"StopID":null,"DisplayText":"Go back southeast on Thurston Ln","ArrivalTime":null,"ArrivalUTCOffset":null,"Name":"Thurston Ln","ExitName":null,"AlternateName":null,"IntersectingName":null,"BranchName":null,"TowardName":null,"Level":null,"ShortVoiceInstruction":"Make a U-turn","VoiceInstruction":"Go back southeast on Thurston Lane","Azimuth":117.04051971435547}},{"type":"Feature","id":57,"geometry":{"type":"Point","coordinates":[-72.689888675999953,44.379931740000075]},"properties":{"ObjectID":57,"RouteID":1,"Sequence":57,"DirectionPointType":205,"StopID":null,"DisplayText":"Turn left on Shaw Mansion Rd","ArrivalTime":null,"ArrivalUTCOffset":null,"Name":"Shaw Mansion Rd","ExitName":null,"AlternateName":null,"IntersectingName":null,"BranchName":null,"TowardName":null,"Level":null,"ShortVoiceInstruction":"Turn left","VoiceInstruction":"Turn left on Shaw Mansion Road","Azimuth":48.786483764648438}},{"type":"Feature","id":58,"geometry":{"type":"Point","coordinates":[-72.687843098999963,44.383586365000042]},"properties":{"ObjectID":58,"RouteID":1,"Sequence":58,"DirectionPointType":205,"StopID":null,"DisplayText":"Turn left on Loomis Hill Rd","ArrivalTime":null,"ArrivalUTCOffset":null,"Name":"Loomis Hill Rd","ExitName":null,"AlternateName":null,"IntersectingName":null,"BranchName":null,"TowardName":null,"Level":null,"ShortVoiceInstruction":"Turn left","VoiceInstruction":"Turn left on Loomis Hill Road","Azimuth":279.40960693359375}},{"type":"Feature","id":59,"geometry":{"type":"Point","coordinates":[-72.715799326999957,44.378395990000058]},"properties":{"ObjectID":59,"RouteID":1,"Sequence":59,"DirectionPointType":205,"StopID":null,"DisplayText":"At the stop sign, turn left on Maple St","ArrivalTime":null,"ArrivalUTCOffset":null,"Name":"Maple St","ExitName":null,"AlternateName":null,"IntersectingName":null,"BranchName":null,"TowardName":null,"Level":null,"ShortVoiceInstruction":"Turn left","VoiceInstruction":"At the stop sign, turn left on Maple Street","Azimuth":228.59512329101562}},{"type":"Feature","id":60,"geometry":{"type":"Point","coordinates":[-72.717546590999973,44.376854465000065]},"properties":{"ObjectID":60,"RouteID":1,"Sequence":60,"DirectionPointType":304,"StopID":null,"DisplayText":"Bear right on Howard Ave","ArrivalTime":null,"ArrivalUTCOffset":null,"Name":"Howard Ave","ExitName":null,"AlternateName":null,"IntersectingName":null,"BranchName":null,"TowardName":null,"Level":null,"ShortVoiceInstruction":"Bear right","VoiceInstruction":"Bear right on Howard Avenue","Azimuth":256.84902954101562}},{"type":"Feature","id":61,"geometry":{"type":"Point","coordinates":[-72.718995541999959,44.376912200000049]},"properties":{"ObjectID":61,"RouteID":1,"Sequence":61,"DirectionPointType":305,"StopID":null,"DisplayText":"At the stop sign, turn right on Hollow Rd (Seminary Rd)","ArrivalTime":null,"ArrivalUTCOffset":null,"Name":"Hollow Rd","ExitName":null,"AlternateName":"Seminary Rd","IntersectingName":null,"BranchName":null,"TowardName":null,"Level":null,"ShortVoiceInstruction":"Turn right","VoiceInstruction":"At the stop sign, turn right on Hollow Road (Seminary Road)","Azimuth":337.64529418945312}},{"type":"Feature","id":62,"geometry":{"type":"Point","coordinates":[-72.720721497999989,44.380353206000052]},"properties":{"ObjectID":62,"RouteID":1,"Sequence":62,"DirectionPointType":305,"StopID":null,"DisplayText":"At the stop sign, turn right on Waterbury-Stowe Rd (VT-100)","ArrivalTime":null,"ArrivalUTCOffset":null,"Name":"Waterbury-Stowe Rd","ExitName":null,"AlternateName":"VT-100","IntersectingName":null,"BranchName":null,"TowardName":null,"Level":null,"ShortVoiceInstruction":"Turn right","VoiceInstruction":"At the stop sign, turn right on Waterbury Stowe Road (VT  Vermont 100)","Azimuth":16.84930419921875}},{"type":"Feature","id":63,"geometry":{"type":"Point","coordinates":[-72.719229930999973,44.395554829000048]},"properties":{"ObjectID":63,"RouteID":1,"Sequence":63,"DirectionPointType":207,"StopID":null,"DisplayText":"Turn left on Cabin Ln, then turn left","ArrivalTime":null,"ArrivalUTCOffset":null,"Name":"Cabin Ln","ExitName":null,"AlternateName":null,"IntersectingName":null,"BranchName":null,"TowardName":null,"Level":null,"ShortVoiceInstruction":"Turn left, then turn left","VoiceInstruction":"Turn left on Cabin Lane, then turn left","Azimuth":282.33908081054688}},{"type":"Feature","id":64,"geometry":{"type":"Point","coordinates":[-72.720041103999961,44.394274995000046]},"properties":{"ObjectID":64,"RouteID":1,"Sequence":64,"DirectionPointType":50,"StopID":8,"DisplayText":"Arrive at Vermont Artisan Coffee & Tea, on the right","ArrivalTime":null,"ArrivalUTCOffset":null,"Name":"Vermont Artisan Coffee & Tea","ExitName":null,"AlternateName":null,"IntersectingName":null,"BranchName":null,"TowardName":null,"Level":null,"ShortVoiceInstruction":"Arrive","VoiceInstruction":"Arrive at Vermont Artisan Coffee & Tea, on the right","Azimuth":null}},{"type":"Feature","id":65,"geometry":{"type":"Point","coordinates":[-72.720041103999961,44.394274995000046]},"properties":{"ObjectID":65,"RouteID":1,"Sequence":65,"DirectionPointType":51,"StopID":8,"DisplayText":"Depart Vermont Artisan Coffee & Tea","ArrivalTime":null,"ArrivalUTCOffset":null,"Name":"Vermont Artisan Coffee & Tea","ExitName":null,"AlternateName":null,"IntersectingName":null,"BranchName":null,"TowardName":null,"Level":null,"ShortVoiceInstruction":"Depart","VoiceInstruction":"Depart Vermont Artisan Coffee & Tea","Azimuth":null}},{"type":"Feature","id":66,"geometry":{"type":"Point","coordinates":[-72.720041103999961,44.394274995000046]},"properties":{"ObjectID":66,"RouteID":1,"Sequence":66,"DirectionPointType":303,"StopID":null,"DisplayText":"Go back east","ArrivalTime":null,"ArrivalUTCOffset":null,"Name":null,"ExitName":null,"AlternateName":null,"IntersectingName":null,"BranchName":null,"TowardName":null,"Level":null,"ShortVoiceInstruction":"Make a U-turn","VoiceInstruction":"Go back east","Azimuth":81.1224365234375}},{"type":"Feature","id":67,"geometry":{"type":"Point","coordinates":[-72.719549552999979,44.395606790000045]},"properties":{"ObjectID":67,"RouteID":1,"Sequence":67,"DirectionPointType":307,"StopID":null,"DisplayText":"Turn right on Cabin Ln, then turn left on Waterbury-Stowe Rd","ArrivalTime":null,"ArrivalUTCOffset":null,"Name":"Cabin Ln","ExitName":null,"AlternateName":null,"IntersectingName":null,"BranchName":null,"TowardName":null,"Level":null,"ShortVoiceInstruction":"Turn right, then turn left","VoiceInstruction":"Turn right on Cabin Lane, then turn left on Waterbury Stowe Road","Azimuth":95.102165222167969}},{"type":"Feature","id":68,"geometry":{"type":"Point","coordinates":[-72.720018330999949,44.425016994000032]},"properties":{"ObjectID":68,"RouteID":1,"Sequence":68,"DirectionPointType":52,"StopID":null,"DisplayText":"Continue forward on Waterbury Rd (VT-100)","ArrivalTime":null,"ArrivalUTCOffset":null,"Name":"Waterbury Rd","ExitName":null,"AlternateName":"VT-100","IntersectingName":null,"BranchName":null,"TowardName":null,"Level":null,"ShortVoiceInstruction":"Continue on Waterbury Road","VoiceInstruction":"Continue forward on Waterbury Road (VT  Vermont 100)","Azimuth":44.1265869140625}},{"type":"Feature","id":69,"geometry":{"type":"Point","coordinates":[-72.697133430999941,44.45208315800005]},"properties":{"ObjectID":69,"RouteID":1,"Sequence":69,"DirectionPointType":52,"StopID":null,"DisplayText":"Continue forward on S Main St (VT-100)","ArrivalTime":null,"ArrivalUTCOffset":null,"Name":"S Main St","ExitName":null,"AlternateName":"VT-100","IntersectingName":null,"BranchName":null,"TowardName":null,"Level":null,"ShortVoiceInstruction":"Continue on South Main Street","VoiceInstruction":"Continue forward on South Main Street (VT  Vermont 100)","Azimuth":18.170394897460938}},{"type":"Feature","id":70,"geometry":{"type":"Point","coordinates":[-72.687416936999966,44.465437261000034]},"properties":{"ObjectID":70,"RouteID":1,"Sequence":70,"DirectionPointType":205,"StopID":null,"DisplayText":"At the stop sign, turn left on Mountain Rd (VT-108)","ArrivalTime":null,"ArrivalUTCOffset":null,"Name":"Mountain Rd","ExitName":null,"AlternateName":"VT-108","IntersectingName":null,"BranchName":null,"TowardName":null,"Level":null,"ShortVoiceInstruction":"Turn left","VoiceInstruction":"At the stop sign, turn left on Mountain Road (VT  Vermont 1 oh 8)","Azimuth":346.07431030273438}},{"type":"Feature","id":71,"geometry":{"type":"Point","coordinates":[-72.701799904999973,44.474732594000045]},"properties":{"ObjectID":71,"RouteID":1,"Sequence":71,"DirectionPointType":307,"StopID":null,"DisplayText":"Make a sharp right on Towne Farm Ln, then turn left","ArrivalTime":null,"ArrivalUTCOffset":null,"Name":"Towne Farm Ln","ExitName":null,"AlternateName":"Town Farm Ln","IntersectingName":null,"BranchName":null,"TowardName":null,"Level":null,"ShortVoiceInstruction":"Make a sharp right, then turn left","VoiceInstruction":"Make a sharp right on Towne Farm Lane, then turn left","Azimuth":42.430034637451172}},{"type":"Feature","id":72,"geometry":{"type":"Point","coordinates":[-72.701799904999973,44.474732594000045]},"properties":{"ObjectID":72,"RouteID":1,"Sequence":72,"DirectionPointType":1006,"StopID":null,"DisplayText":"Restriction: Avoid Unpaved Roads","ArrivalTime":null,"ArrivalUTCOffset":null,"Name":"Avoid Unpaved Roads","ExitName":null,"AlternateName":null,"IntersectingName":null,"BranchName":null,"TowardName":null,"Level":null,"ShortVoiceInstruction":null,"VoiceInstruction":"Restriction: Avoid Unpaved Roads","Azimuth":null}},{"type":"Feature","id":73,"geometry":{"type":"Point","coordinates":[-72.70197036999997,44.475333038000031]},"properties":{"ObjectID":73,"RouteID":1,"Sequence":73,"DirectionPointType":305,"StopID":null,"DisplayText":"Turn right","ArrivalTime":null,"ArrivalUTCOffset":null,"Name":null,"ExitName":null,"AlternateName":null,"IntersectingName":null,"BranchName":null,"TowardName":null,"Level":null,"ShortVoiceInstruction":"Turn right","VoiceInstruction":"Turn right","Azimuth":43.538948059082031}},{"type":"Feature","id":74,"geometry":{"type":"Point","coordinates":[-72.701687061999962,44.475596823000046]},"properties":{"ObjectID":74,"RouteID":1,"Sequence":74,"DirectionPointType":50,"StopID":9,"DisplayText":"Arrive at Shakedown Street BBQ at Stowe Cider (lunch), on the left","ArrivalTime":null,"ArrivalUTCOffset":null,"Name":"Shakedown Street BBQ at Stowe Cider (lunch)","ExitName":null,"AlternateName":null,"IntersectingName":null,"BranchName":null,"TowardName":null,"Level":null,"ShortVoiceInstruction":"Arrive","VoiceInstruction":"Arrive at Shakedown Street BBQ at Stowe Cider (lunch), on the left","Azimuth":null}},{"type":"Feature","id":75,"geometry":{"type":"Point","coordinates":[-72.701687061999962,44.475596823000046]},"properties":{"ObjectID":75,"RouteID":1,"Sequence":75,"DirectionPointType":51,"StopID":9,"DisplayText":"Depart Shakedown Street BBQ at Stowe Cider (lunch)","ArrivalTime":null,"ArrivalUTCOffset":null,"Name":"Shakedown Street BBQ at Stowe Cider (lunch)","ExitName":null,"AlternateName":null,"IntersectingName":null,"BranchName":null,"TowardName":null,"Level":null,"ShortVoiceInstruction":"Depart","VoiceInstruction":"Depart Shakedown Street BBQ at Stowe Cider (lunch)","Azimuth":null}},{"type":"Feature","id":76,"geometry":{"type":"Point","coordinates":[-72.701687061999962,44.475596823000046]},"properties":{"ObjectID":76,"RouteID":1,"Sequence":76,"DirectionPointType":303,"StopID":null,"DisplayText":"Go back southwest","ArrivalTime":null,"ArrivalUTCOffset":null,"Name":null,"ExitName":null,"AlternateName":null,"IntersectingName":null,"BranchName":null,"TowardName":null,"Level":null,"ShortVoiceInstruction":"Make a U-turn","VoiceInstruction":"Go back southwest","Azimuth":228.82807922363281}},{"type":"Feature","id":77,"geometry":{"type":"Point","coordinates":[-72.70197036999997,44.475333038000031]},"properties":{"ObjectID":77,"RouteID":1,"Sequence":77,"DirectionPointType":205,"StopID":null,"DisplayText":"Turn left","ArrivalTime":null,"ArrivalUTCOffset":null,"Name":null,"ExitName":null,"AlternateName":null,"IntersectingName":null,"BranchName":null,"TowardName":null,"Level":null,"ShortVoiceInstruction":"Turn left","VoiceInstruction":"Turn left","Azimuth":129.7998046875}},{"type":"Feature","id":78,"geometry":{"type":"Point","coordinates":[-72.701501590999953,44.475050137000039]},"properties":{"ObjectID":78,"RouteID":1,"Sequence":78,"DirectionPointType":307,"StopID":null,"DisplayText":"Turn right on Towne Farm Ln, then make a sharp left on Mountain Rd","ArrivalTime":null,"ArrivalUTCOffset":null,"Name":"Towne Farm Ln","ExitName":null,"AlternateName":"Town Farm Ln","IntersectingName":null,"BranchName":null,"TowardName":null,"Level":null,"ShortVoiceInstruction":"Turn right, then make a sharp left","VoiceInstruction":"Turn right on Towne Farm Lane, then make a sharp left on Mountain Road","Azimuth":222.43003845214844}},{"type":"Feature","id":79,"geometry":{"type":"Point","coordinates":[-72.687416936999966,44.465437261000034]},"properties":{"ObjectID":79,"RouteID":1,"Sequence":79,"DirectionPointType":205,"StopID":null,"DisplayText":"At the stop sign, turn left on Main St (VT-100)","ArrivalTime":null,"ArrivalUTCOffset":null,"Name":"Main St","ExitName":null,"AlternateName":"VT-100","IntersectingName":null,"BranchName":null,"TowardName":null,"Level":null,"ShortVoiceInstruction":"Turn left","VoiceInstruction":"At the stop sign, turn left on Main Street (VT  Vermont 100)","Azimuth":90.79345703125}},{"type":"Feature","id":80,"geometry":{"type":"Point","coordinates":[-72.68464688399996,44.465327564000063]},"properties":{"ObjectID":80,"RouteID":1,"Sequence":80,"DirectionPointType":305,"StopID":null,"DisplayText":"Turn right on School St","ArrivalTime":null,"ArrivalUTCOffset":null,"Name":"School St","ExitName":null,"AlternateName":null,"IntersectingName":null,"BranchName":null,"TowardName":null,"Level":null,"ShortVoiceInstruction":"Turn right","VoiceInstruction":"Turn right on School Street","Azimuth":185.58650207519531}},{"type":"Feature","id":81,"geometry":{"type":"Point","coordinates":[-72.68467203299997,44.465045043000032]},"properties":{"ObjectID":81,"RouteID":1,"Sequence":81,"DirectionPointType":50,"StopID":10,"DisplayText":"Arrive at Black Cap Coffee & Bakery, on the left","ArrivalTime":null,"ArrivalUTCOffset":null,"Name":"Black Cap Coffee & Bakery","ExitName":null,"AlternateName":null,"IntersectingName":null,"BranchName":null,"TowardName":null,"Level":null,"ShortVoiceInstruction":"Arrive","VoiceInstruction":"Arrive at Black Cap Coffee & Bakery, on the left","Azimuth":null}},{"type":"Feature","id":82,"geometry":{"type":"Point","coordinates":[-72.68467203299997,44.465045043000032]},"properties":{"ObjectID":82,"RouteID":1,"Sequence":82,"DirectionPointType":51,"StopID":10,"DisplayText":"Depart Black Cap Coffee & Bakery","ArrivalTime":null,"ArrivalUTCOffset":null,"Name":"Black Cap Coffee & Bakery","ExitName":null,"AlternateName":null,"IntersectingName":null,"BranchName":null,"TowardName":null,"Level":null,"ShortVoiceInstruction":"Depart","VoiceInstruction":"Depart Black Cap Coffee & Bakery","Azimuth":null}},{"type":"Feature","id":83,"geometry":{"type":"Point","coordinates":[-72.68467203299997,44.465045043000032]},"properties":{"ObjectID":83,"RouteID":1,"Sequence":83,"DirectionPointType":303,"StopID":null,"DisplayText":"Go back north on School St","ArrivalTime":null,"ArrivalUTCOffset":null,"Name":"School St","ExitName":null,"AlternateName":null,"IntersectingName":null,"BranchName":null,"TowardName":null,"Level":null,"ShortVoiceInstruction":"Make a U-turn","VoiceInstruction":"Go back north on School Street","Azimuth":3.3724606037139893}},{"type":"Feature","id":84,"geometry":{"type":"Point","coordinates":[-72.68464688399996,44.465327564000063]},"properties":{"ObjectID":84,"RouteID":1,"Sequence":84,"DirectionPointType":305,"StopID":null,"DisplayText":"At the stop sign, turn right on Main St (VT-100)","ArrivalTime":null,"ArrivalUTCOffset":null,"Name":"Main St","ExitName":null,"AlternateName":"VT-100","IntersectingName":null,"BranchName":null,"TowardName":null,"Level":null,"ShortVoiceInstruction":"Turn right","VoiceInstruction":"At the stop sign, turn right on Main Street (VT  Vermont 100)","Azimuth":90}},{"type":"Feature","id":85,"geometry":{"type":"Point","coordinates":[-72.684476418999964,44.465327564000063]},"properties":{"ObjectID":85,"RouteID":1,"Sequence":85,"DirectionPointType":205,"StopID":null,"DisplayText":"Turn left","ArrivalTime":null,"ArrivalUTCOffset":null,"Name":null,"ExitName":null,"AlternateName":null,"IntersectingName":null,"BranchName":null,"TowardName":null,"Level":null,"ShortVoiceInstruction":"Turn left","VoiceInstruction":"Turn left","Azimuth":1.2821090221405029}},{"type":"Feature","id":86,"geometry":{"type":"Point","coordinates":[-72.684476418999964,44.465327564000063]},"properties":{"ObjectID":86,"RouteID":1,"Sequence":86,"DirectionPointType":1006,"StopID":null,"DisplayText":"Restriction: Through Traffic Prohibited","ArrivalTime":null,"ArrivalUTCOffset":null,"Name":"Through Traffic Prohibited","ExitName":null,"AlternateName":null,"IntersectingName":null,"BranchName":null,"TowardName":null,"Level":null,"ShortVoiceInstruction":null,"VoiceInstruction":"Restriction: Through Traffic Prohibited","Azimuth":null}},{"type":"Feature","id":87,"geometry":{"type":"Point","coordinates":[-72.684476418999964,44.46581253800008]},"properties":{"ObjectID":87,"RouteID":1,"Sequence":87,"DirectionPointType":205,"StopID":null,"DisplayText":"Turn left","ArrivalTime":null,"ArrivalUTCOffset":null,"Name":null,"ExitName":null,"AlternateName":null,"IntersectingName":null,"BranchName":null,"TowardName":null,"Level":null,"ShortVoiceInstruction":"Turn left","VoiceInstruction":"Turn left","Azimuth":272.55715942382812}},{"type":"Feature","id":88,"geometry":{"type":"Point","coordinates":[-72.684626786999956,44.465821578000032]},"properties":{"ObjectID":88,"RouteID":1,"Sequence":88,"DirectionPointType":50,"StopID":11,"DisplayText":"Arrive at Stowe Community Church and Stowe sign, on the left","ArrivalTime":null,"ArrivalUTCOffset":null,"Name":"Stowe Community Church and Stowe sign","ExitName":null,"AlternateName":null,"IntersectingName":null,"BranchName":null,"TowardName":null,"Level":null,"ShortVoiceInstruction":"Arrive","VoiceInstruction":"Arrive at Stowe Community Church and Stowe sign, on the left","Azimuth":null}},{"type":"Feature","id":89,"geometry":{"type":"Point","coordinates":[-72.684626786999956,44.465821578000032]},"properties":{"ObjectID":89,"RouteID":1,"Sequence":89,"DirectionPointType":51,"StopID":11,"DisplayText":"Depart Stowe Community Church and Stowe sign","ArrivalTime":null,"ArrivalUTCOffset":null,"Name":"Stowe Community Church and Stowe sign","ExitName":null,"AlternateName":null,"IntersectingName":null,"BranchName":null,"TowardName":null,"Level":null,"ShortVoiceInstruction":"Depart","VoiceInstruction":"Depart Stowe Community Church and Stowe sign","Azimuth":null}},{"type":"Feature","id":90,"geometry":{"type":"Point","coordinates":[-72.684626786999956,44.465821578000032]},"properties":{"ObjectID":90,"RouteID":1,"Sequence":90,"DirectionPointType":52,"StopID":null,"DisplayText":"Continue west","ArrivalTime":null,"ArrivalUTCOffset":null,"Name":null,"ExitName":null,"AlternateName":null,"IntersectingName":null,"BranchName":null,"TowardName":null,"Level":null,"ShortVoiceInstruction":"Continue forward","VoiceInstruction":"Continue west","Azimuth":268.50839233398438}},{"type":"Feature","id":91,"geometry":{"type":"Point","coordinates":[-72.684838655999954,44.46533333800005]},"properties":{"ObjectID":91,"RouteID":1,"Sequence":91,"DirectionPointType":305,"StopID":null,"DisplayText":"Turn right on Main St (VT-100)","ArrivalTime":null,"ArrivalUTCOffset":null,"Name":"Main St","ExitName":null,"AlternateName":"VT-100","IntersectingName":null,"BranchName":null,"TowardName":null,"Level":null,"ShortVoiceInstruction":"Turn right","VoiceInstruction":"Turn right on Main Street (VT  Vermont 100)","Azimuth":272.91085815429688}},{"type":"Feature","id":92,"geometry":{"type":"Point","coordinates":[-72.685870739999984,44.465382246000047]},"properties":{"ObjectID":92,"RouteID":1,"Sequence":92,"DirectionPointType":50,"StopID":12,"DisplayText":"Arrive at Main Street Stowe and Stowe Recreation Path, on the left","ArrivalTime":null,"ArrivalUTCOffset":null,"Name":"Main Street Stowe and Stowe Recreation Path","ExitName":null,"AlternateName":null,"IntersectingName":null,"BranchName":null,"TowardName":null,"Level":null,"ShortVoiceInstruction":"Arrive","VoiceInstruction":"Arrive at Main Street Stowe and Stowe Recreation Path, on the left","Azimuth":null}},{"type":"Feature","id":93,"geometry":{"type":"Point","coordinates":[-72.685870739999984,44.465382246000047]},"properties":{"ObjectID":93,"RouteID":1,"Sequence":93,"DirectionPointType":51,"StopID":12,"DisplayText":"Depart Main Street Stowe and Stowe Recreation Path","ArrivalTime":null,"ArrivalUTCOffset":null,"Name":"Main Street Stowe and Stowe Recreation Path","ExitName":null,"AlternateName":null,"IntersectingName":null,"BranchName":null,"TowardName":null,"Level":null,"ShortVoiceInstruction":"Depart","VoiceInstruction":"Depart Main Street Stowe and Stowe Recreation Path","Azimuth":null}},{"type":"Feature","id":94,"geometry":{"type":"Point","coordinates":[-72.685870739999984,44.465382246000047]},"properties":{"ObjectID":94,"RouteID":1,"Sequence":94,"DirectionPointType":52,"StopID":null,"DisplayText":"Continue west on Main St (VT-100)","ArrivalTime":null,"ArrivalUTCOffset":null,"Name":"Main St","ExitName":null,"AlternateName":"VT-100","IntersectingName":null,"BranchName":null,"TowardName":null,"Level":null,"ShortVoiceInstruction":"Continue on Main Street","VoiceInstruction":"Continue west on Main Street (VT  Vermont 100)","Azimuth":272.18804931640625}},{"type":"Feature","id":95,"geometry":{"type":"Point","coordinates":[-72.687416936999966,44.465437261000034]},"properties":{"ObjectID":95,"RouteID":1,"Sequence":95,"DirectionPointType":305,"StopID":null,"DisplayText":"At the stop sign, turn right on Mountain Rd (VT-108)","ArrivalTime":null,"ArrivalUTCOffset":null,"Name":"Mountain Rd","ExitName":null,"AlternateName":"VT-108","IntersectingName":null,"BranchName":null,"TowardName":null,"Level":null,"ShortVoiceInstruction":"Turn right","VoiceInstruction":"At the stop sign, turn right on Mountain Road (VT  Vermont 1 oh 8)","Azimuth":346.07431030273438}},{"type":"Feature","id":96,"geometry":{"type":"Point","coordinates":[-72.715905867999936,44.474218753000059]},"properties":{"ObjectID":96,"RouteID":1,"Sequence":96,"DirectionPointType":300,"StopID":null,"DisplayText":"Keep right at the fork onto Mountain Rd (VT-108)","ArrivalTime":null,"ArrivalUTCOffset":null,"Name":"Mountain Rd","ExitName":null,"AlternateName":"VT-108","IntersectingName":null,"BranchName":null,"TowardName":null,"Level":null,"ShortVoiceInstruction":"Keep right","VoiceInstruction":"Keep right at the fork onto Mountain Road (VT  Vermont 1 oh 8)","Azimuth":294.160400390625}},{"type":"Feature","id":97,"geometry":{"type":"Point","coordinates":[-72.78613736899996,44.532808221000039]},"properties":{"ObjectID":97,"RouteID":1,"Sequence":97,"DirectionPointType":205,"StopID":null,"DisplayText":"Turn left on Mansfield Base","ArrivalTime":null,"ArrivalUTCOffset":null,"Name":"Mansfield Base","ExitName":null,"AlternateName":null,"IntersectingName":null,"BranchName":null,"TowardName":null,"Level":null,"ShortVoiceInstruction":"Turn left","VoiceInstruction":"Turn left on Mansfield Base","Azimuth":232.78457641601562}},{"type":"Feature","id":98,"geometry":{"type":"Point","coordinates":[-72.787138848999973,44.532011478000072]},"properties":{"ObjectID":98,"RouteID":1,"Sequence":98,"DirectionPointType":305,"StopID":null,"DisplayText":"Turn right","ArrivalTime":null,"ArrivalUTCOffset":null,"Name":null,"ExitName":null,"AlternateName":null,"IntersectingName":null,"BranchName":null,"TowardName":null,"Level":null,"ShortVoiceInstruction":"Turn right","VoiceInstruction":"Turn right","Azimuth":289.1981201171875}},{"type":"Feature","id":99,"geometry":{"type":"Point","coordinates":[-72.787138848999973,44.532011478000072]},"properties":{"ObjectID":99,"RouteID":1,"Sequence":99,"DirectionPointType":1006,"StopID":null,"DisplayText":"Restriction: Through Traffic Prohibited","ArrivalTime":null,"ArrivalUTCOffset":null,"Name":"Through Traffic Prohibited","ExitName":null,"AlternateName":null,"IntersectingName":null,"BranchName":null,"TowardName":null,"Level":null,"ShortVoiceInstruction":null,"VoiceInstruction":"Restriction: Through Traffic Prohibited","Azimuth":null}},{"type":"Feature","id":100,"geometry":{"type":"Point","coordinates":[-72.788076405999959,44.532311700000037]},"properties":{"ObjectID":100,"RouteID":1,"Sequence":100,"DirectionPointType":206,"StopID":null,"DisplayText":"Make a sharp left","ArrivalTime":null,"ArrivalUTCOffset":null,"Name":null,"ExitName":null,"AlternateName":null,"IntersectingName":null,"BranchName":null,"TowardName":null,"Level":null,"ShortVoiceInstruction":"Make a sharp left","VoiceInstruction":"Make a sharp left","Azimuth":170.64952087402344}},{"type":"Feature","id":101,"geometry":{"type":"Point","coordinates":[-72.787581499999987,44.531584208000027]},"properties":{"ObjectID":101,"RouteID":1,"Sequence":101,"DirectionPointType":50,"StopID":13,"DisplayText":"Arrive at Gondola Skyride to Mt Mansfield, on the right","ArrivalTime":null,"ArrivalUTCOffset":null,"Name":"Gondola Skyride to Mt Mansfield","ExitName":null,"AlternateName":null,"IntersectingName":null,"BranchName":null,"TowardName":null,"Level":null,"ShortVoiceInstruction":"Arrive","VoiceInstruction":"Arrive at Gondola Skyride to Mt Mansfield, on the right","Azimuth":null}},{"type":"Feature","id":102,"geometry":{"type":"Point","coordinates":[-72.787581499999987,44.531584208000027]},"properties":{"ObjectID":102,"RouteID":1,"Sequence":102,"DirectionPointType":51,"StopID":13,"DisplayText":"Depart Gondola Skyride to Mt Mansfield","ArrivalTime":null,"ArrivalUTCOffset":null,"Name":"Gondola Skyride to Mt Mansfield","ExitName":null,"AlternateName":null,"IntersectingName":null,"BranchName":null,"TowardName":null,"Level":null,"ShortVoiceInstruction":"Depart","VoiceInstruction":"Depart Gondola Skyride to Mt Mansfield","Azimuth":null}},{"type":"Feature","id":103,"geometry":{"type":"Point","coordinates":[-72.787581499999987,44.531584208000027]},"properties":{"ObjectID":103,"RouteID":1,"Sequence":103,"DirectionPointType":303,"StopID":null,"DisplayText":"Go back west","ArrivalTime":null,"ArrivalUTCOffset":null,"Name":null,"ExitName":null,"AlternateName":null,"IntersectingName":null,"BranchName":null,"TowardName":null,"Level":null,"ShortVoiceInstruction":"Make a U-turn","VoiceInstruction":"Go back west","Azimuth":269.0706787109375}},{"type":"Feature","id":104,"geometry":{"type":"Point","coordinates":[-72.788076405999959,44.532311700000037]},"properties":{"ObjectID":104,"RouteID":1,"Sequence":104,"DirectionPointType":306,"StopID":null,"DisplayText":"Make a sharp right","ArrivalTime":null,"ArrivalUTCOffset":null,"Name":null,"ExitName":null,"AlternateName":null,"IntersectingName":null,"BranchName":null,"TowardName":null,"Level":null,"ShortVoiceInstruction":"Make a sharp right","VoiceInstruction":"Make a sharp right","Azimuth":104.57025146484375}},{"type":"Feature","id":105,"geometry":{"type":"Point","coordinates":[-72.787138848999973,44.532011478000072]},"properties":{"ObjectID":105,"RouteID":1,"Sequence":105,"DirectionPointType":205,"StopID":null,"DisplayText":"At the stop sign, turn left on Mansfield Base","ArrivalTime":null,"ArrivalUTCOffset":null,"Name":"Mansfield Base","ExitName":null,"AlternateName":null,"IntersectingName":null,"BranchName":null,"TowardName":null,"Level":null,"ShortVoiceInstruction":"Turn left","VoiceInstruction":"At the stop sign, turn left on Mansfield Base","Azimuth":47.411060333251953}},{"type":"Feature","id":106,"geometry":{"type":"Point","coordinates":[-72.78613736899996,44.532808221000039]},"properties":{"ObjectID":106,"RouteID":1,"Sequence":106,"DirectionPointType":206,"StopID":null,"DisplayText":"At the stop sign, make a sharp left on Mountain Rd (VT-108)","ArrivalTime":null,"ArrivalUTCOffset":null,"Name":"Mountain Rd","ExitName":null,"AlternateName":"VT-108","IntersectingName":null,"BranchName":null,"TowardName":null,"Level":null,"ShortVoiceInstruction":"Make a sharp left","VoiceInstruction":"At the stop sign, make a sharp left on Mountain Road (VT  Vermont 1 oh 8)","Azimuth":295.46334838867188}},{"type":"Feature","id":107,"geometry":{"type":"Point","coordinates":[-72.792401949999942,44.542831015000047]},"properties":{"ObjectID":107,"RouteID":1,"Sequence":107,"DirectionPointType":52,"StopID":null,"DisplayText":"Continue forward on VT Route 108 S (VT-108)","ArrivalTime":null,"ArrivalUTCOffset":null,"Name":"VT Route 108 S","ExitName":null,"AlternateName":"VT-108","IntersectingName":null,"BranchName":null,"TowardName":null,"Level":null,"ShortVoiceInstruction":"Continue on VT Route 1 oh 8 South","VoiceInstruction":"Continue forward on VT Route 1 oh 8 South (VT  Vermont 1 oh 8)","Azimuth":26.88714599609375}},{"type":"Feature","id":108,"geometry":{"type":"Point","coordinates":[-72.794116237999958,44.55665784200005]},"properties":{"ObjectID":108,"RouteID":1,"Sequence":108,"DirectionPointType":50,"StopID":14,"DisplayText":"Arrive at Smugglers' Notch drive and walk (VT-108), on the right","ArrivalTime":null,"ArrivalUTCOffset":null,"Name":"Smugglers' Notch drive and walk (VT-108)","ExitName":null,"AlternateName":null,"IntersectingName":null,"BranchName":null,"TowardName":null,"Level":null,"ShortVoiceInstruction":"Arrive","VoiceInstruction":"Arrive at Smugglers' Notch drive and walk (VT 1 oh 8), on the right","Azimuth":null}},{"type":"Feature","id":109,"geometry":{"type":"Point","coordinates":[-72.794116237999958,44.55665784200005]},"properties":{"ObjectID":109,"RouteID":1,"Sequence":109,"DirectionPointType":51,"StopID":14,"DisplayText":"Depart Smugglers' Notch drive and walk (VT-108)","ArrivalTime":null,"ArrivalUTCOffset":null,"Name":"Smugglers' Notch drive and walk (VT-108)","ExitName":null,"AlternateName":null,"IntersectingName":null,"BranchName":null,"TowardName":null,"Level":null,"ShortVoiceInstruction":"Depart","VoiceInstruction":"Depart Smugglers' Notch drive and walk (VT 1 oh 8)","Azimuth":null}},{"type":"Feature","id":110,"geometry":{"type":"Point","coordinates":[-72.794116237999958,44.55665784200005]},"properties":{"ObjectID":110,"RouteID":1,"Sequence":110,"DirectionPointType":303,"StopID":null,"DisplayText":"Go back west on VT Route 108 S (VT-108)","ArrivalTime":null,"ArrivalUTCOffset":null,"Name":"VT Route 108 S","ExitName":null,"AlternateName":"VT-108","IntersectingName":null,"BranchName":null,"TowardName":null,"Level":null,"ShortVoiceInstruction":"Make a U-turn","VoiceInstruction":"Go back west on VT Route 1 oh 8 South (VT  Vermont 1 oh 8)","Azimuth":253.66848754882812}},{"type":"Feature","id":111,"geometry":{"type":"Point","coordinates":[-72.792401949999942,44.542831015000047]},"properties":{"ObjectID":111,"RouteID":1,"Sequence":111,"DirectionPointType":52,"StopID":null,"DisplayText":"Continue forward on Mountain Rd (VT-108)","ArrivalTime":null,"ArrivalUTCOffset":null,"Name":"Mountain Rd","ExitName":null,"AlternateName":"VT-108","IntersectingName":null,"BranchName":null,"TowardName":null,"Level":null,"ShortVoiceInstruction":"Continue on Mountain Road","VoiceInstruction":"Continue forward on Mountain Road (VT  Vermont 1 oh 8)","Azimuth":202.29902648925781}},{"type":"Feature","id":112,"geometry":{"type":"Point","coordinates":[-72.718398914999966,44.475754504000065]},"properties":{"ObjectID":112,"RouteID":1,"Sequence":112,"DirectionPointType":305,"StopID":null,"DisplayText":"Turn right","ArrivalTime":null,"ArrivalUTCOffset":null,"Name":null,"ExitName":null,"AlternateName":null,"IntersectingName":null,"BranchName":null,"TowardName":null,"Level":null,"ShortVoiceInstruction":"Turn right","VoiceInstruction":"Turn right","Azimuth":222.97944641113281}},{"type":"Feature","id":113,"geometry":{"type":"Point","coordinates":[-72.718633304999969,44.473941625000066]},"properties":{"ObjectID":113,"RouteID":1,"Sequence":113,"DirectionPointType":306,"StopID":null,"DisplayText":"Make a sharp right on Luce Hill Rd","ArrivalTime":null,"ArrivalUTCOffset":null,"Name":"Luce Hill Rd","ExitName":null,"AlternateName":null,"IntersectingName":null,"BranchName":null,"TowardName":null,"Level":null,"ShortVoiceInstruction":"Make a sharp right","VoiceInstruction":"Make a sharp right on Luce Hill Road","Azimuth":263.9552001953125}},{"type":"Feature","id":114,"geometry":{"type":"Point","coordinates":[-72.737917135999965,44.474744141000031]},"properties":{"ObjectID":114,"RouteID":1,"Sequence":114,"DirectionPointType":204,"StopID":null,"DisplayText":"Bear left on Trapp Hill Rd","ArrivalTime":null,"ArrivalUTCOffset":null,"Name":"Trapp Hill Rd","ExitName":null,"AlternateName":null,"IntersectingName":null,"BranchName":null,"TowardName":null,"Level":null,"ShortVoiceInstruction":"Bear left","VoiceInstruction":"Bear left on Trapp Hill Road","Azimuth":220.162109375}},{"type":"Feature","id":115,"geometry":{"type":"Point","coordinates":[-72.744373490999976,44.465558504000057]},"properties":{"ObjectID":115,"RouteID":1,"Sequence":115,"DirectionPointType":305,"StopID":null,"DisplayText":"Turn right","ArrivalTime":null,"ArrivalUTCOffset":null,"Name":null,"ExitName":null,"AlternateName":null,"IntersectingName":null,"BranchName":null,"TowardName":null,"Level":null,"ShortVoiceInstruction":"Turn right","VoiceInstruction":"Turn right","Azimuth":285.52786254882812}},{"type":"Feature","id":116,"geometry":{"type":"Point","coordinates":[-72.744761899999958,44.465481000000068]},"properties":{"ObjectID":116,"RouteID":1,"Sequence":116,"DirectionPointType":50,"StopID":15,"DisplayText":"Arrive at Von Trapp Family Lodge, on the right","ArrivalTime":null,"ArrivalUTCOffset":null,"Name":"Von Trapp Family Lodge","ExitName":null,"AlternateName":null,"IntersectingName":null,"BranchName":null,"TowardName":null,"Level":null,"ShortVoiceInstruction":"Arrive","VoiceInstruction":"Arrive at Von Trapp Family Lodge, on the right","Azimuth":null}},{"type":"Feature","id":117,"geometry":{"type":"Point","coordinates":[-72.744761899999958,44.465481000000068]},"properties":{"ObjectID":117,"RouteID":1,"Sequence":117,"DirectionPointType":51,"StopID":15,"DisplayText":"Depart Von Trapp Family Lodge","ArrivalTime":null,"ArrivalUTCOffset":null,"Name":"Von Trapp Family Lodge","ExitName":null,"AlternateName":null,"IntersectingName":null,"BranchName":null,"TowardName":null,"Level":null,"ShortVoiceInstruction":"Depart","VoiceInstruction":"Depart Von Trapp Family Lodge","Azimuth":null}},{"type":"Feature","id":118,"geometry":{"type":"Point","coordinates":[-72.744761899999958,44.465481000000068]},"properties":{"ObjectID":118,"RouteID":1,"Sequence":118,"DirectionPointType":52,"StopID":null,"DisplayText":"Go south","ArrivalTime":null,"ArrivalUTCOffset":null,"Name":null,"ExitName":null,"AlternateName":null,"IntersectingName":null,"BranchName":null,"TowardName":null,"Level":null,"ShortVoiceInstruction":"Continue forward","VoiceInstruction":"Go south","Azimuth":167.01345825195312}},{"type":"Feature","id":119,"geometry":{"type":"Point","coordinates":[-72.744543954999983,44.46526405600008]},"properties":{"ObjectID":119,"RouteID":1,"Sequence":119,"DirectionPointType":205,"StopID":null,"DisplayText":"Turn left on Trapp Hill Rd","ArrivalTime":null,"ArrivalUTCOffset":null,"Name":"Trapp Hill Rd","ExitName":null,"AlternateName":null,"IntersectingName":null,"BranchName":null,"TowardName":null,"Level":null,"ShortVoiceInstruction":"Turn left","VoiceInstruction":"Turn left on Trapp Hill Road","Azimuth":30.808364868164062}},{"type":"Feature","id":120,"geometry":{"type":"Point","coordinates":[-72.737917135999965,44.474744141000031]},"properties":{"ObjectID":120,"RouteID":1,"Sequence":120,"DirectionPointType":304,"StopID":null,"DisplayText":"Bear right on Luce Hill Rd","ArrivalTime":null,"ArrivalUTCOffset":null,"Name":"Luce Hill Rd","ExitName":null,"AlternateName":null,"IntersectingName":null,"BranchName":null,"TowardName":null,"Level":null,"ShortVoiceInstruction":"Bear right","VoiceInstruction":"Bear right on Luce Hill Road","Azimuth":81.9595947265625}},{"type":"Feature","id":121,"geometry":{"type":"Point","coordinates":[-72.726432069999987,44.472042144000056]},"properties":{"ObjectID":121,"RouteID":1,"Sequence":121,"DirectionPointType":306,"StopID":null,"DisplayText":"At the stop sign, make a sharp right on Barrows Rd","ArrivalTime":null,"ArrivalUTCOffset":null,"Name":"Barrows Rd","ExitName":null,"AlternateName":null,"IntersectingName":null,"BranchName":null,"TowardName":null,"Level":null,"ShortVoiceInstruction":"Make a sharp right","VoiceInstruction":"At the stop sign, make a sharp right on Barrows Road","Azimuth":232.05320739746094}},{"type":"Feature","id":122,"geometry":{"type":"Point","coordinates":[-72.733293277999962,44.447504773000048]},"properties":{"ObjectID":122,"RouteID":1,"Sequence":122,"DirectionPointType":305,"StopID":null,"DisplayText":"At the stop sign, turn right on Moscow Rd","ArrivalTime":null,"ArrivalUTCOffset":null,"Name":"Moscow Rd","ExitName":null,"AlternateName":null,"IntersectingName":null,"BranchName":null,"TowardName":null,"Level":null,"ShortVoiceInstruction":"Turn right","VoiceInstruction":"At the stop sign, turn right on Moscow Road","Azimuth":289.65689086914062}},{"type":"Feature","id":123,"geometry":{"type":"Point","coordinates":[-72.74064457299994,44.443145781000055]},"properties":{"ObjectID":123,"RouteID":1,"Sequence":123,"DirectionPointType":304,"StopID":null,"DisplayText":"Bear right on Nebraska Valley Rd","ArrivalTime":null,"ArrivalUTCOffset":null,"Name":"Nebraska Valley Rd","ExitName":null,"AlternateName":null,"IntersectingName":null,"BranchName":null,"TowardName":null,"Level":null,"ShortVoiceInstruction":"Bear right","VoiceInstruction":"Bear right on Nebraska Valley Road","Azimuth":242.62583923339844}},{"type":"Feature","id":124,"geometry":{"type":"Point","coordinates":[-72.798858304999953,44.468814758000065]},"properties":{"ObjectID":124,"RouteID":1,"Sequence":124,"DirectionPointType":305,"StopID":null,"DisplayText":"Turn right on Old County Rd","ArrivalTime":null,"ArrivalUTCOffset":null,"Name":"Old County Rd","ExitName":null,"AlternateName":null,"IntersectingName":null,"BranchName":null,"TowardName":null,"Level":null,"ShortVoiceInstruction":"Turn right","VoiceInstruction":"Turn right on Old County Road","Azimuth":13.98197078704834}},{"type":"Feature","id":125,"geometry":{"type":"Point","coordinates":[-72.798858304999953,44.468814758000065]},"properties":{"ObjectID":125,"RouteID":1,"Sequence":125,"DirectionPointType":1006,"StopID":null,"DisplayText":"Restriction: Avoid Unpaved Roads","ArrivalTime":null,"ArrivalUTCOffset":null,"Name":"Avoid Unpaved Roads","ExitName":null,"AlternateName":null,"IntersectingName":null,"BranchName":null,"TowardName":null,"Level":null,"ShortVoiceInstruction":null,"VoiceInstruction":"Restriction: Avoid Unpaved Roads","Azimuth":null}},{"type":"Feature","id":126,"geometry":{"type":"Point","coordinates":[-72.786747996999964,44.470836640000073]},"properties":{"ObjectID":126,"RouteID":1,"Sequence":126,"DirectionPointType":50,"StopID":16,"DisplayText":"Arrive at Cow roads: Luce Hill Rd and Barrows Rd, on the left","ArrivalTime":null,"ArrivalUTCOffset":null,"Name":"Cow roads: Luce Hill Rd and Barrows Rd","ExitName":null,"AlternateName":null,"IntersectingName":null,"BranchName":null,"TowardName":null,"Level":null,"ShortVoiceInstruction":"Arrive","VoiceInstruction":"Arrive at Cow roads: Luce Hill Rd and Barrows Rd, on the left","Azimuth":null}},{"type":"Feature","id":127,"geometry":{"type":"Point","coordinates":[-72.786747996999964,44.470836640000073]},"properties":{"ObjectID":127,"RouteID":1,"Sequence":127,"DirectionPointType":51,"StopID":16,"DisplayText":"Depart Cow roads: Luce Hill Rd and Barrows Rd","ArrivalTime":null,"ArrivalUTCOffset":null,"Name":"Cow roads: Luce Hill Rd and Barrows Rd","ExitName":null,"AlternateName":null,"IntersectingName":null,"BranchName":null,"TowardName":null,"Level":null,"ShortVoiceInstruction":"Depart","VoiceInstruction":"Depart Cow roads: Luce Hill Rd and Barrows Rd","Azimuth":null}},{"type":"Feature","id":128,"geometry":{"type":"Point","coordinates":[-72.786747996999964,44.470836640000073]},"properties":{"ObjectID":128,"RouteID":1,"Sequence":128,"DirectionPointType":303,"StopID":null,"DisplayText":"Go back west on Old County Rd","ArrivalTime":null,"ArrivalUTCOffset":null,"Name":"Old County Rd","ExitName":null,"AlternateName":null,"IntersectingName":null,"BranchName":null,"TowardName":null,"Level":null,"ShortVoiceInstruction":"Make a U-turn","VoiceInstruction":"Go back west on Old County Road","Azimuth":274.35369873046875}},{"type":"Feature","id":129,"geometry":{"type":"Point","coordinates":[-72.798858304999953,44.468814758000065]},"properties":{"ObjectID":129,"RouteID":1,"Sequence":129,"DirectionPointType":205,"StopID":null,"DisplayText":"Turn left on Nebraska Valley Rd","ArrivalTime":null,"ArrivalUTCOffset":null,"Name":"Nebraska Valley Rd","ExitName":null,"AlternateName":null,"IntersectingName":null,"BranchName":null,"TowardName":null,"Level":null,"ShortVoiceInstruction":"Turn left","VoiceInstruction":"Turn left on Nebraska Valley Road","Azimuth":111.66177368164062}},{"type":"Feature","id":130,"geometry":{"type":"Point","coordinates":[-72.74064457299994,44.443145781000055]},"properties":{"ObjectID":130,"RouteID":1,"Sequence":130,"DirectionPointType":204,"StopID":null,"DisplayText":"Bear left on Moscow Rd","ArrivalTime":null,"ArrivalUTCOffset":null,"Name":"Moscow Rd","ExitName":null,"AlternateName":null,"IntersectingName":null,"BranchName":null,"TowardName":null,"Level":null,"ShortVoiceInstruction":"Bear left","VoiceInstruction":"Bear left on Moscow Road","Azimuth":40.732757568359375}},{"type":"Feature","id":131,"geometry":{"type":"Point","coordinates":[-72.71577801899997,44.441621577000035]},"properties":{"ObjectID":131,"RouteID":1,"Sequence":131,"DirectionPointType":300,"StopID":null,"DisplayText":"Keep right at the fork onto Moscow Rd","ArrivalTime":null,"ArrivalUTCOffset":null,"Name":"Moscow Rd","ExitName":null,"AlternateName":null,"IntersectingName":null,"BranchName":null,"TowardName":null,"Level":null,"ShortVoiceInstruction":"Keep right","VoiceInstruction":"Keep right at the fork onto Moscow Road","Azimuth":112.01596069335938}},{"type":"Feature","id":132,"geometry":{"type":"Point","coordinates":[-72.711559014999978,44.43580189000005]},"properties":{"ObjectID":132,"RouteID":1,"Sequence":132,"DirectionPointType":205,"StopID":null,"DisplayText":"At the stop sign, turn left on Waterbury Rd (VT-100)","ArrivalTime":null,"ArrivalUTCOffset":null,"Name":"Waterbury Rd","ExitName":null,"AlternateName":"VT-100","IntersectingName":null,"BranchName":null,"TowardName":null,"Level":null,"ShortVoiceInstruction":"Turn left","VoiceInstruction":"At the stop sign, turn left on Waterbury Road (VT  Vermont 100)","Azimuth":31.923797607421875}},{"type":"Feature","id":133,"geometry":{"type":"Point","coordinates":[-72.697133430999941,44.45208315800005]},"properties":{"ObjectID":133,"RouteID":1,"Sequence":133,"DirectionPointType":52,"StopID":null,"DisplayText":"Continue forward on S Main St (VT-100)","ArrivalTime":null,"ArrivalUTCOffset":null,"Name":"S Main St","ExitName":null,"AlternateName":"VT-100","IntersectingName":null,"BranchName":null,"TowardName":null,"Level":null,"ShortVoiceInstruction":"Continue on South Main Street","VoiceInstruction":"Continue forward on South Main Street (VT  Vermont 100)","Azimuth":18.170394897460938}},{"type":"Feature","id":134,"geometry":{"type":"Point","coordinates":[-72.688406417999943,44.465254466000033]},"properties":{"ObjectID":134,"RouteID":1,"Sequence":134,"DirectionPointType":50,"StopID":17,"DisplayText":"Arrive at Swiss Fondue by Heinz (dinner), on the left","ArrivalTime":null,"ArrivalUTCOffset":null,"Name":"Swiss Fondue by Heinz (dinner)","ExitName":null,"AlternateName":null,"IntersectingName":null,"BranchName":null,"TowardName":null,"Level":null,"ShortVoiceInstruction":"Arrive","VoiceInstruction":"Arrive at Swiss Fondue by Heinz (dinner), on the left","Azimuth":null}},{"type":"Feature","id":135,"geometry":{"type":"Point","coordinates":[-72.688406417999943,44.465254466000033]},"properties":{"ObjectID":135,"RouteID":1,"Sequence":135,"DirectionPointType":51,"StopID":17,"DisplayText":"Depart Swiss Fondue by Heinz (dinner)","ArrivalTime":null,"ArrivalUTCOffset":null,"Name":"Swiss Fondue by Heinz (dinner)","ExitName":null,"AlternateName":null,"IntersectingName":null,"BranchName":null,"TowardName":null,"Level":null,"ShortVoiceInstruction":"Depart","VoiceInstruction":"Depart Swiss Fondue by Heinz (dinner)","Azimuth":null}},{"type":"Feature","id":136,"geometry":{"type":"Point","coordinates":[-72.688406417999943,44.465254466000033]},"properties":{"ObjectID":136,"RouteID":1,"Sequence":136,"DirectionPointType":52,"StopID":null,"DisplayText":"Continue east on S Main St (VT-100)","ArrivalTime":null,"ArrivalUTCOffset":null,"Name":"S Main St","ExitName":null,"AlternateName":"VT-100","IntersectingName":null,"BranchName":null,"TowardName":null,"Level":null,"ShortVoiceInstruction":"Continue on South Main Street","VoiceInstruction":"Continue east on South Main Street (VT  Vermont 100)","Azimuth":79.734405517578125}},{"type":"Feature","id":137,"geometry":{"type":"Point","coordinates":[-72.687416936999966,44.465437261000034]},"properties":{"ObjectID":137,"RouteID":1,"Sequence":137,"DirectionPointType":205,"StopID":null,"DisplayText":"At the stop sign, turn left on Mountain Rd (VT-108)","ArrivalTime":null,"ArrivalUTCOffset":null,"Name":"Mountain Rd","ExitName":null,"AlternateName":"VT-108","IntersectingName":null,"BranchName":null,"TowardName":null,"Level":null,"ShortVoiceInstruction":"Turn left","VoiceInstruction":"At the stop sign, turn left on Mountain Road (VT  Vermont 1 oh 8)","Azimuth":346.07431030273438}},{"type":"Feature","id":138,"geometry":{"type":"Point","coordinates":[-72.712347414999954,44.473964719000037]},"properties":{"ObjectID":138,"RouteID":1,"Sequence":138,"DirectionPointType":207,"StopID":null,"DisplayText":"Turn left, then turn left","ArrivalTime":null,"ArrivalUTCOffset":null,"Name":null,"ExitName":null,"AlternateName":null,"IntersectingName":null,"BranchName":null,"TowardName":null,"Level":null,"ShortVoiceInstruction":"Turn left, then turn left","VoiceInstruction":"Turn left, then turn left","Azimuth":191.04670715332031}},{"type":"Feature","id":139,"geometry":{"type":"Point","coordinates":[-72.711961144999975,44.473682813000039]},"properties":{"ObjectID":139,"RouteID":1,"Sequence":139,"DirectionPointType":50,"StopID":18,"DisplayText":"Arrive at Red Barn Ice Cream Shop, on the right","ArrivalTime":null,"ArrivalUTCOffset":null,"Name":"Red Barn Ice Cream Shop","ExitName":null,"AlternateName":null,"IntersectingName":null,"BranchName":null,"TowardName":null,"Level":null,"ShortVoiceInstruction":"Arrive","VoiceInstruction":"Arrive at Red Barn Ice Cream Shop, on the right","Azimuth":null}},{"type":"Feature","id":140,"geometry":{"type":"Point","coordinates":[-72.711961144999975,44.473682813000039]},"properties":{"ObjectID":140,"RouteID":1,"Sequence":140,"DirectionPointType":51,"StopID":18,"DisplayText":"Depart Red Barn Ice Cream Shop","ArrivalTime":null,"ArrivalUTCOffset":null,"Name":"Red Barn Ice Cream Shop","ExitName":null,"AlternateName":null,"IntersectingName":null,"BranchName":null,"TowardName":null,"Level":null,"ShortVoiceInstruction":"Depart","VoiceInstruction":"Depart Red Barn Ice Cream Shop","Azimuth":null}},{"type":"Feature","id":141,"geometry":{"type":"Point","coordinates":[-72.711961144999975,44.473682813000039]},"properties":{"ObjectID":141,"RouteID":1,"Sequence":141,"DirectionPointType":303,"StopID":null,"DisplayText":"Go back west","ArrivalTime":null,"ArrivalUTCOffset":null,"Name":null,"ExitName":null,"AlternateName":null,"IntersectingName":null,"BranchName":null,"TowardName":null,"Level":null,"ShortVoiceInstruction":"Make a U-turn","VoiceInstruction":"Go back west","Azimuth":285.585693359375}},{"type":"Feature","id":142,"geometry":{"type":"Point","coordinates":[-72.712390030999984,44.473803061000069]},"properties":{"ObjectID":142,"RouteID":1,"Sequence":142,"DirectionPointType":307,"StopID":null,"DisplayText":"Turn right, then turn left on Mountain Rd","ArrivalTime":null,"ArrivalUTCOffset":null,"Name":null,"ExitName":null,"AlternateName":null,"IntersectingName":null,"BranchName":null,"TowardName":null,"Level":null,"ShortVoiceInstruction":"Turn right, then turn left","VoiceInstruction":"Turn right, then turn left on Mountain Road","Azimuth":11.046709060668945}},{"type":"Feature","id":143,"geometry":{"type":"Point","coordinates":[-72.715905867999936,44.474218753000059]},"properties":{"ObjectID":143,"RouteID":1,"Sequence":143,"DirectionPointType":204,"StopID":null,"DisplayText":"Bear left on Luce Hill Rd","ArrivalTime":null,"ArrivalUTCOffset":null,"Name":"Luce Hill Rd","ExitName":null,"AlternateName":null,"IntersectingName":null,"BranchName":null,"TowardName":null,"Level":null,"ShortVoiceInstruction":"Bear left","VoiceInstruction":"Bear left on Luce Hill Road","Azimuth":264.33685302734375}},{"type":"Feature","id":144,"geometry":{"type":"Point","coordinates":[-72.726432069999987,44.472042144000056]},"properties":{"ObjectID":144,"RouteID":1,"Sequence":144,"DirectionPointType":204,"StopID":null,"DisplayText":"Bear left on Barrows Rd","ArrivalTime":null,"ArrivalUTCOffset":null,"Name":"Barrows Rd","ExitName":null,"AlternateName":null,"IntersectingName":null,"BranchName":null,"TowardName":null,"Level":null,"ShortVoiceInstruction":"Bear left","VoiceInstruction":"Bear left on Barrows Road","Azimuth":232.05320739746094}},{"type":"Feature","id":145,"geometry":{"type":"Point","coordinates":[-72.733293277999962,44.447504773000048]},"properties":{"ObjectID":145,"RouteID":1,"Sequence":145,"DirectionPointType":205,"StopID":null,"DisplayText":"At the stop sign, turn left on Moscow Rd","ArrivalTime":null,"ArrivalUTCOffset":null,"Name":"Moscow Rd","ExitName":null,"AlternateName":null,"IntersectingName":null,"BranchName":null,"TowardName":null,"Level":null,"ShortVoiceInstruction":"Turn left","VoiceInstruction":"At the stop sign, turn left on Moscow Road","Azimuth":119.22463989257812}},{"type":"Feature","id":146,"geometry":{"type":"Point","coordinates":[-72.71577801899997,44.441621577000035]},"properties":{"ObjectID":146,"RouteID":1,"Sequence":146,"DirectionPointType":300,"StopID":null,"DisplayText":"Keep right at the fork onto Moscow Rd","ArrivalTime":null,"ArrivalUTCOffset":null,"Name":"Moscow Rd","ExitName":null,"AlternateName":null,"IntersectingName":null,"BranchName":null,"TowardName":null,"Level":null,"ShortVoiceInstruction":"Keep right","VoiceInstruction":"Keep right at the fork onto Moscow Road","Azimuth":112.01596069335938}},{"type":"Feature","id":147,"geometry":{"type":"Point","coordinates":[-72.711559014999978,44.43580189000005]},"properties":{"ObjectID":147,"RouteID":1,"Sequence":147,"DirectionPointType":305,"StopID":null,"DisplayText":"At the stop sign, turn right on Waterbury Rd (VT-100)","ArrivalTime":null,"ArrivalUTCOffset":null,"Name":"Waterbury Rd","ExitName":null,"AlternateName":"VT-100","IntersectingName":null,"BranchName":null,"TowardName":null,"Level":null,"ShortVoiceInstruction":"Turn right","VoiceInstruction":"At the stop sign, turn right on Waterbury Road (VT  Vermont 100)","Azimuth":214.35984802246094}},{"type":"Feature","id":148,"geometry":{"type":"Point","coordinates":[-72.720018330999949,44.425016994000032]},"properties":{"ObjectID":148,"RouteID":1,"Sequence":148,"DirectionPointType":52,"StopID":null,"DisplayText":"Continue forward on Waterbury Stowe Rd (VT-100)","ArrivalTime":null,"ArrivalUTCOffset":null,"Name":"Waterbury Stowe Rd","ExitName":null,"AlternateName":"VT-100","IntersectingName":null,"BranchName":null,"TowardName":null,"Level":null,"ShortVoiceInstruction":"Continue on Waterbury Stowe Road","VoiceInstruction":"Continue forward on Waterbury Stowe Road (VT  Vermont 100)","Azimuth":224.86546325683594}},{"type":"Feature","id":149,"geometry":{"type":"Point","coordinates":[-72.754409605999967,44.342987120000032]},"properties":{"ObjectID":149,"RouteID":1,"Sequence":149,"DirectionPointType":301,"StopID":null,"DisplayText":"Take the exit on the right to merge onto the highway toward Middlesex / Montpelier","ArrivalTime":null,"ArrivalUTCOffset":null,"Name":null,"ExitName":null,"AlternateName":null,"IntersectingName":null,"BranchName":null,"TowardName":"Middlesex / Montpelier","Level":null,"ShortVoiceInstruction":"Take ramp right","VoiceInstruction":"Take the exit on the right to merge onto the highway toward Middlesex, Montpelier","Azimuth":263.9688720703125}},{"type":"Feature","id":150,"geometry":{"type":"Point","coordinates":[-72.583156397999971,43.829376647000061]},"properties":{"ObjectID":150,"RouteID":1,"Sequence":150,"DirectionPointType":301,"StopID":null,"DisplayText":"Take exit 3 on the right to VT-107 toward VT-14 / VT-100 / Bethel / Royalton / MILEPOINT EXIT 22","ArrivalTime":null,"ArrivalUTCOffset":null,"Name":null,"ExitName":"3","AlternateName":null,"IntersectingName":null,"BranchName":"VT-107","TowardName":"VT-14 / VT-100 / Bethel / Royalton / MILEPOINT EXIT 22","Level":null,"ShortVoiceInstruction":"Take ramp right","VoiceInstruction":"Take exit 3 on the right to Vermont 1 oh 7 toward Vermont 14, Vermont 100, Bethel, Royalton, MILEPOINT EXIT 22","Azimuth":132.88385009765625}},{"type":"Feature","id":151,"geometry":{"type":"Point","coordinates":[-72.581387825999968,43.825502629000027]},"properties":{"ObjectID":151,"RouteID":1,"Sequence":151,"DirectionPointType":305,"StopID":null,"DisplayText":"At the stop sign, turn right on VT Route 107 (VT-107)","ArrivalTime":null,"ArrivalUTCOffset":null,"Name":"VT Route 107","ExitName":null,"AlternateName":"VT-107","IntersectingName":null,"BranchName":null,"TowardName":null,"Level":null,"ShortVoiceInstruction":"Turn right","VoiceInstruction":"At the stop sign, turn right on VT Route 1 oh 7 (VT  Vermont 1 oh 7)","Azimuth":250.59779357910156}},{"type":"Feature","id":152,"geometry":{"type":"Point","coordinates":[-72.613903987999947,43.825820172000078]},"properties":{"ObjectID":152,"RouteID":1,"Sequence":152,"DirectionPointType":52,"StopID":null,"DisplayText":"Continue forward on S Main St (VT-107)","ArrivalTime":null,"ArrivalUTCOffset":null,"Name":"S Main St","ExitName":null,"AlternateName":"VT-107","IntersectingName":null,"BranchName":null,"TowardName":null,"Level":null,"ShortVoiceInstruction":"Continue on South Main Street","VoiceInstruction":"Continue forward on South Main Street (VT  Vermont 1 oh 7)","Azimuth":264.767578125}},{"type":"Feature","id":153,"geometry":{"type":"Point","coordinates":[-72.63039645799995,43.828089157000079]},"properties":{"ObjectID":153,"RouteID":1,"Sequence":153,"DirectionPointType":200,"StopID":null,"DisplayText":"Keep left at the fork onto River St (VT-12)","ArrivalTime":null,"ArrivalUTCOffset":null,"Name":"River St","ExitName":null,"AlternateName":"VT-12","IntersectingName":null,"BranchName":null,"TowardName":null,"Level":null,"ShortVoiceInstruction":"Keep left","VoiceInstruction":"Keep left at the fork onto River Street (VT  Vermont 12)","Azimuth":292.62200927734375}},{"type":"Feature","id":154,"geometry":{"type":"Point","coordinates":[-72.662763463999966,43.795555490000027]},"properties":{"ObjectID":154,"RouteID":1,"Sequence":154,"DirectionPointType":52,"StopID":null,"DisplayText":"Continue forward on VT Route 107 (VT-107)","ArrivalTime":null,"ArrivalUTCOffset":null,"Name":"VT Route 107","ExitName":null,"AlternateName":"VT-107","IntersectingName":null,"BranchName":null,"TowardName":null,"Level":null,"ShortVoiceInstruction":"Continue on VT Route 1 oh 7","VoiceInstruction":"Continue forward on VT Route 1 oh 7 (VT  Vermont 1 oh 7)","Azimuth":186.03001403808594}},{"type":"Feature","id":155,"geometry":{"type":"Point","coordinates":[-72.762485375999972,43.774187770000026]},"properties":{"ObjectID":155,"RouteID":1,"Sequence":155,"DirectionPointType":52,"StopID":null,"DisplayText":"Continue forward on VT-100 (VT Route 100)","ArrivalTime":null,"ArrivalUTCOffset":null,"Name":"VT-100","ExitName":null,"AlternateName":"VT Route 100","IntersectingName":null,"BranchName":null,"TowardName":null,"Level":null,"ShortVoiceInstruction":"Continue on VT  Vermont 100","VoiceInstruction":"Continue forward on VT  Vermont 100 (VT Route 100)","Azimuth":308.59024047851562}},{"type":"Feature","id":156,"geometry":{"type":"Point","coordinates":[-72.805612972999938,43.668896468000071]},"properties":{"ObjectID":156,"RouteID":1,"Sequence":156,"DirectionPointType":1000,"StopID":null,"DisplayText":"Keep left at the fork to stay on VT-100 (Route 100)","ArrivalTime":null,"ArrivalUTCOffset":null,"Name":"VT-100","ExitName":null,"AlternateName":"Route 100","IntersectingName":null,"BranchName":null,"TowardName":null,"Level":null,"ShortVoiceInstruction":null,"VoiceInstruction":"Keep left at the fork to stay on VT  Vermont 100 (Route 100)","Azimuth":null}},{"type":"Feature","id":157,"geometry":{"type":"Point","coordinates":[-72.803631318999976,43.668065084000034]},"properties":{"ObjectID":157,"RouteID":1,"Sequence":157,"DirectionPointType":305,"StopID":null,"DisplayText":"Turn right on Killington Rd","ArrivalTime":null,"ArrivalUTCOffset":null,"Name":"Killington Rd","ExitName":null,"AlternateName":null,"IntersectingName":null,"BranchName":null,"TowardName":null,"Level":null,"ShortVoiceInstruction":"Turn right","VoiceInstruction":"Turn right on Killington Road","Azimuth":176.85421752929688}},{"type":"Feature","id":158,"geometry":{"type":"Point","coordinates":[-72.790739917999986,43.654104764000067]},"properties":{"ObjectID":158,"RouteID":1,"Sequence":158,"DirectionPointType":305,"StopID":null,"DisplayText":"Turn right on Bigelow Dr (Biglow Dr)","ArrivalTime":null,"ArrivalUTCOffset":null,"Name":"Bigelow Dr","ExitName":null,"AlternateName":"Biglow Dr","IntersectingName":null,"BranchName":null,"TowardName":null,"Level":null,"ShortVoiceInstruction":"Turn right","VoiceInstruction":"Turn right on Bigelow Drive (Biglow Drive)","Azimuth":282.56185913085938}},{"type":"Feature","id":159,"geometry":{"type":"Point","coordinates":[-72.792742879999935,43.65510357900007]},"properties":{"ObjectID":159,"RouteID":1,"Sequence":159,"DirectionPointType":52,"StopID":null,"DisplayText":"Continue forward on Priscilla Ln","ArrivalTime":null,"ArrivalUTCOffset":null,"Name":"Priscilla Ln","ExitName":null,"AlternateName":null,"IntersectingName":null,"BranchName":null,"TowardName":null,"Level":null,"ShortVoiceInstruction":"Continue on Priscilla Lane","VoiceInstruction":"Continue forward on Priscilla Lane","Azimuth":253.60739135742188}},{"type":"Feature","id":160,"geometry":{"type":"Point","coordinates":[-72.794600574999947,43.655462697000075]},"properties":{"ObjectID":160,"RouteID":1,"Sequence":160,"DirectionPointType":50,"StopID":19,"DisplayText":"Finish at Airbnb, 95 Priscilla Lane, Killington, on the left","ArrivalTime":null,"ArrivalUTCOffset":null,"Name":"Airbnb, 95 Priscilla Lane, Killington","ExitName":null,"AlternateName":null,"IntersectingName":null,"BranchName":null,"TowardName":null,"Level":null,"ShortVoiceInstruction":"Finish","VoiceInstruction":"Finish at Airbnb, 95 Priscilla Lane, Killington, on the left","Azimuth":null}}]}