{"type":"FeatureCollection","features":[{"type":"Feature","id":1,"geometry":{"type":"Point","coordinates":[-72.782207105999987,43.680730019000066]},"properties":{"ObjectID":1,"RouteID":1,"Sequence":1,"DirectionPointType":51,"StopID":2,"DisplayText":"Start at Thundering Brook Falls Trail","ArrivalTime":null,"ArrivalUTCOffset":null,"Name":"Thundering Brook Falls Trail","ExitName":null,"AlternateName":null,"IntersectingName":null,"BranchName":null,"TowardName":null,"Level":null,"ShortVoiceInstruction":"Start","VoiceInstruction":"Start at Thundering Brook Falls Trail","Azimuth":null}},{"type":"Feature","id":2,"geometry":{"type":"Point","coordinates":[-72.782207105999987,43.680730019000066]},"properties":{"ObjectID":2,"RouteID":1,"Sequence":2,"DirectionPointType":52,"StopID":null,"DisplayText":"Go south on River Rd toward Appalachian National Scenic Trl","ArrivalTime":null,"ArrivalUTCOffset":null,"Name":"River Rd","ExitName":null,"AlternateName":null,"IntersectingName":"Appalachian National Scenic Trl","BranchName":null,"TowardName":null,"Level":null,"ShortVoiceInstruction":"Continue on River Road","VoiceInstruction":"Go south on River Road toward Appalachian National Scenic Trail","Azimuth":165.32608032226562}},{"type":"Feature","id":3,"geometry":{"type":"Point","coordinates":[-72.773842593999973,43.659081520000029]},"properties":{"ObjectID":3,"RouteID":1,"Sequence":3,"DirectionPointType":205,"StopID":null,"DisplayText":"At the stop sign, turn left on US Route 4 (US-4 E)","ArrivalTime":null,"ArrivalUTCOffset":null,"Name":"US Route 4","ExitName":null,"AlternateName":"US-4 E","IntersectingName":null,"BranchName":null,"TowardName":null,"Level":null,"ShortVoiceInstruction":"Turn left","VoiceInstruction":"At the stop sign, turn left on US Route 4 (US  U.S. 4)","Azimuth":142.74076843261719}},{"type":"Feature","id":4,"geometry":{"type":"Point","coordinates":[-72.748954731999959,43.600053266000032]},"properties":{"ObjectID":4,"RouteID":1,"Sequence":4,"DirectionPointType":305,"StopID":null,"DisplayText":"Turn right on VT Route 100 (VT-100)","ArrivalTime":null,"ArrivalUTCOffset":null,"Name":"VT Route 100","ExitName":null,"AlternateName":"VT-100","IntersectingName":null,"BranchName":null,"TowardName":null,"Level":null,"ShortVoiceInstruction":"Turn right","VoiceInstruction":"Turn right on VT Route 100 (VT  Vermont 100)","Azimuth":215.13613891601562}},{"type":"Feature","id":5,"geometry":{"type":"Point","coordinates":[-72.738876000999937,43.529824424000026]},"properties":{"ObjectID":5,"RouteID":1,"Sequence":5,"DirectionPointType":206,"StopID":null,"DisplayText":"Make a sharp left on Route 100A (VT-100A)","ArrivalTime":null,"ArrivalUTCOffset":null,"Name":"Route 100A","ExitName":null,"AlternateName":"VT-100A","IntersectingName":null,"BranchName":null,"TowardName":null,"Level":null,"ShortVoiceInstruction":"Make a sharp left","VoiceInstruction":"Make a sharp left on Route 100A (VT  Vermont 100A)","Azimuth":60.898330688476562}},{"type":"Feature","id":6,"geometry":{"type":"Point","coordinates":[-72.723001464999982,43.533092224000029]},"properties":{"ObjectID":6,"RouteID":1,"Sequence":6,"DirectionPointType":205,"StopID":null,"DisplayText":"Turn left on Notch Rd (Coolidge Memorial Rd)","ArrivalTime":null,"ArrivalUTCOffset":null,"Name":"Notch Rd","ExitName":null,"AlternateName":"Coolidge Memorial Rd","IntersectingName":null,"BranchName":null,"TowardName":null,"Level":null,"ShortVoiceInstruction":"Turn left","VoiceInstruction":"Turn left on Notch Road (Coolidge Memorial Road)","Azimuth":7.1400299072265625}},{"type":"Feature","id":7,"geometry":{"type":"Point","coordinates":[-72.721573822999972,43.535667205000038]},"properties":{"ObjectID":7,"RouteID":1,"Sequence":7,"DirectionPointType":205,"StopID":null,"DisplayText":"Turn left on Messer Hill Rd","ArrivalTime":null,"ArrivalUTCOffset":null,"Name":"Messer Hill Rd","ExitName":null,"AlternateName":null,"IntersectingName":null,"BranchName":null,"TowardName":null,"Level":null,"ShortVoiceInstruction":"Turn left","VoiceInstruction":"Turn left on Messer Hill Road","Azimuth":284.065185546875}},{"type":"Feature","id":8,"geometry":{"type":"Point","coordinates":[-72.723536601999967,43.536101339000027]},"properties":{"ObjectID":8,"RouteID":1,"Sequence":8,"DirectionPointType":50,"StopID":4,"DisplayText":"Arrive at Plymouth Cheese (cheese factory), on the right","ArrivalTime":null,"ArrivalUTCOffset":null,"Name":"Plymouth Cheese (cheese factory)","ExitName":null,"AlternateName":null,"IntersectingName":null,"BranchName":null,"TowardName":null,"Level":null,"ShortVoiceInstruction":"Arrive","VoiceInstruction":"Arrive at Plymouth Cheese (cheese factory), on the right","Azimuth":null}},{"type":"Feature","id":9,"geometry":{"type":"Point","coordinates":[-72.723536601999967,43.536101339000027]},"properties":{"ObjectID":9,"RouteID":1,"Sequence":9,"DirectionPointType":51,"StopID":4,"DisplayText":"Depart Plymouth Cheese (cheese factory)","ArrivalTime":null,"ArrivalUTCOffset":null,"Name":"Plymouth Cheese (cheese factory)","ExitName":null,"AlternateName":null,"IntersectingName":null,"BranchName":null,"TowardName":null,"Level":null,"ShortVoiceInstruction":"Depart","VoiceInstruction":"Depart Plymouth Cheese (cheese factory)","Azimuth":null}},{"type":"Feature","id":10,"geometry":{"type":"Point","coordinates":[-72.723536601999967,43.536101339000027]},"properties":{"ObjectID":10,"RouteID":1,"Sequence":10,"DirectionPointType":303,"StopID":null,"DisplayText":"Go back east on Messer Hill Rd","ArrivalTime":null,"ArrivalUTCOffset":null,"Name":"Messer Hill Rd","ExitName":null,"AlternateName":null,"IntersectingName":null,"BranchName":null,"TowardName":null,"Level":null,"ShortVoiceInstruction":"Make a U-turn","VoiceInstruction":"Go back east on Messer Hill Road","Azimuth":94.844024658203125}},{"type":"Feature","id":11,"geometry":{"type":"Point","coordinates":[-72.721573822999972,43.535667205000038]},"properties":{"ObjectID":11,"RouteID":1,"Sequence":11,"DirectionPointType":208,"StopID":null,"DisplayText":"Turn left on Notch Rd, then turn right on Notch Rd","ArrivalTime":null,"ArrivalUTCOffset":null,"Name":"Notch Rd","ExitName":null,"AlternateName":"Coolidge Memorial Rd","IntersectingName":null,"BranchName":null,"TowardName":null,"Level":null,"ShortVoiceInstruction":"Turn left, then turn right","VoiceInstruction":"Turn left on Notch Road, then turn right on Notch Road","Azimuth":36.627288818359375}},{"type":"Feature","id":12,"geometry":{"type":"Point","coordinates":[-72.718356298999936,43.53763019400003]},"properties":{"ObjectID":12,"RouteID":1,"Sequence":12,"DirectionPointType":204,"StopID":null,"DisplayText":"At the stop sign, bear left on Route 100A (VT-100A)","ArrivalTime":null,"ArrivalUTCOffset":null,"Name":"Route 100A","ExitName":null,"AlternateName":"VT-100A","IntersectingName":null,"BranchName":null,"TowardName":null,"Level":null,"ShortVoiceInstruction":"Bear left","VoiceInstruction":"At the stop sign, bear left on Route 100A (VT  Vermont 100A)","Azimuth":20.718540191650391}},{"type":"Feature","id":13,"geometry":{"type":"Point","coordinates":[-72.680427879999968,43.569038029000069]},"properties":{"ObjectID":13,"RouteID":1,"Sequence":13,"DirectionPointType":52,"StopID":null,"DisplayText":"Continue forward on VT Route 100A (VT-100A)","ArrivalTime":null,"ArrivalUTCOffset":null,"Name":"VT Route 100A","ExitName":null,"AlternateName":"VT-100A","IntersectingName":null,"BranchName":null,"TowardName":null,"Level":null,"ShortVoiceInstruction":"Continue on VT Route 100A","VoiceInstruction":"Continue forward on VT Route 100A (VT  Vermont 100A)","Azimuth":19.161577224731445}},{"type":"Feature","id":14,"geometry":{"type":"Point","coordinates":[-72.656243184999937,43.588234913000065]},"properties":{"ObjectID":14,"RouteID":1,"Sequence":14,"DirectionPointType":305,"StopID":null,"DisplayText":"At the stop sign, turn right on US Route 4 (US-4 E)","ArrivalTime":null,"ArrivalUTCOffset":null,"Name":"US Route 4","ExitName":null,"AlternateName":"US-4 E","IntersectingName":null,"BranchName":null,"TowardName":null,"Level":null,"ShortVoiceInstruction":"Turn right","VoiceInstruction":"At the stop sign, turn right on US Route 4 (US  U.S. 4)","Azimuth":99.58294677734375}},{"type":"Feature","id":15,"geometry":{"type":"Point","coordinates":[-72.620701271999963,43.587253418000046]},"properties":{"ObjectID":15,"RouteID":1,"Sequence":15,"DirectionPointType":52,"StopID":null,"DisplayText":"Continue forward on W Woodstock Rd (US-4 E)","ArrivalTime":null,"ArrivalUTCOffset":null,"Name":"W Woodstock Rd","ExitName":null,"AlternateName":"US-4 E","IntersectingName":null,"BranchName":null,"TowardName":null,"Level":null,"ShortVoiceInstruction":"Continue on West Woodstock Road","VoiceInstruction":"Continue forward on West Woodstock Road (US  U.S. 4)","Azimuth":98.310272216796875}},{"type":"Feature","id":16,"geometry":{"type":"Point","coordinates":[-72.598063096999965,43.598040169000058]},"properties":{"ObjectID":16,"RouteID":1,"Sequence":16,"DirectionPointType":50,"StopID":3,"DisplayText":"Arrive at Mountain Creamery, on the left","ArrivalTime":null,"ArrivalUTCOffset":null,"Name":"Mountain Creamery","ExitName":null,"AlternateName":null,"IntersectingName":null,"BranchName":null,"TowardName":null,"Level":null,"ShortVoiceInstruction":"Arrive","VoiceInstruction":"Arrive at Mountain Creamery, on the left","Azimuth":null}},{"type":"Feature","id":17,"geometry":{"type":"Point","coordinates":[-72.598063096999965,43.598040169000058]},"properties":{"ObjectID":17,"RouteID":1,"Sequence":17,"DirectionPointType":51,"StopID":3,"DisplayText":"Depart Mountain Creamery","ArrivalTime":null,"ArrivalUTCOffset":null,"Name":"Mountain Creamery","ExitName":null,"AlternateName":null,"IntersectingName":null,"BranchName":null,"TowardName":null,"Level":null,"ShortVoiceInstruction":"Depart","VoiceInstruction":"Depart Mountain Creamery","Azimuth":null}},{"type":"Feature","id":18,"geometry":{"type":"Point","coordinates":[-72.598063096999965,43.598040169000058]},"properties":{"ObjectID":18,"RouteID":1,"Sequence":18,"DirectionPointType":52,"StopID":null,"DisplayText":"Continue northeast on W Woodstock Rd (US-4 E)","ArrivalTime":null,"ArrivalUTCOffset":null,"Name":"W Woodstock Rd","ExitName":null,"AlternateName":"US-4 E","IntersectingName":null,"BranchName":null,"TowardName":null,"Level":null,"ShortVoiceInstruction":"Continue on West Woodstock Road","VoiceInstruction":"Continue northeast on West Woodstock Road (US  U.S. 4)","Azimuth":54.065673828125}},{"type":"Feature","id":19,"geometry":{"type":"Point","coordinates":[-72.527712719999954,43.621698114000026]},"properties":{"ObjectID":19,"RouteID":1,"Sequence":19,"DirectionPointType":52,"StopID":null,"DisplayText":"Continue forward on River St (US-4 E)","ArrivalTime":null,"ArrivalUTCOffset":null,"Name":"River St","ExitName":null,"AlternateName":"US-4 E","IntersectingName":null,"BranchName":null,"TowardName":null,"Level":null,"ShortVoiceInstruction":"Continue on River Street","VoiceInstruction":"Continue forward on River Street (US  U.S. 4)","Azimuth":66.453262329101562}},{"type":"Feature","id":20,"geometry":{"type":"Point","coordinates":[-72.526199843999962,43.622310104000064]},"properties":{"ObjectID":20,"RouteID":1,"Sequence":20,"DirectionPointType":52,"StopID":null,"DisplayText":"At the traffic light, continue forward on Church St (US-4 E)","ArrivalTime":null,"ArrivalUTCOffset":null,"Name":"Church St","ExitName":null,"AlternateName":"US-4 E","IntersectingName":null,"BranchName":null,"TowardName":null,"Level":null,"ShortVoiceInstruction":"Continue on Church Street","VoiceInstruction":"At the traffic light, continue forward on Church Street (US  U.S. 4)","Azimuth":87.387176513671875}},{"type":"Feature","id":21,"geometry":{"type":"Point","coordinates":[-72.521682526999939,43.62284126600008]},"properties":{"ObjectID":21,"RouteID":1,"Sequence":21,"DirectionPointType":52,"StopID":null,"DisplayText":"Continue forward on The Grn (US-4 E)","ArrivalTime":null,"ArrivalUTCOffset":null,"Name":"The Grn","ExitName":null,"AlternateName":"US-4 E","IntersectingName":null,"BranchName":null,"TowardName":null,"Level":null,"ShortVoiceInstruction":"Continue on The Green","VoiceInstruction":"Continue forward on The Green (US  U.S. 4)","Azimuth":64.480575561523438}},{"type":"Feature","id":22,"geometry":{"type":"Point","coordinates":[-72.518614160999959,43.62500632900003]},"properties":{"ObjectID":22,"RouteID":1,"Sequence":22,"DirectionPointType":304,"StopID":null,"DisplayText":"Bear right on Central St (US-4 E)","ArrivalTime":null,"ArrivalUTCOffset":null,"Name":"Central St","ExitName":null,"AlternateName":"US-4 E","IntersectingName":null,"BranchName":null,"TowardName":null,"Level":null,"ShortVoiceInstruction":"Bear right","VoiceInstruction":"Bear right on Central Street (US  U.S. 4)","Azimuth":65.773490905761719}},{"type":"Feature","id":23,"geometry":{"type":"Point","coordinates":[-72.513990302999957,43.626824981000027]},"properties":{"ObjectID":23,"RouteID":1,"Sequence":23,"DirectionPointType":52,"StopID":null,"DisplayText":"Continue forward on Pleasant St (US-4 E)","ArrivalTime":null,"ArrivalUTCOffset":null,"Name":"Pleasant St","ExitName":null,"AlternateName":"US-4 E","IntersectingName":null,"BranchName":null,"TowardName":null,"Level":null,"ShortVoiceInstruction":"Continue on Pleasant Street","VoiceInstruction":"Continue forward on Pleasant Street (US  U.S. 4)","Azimuth":87.35455322265625}},{"type":"Feature","id":24,"geometry":{"type":"Point","coordinates":[-72.507022553999946,43.626547853000034]},"properties":{"ObjectID":24,"RouteID":1,"Sequence":24,"DirectionPointType":204,"StopID":null,"DisplayText":"Bear left on Woodstock Rd (US-4 E)","ArrivalTime":null,"ArrivalUTCOffset":null,"Name":"Woodstock Rd","ExitName":null,"AlternateName":"US-4 E","IntersectingName":null,"BranchName":null,"TowardName":null,"Level":null,"ShortVoiceInstruction":"Bear left","VoiceInstruction":"Bear left on Woodstock Road (US  U.S. 4)","Azimuth":37.776039123535156}},{"type":"Feature","id":25,"geometry":{"type":"Point","coordinates":[-72.468902360999948,43.630837563000057]},"properties":{"ObjectID":25,"RouteID":1,"Sequence":25,"DirectionPointType":204,"StopID":null,"DisplayText":"Bear left on Covered Bridge Rd","ArrivalTime":null,"ArrivalUTCOffset":null,"Name":"Covered Bridge Rd","ExitName":null,"AlternateName":null,"IntersectingName":null,"BranchName":null,"TowardName":null,"Level":null,"ShortVoiceInstruction":"Bear left","VoiceInstruction":"Bear left on Covered Bridge Road","Azimuth":110.44998168945312}},{"type":"Feature","id":26,"geometry":{"type":"Point","coordinates":[-72.468433582999978,43.630554661000076]},"properties":{"ObjectID":26,"RouteID":1,"Sequence":26,"DirectionPointType":205,"StopID":null,"DisplayText":"Turn left to stay on Covered Bridge Rd","ArrivalTime":null,"ArrivalUTCOffset":null,"Name":"Covered Bridge Rd","ExitName":null,"AlternateName":null,"IntersectingName":null,"BranchName":null,"TowardName":null,"Level":null,"ShortVoiceInstruction":"Turn left","VoiceInstruction":"Turn left to stay on Covered Bridge Road","Azimuth":61.839038848876953}},{"type":"Feature","id":27,"geometry":{"type":"Point","coordinates":[-72.466025766999962,43.631247481000059]},"properties":{"ObjectID":27,"RouteID":1,"Sequence":27,"DirectionPointType":52,"StopID":null,"DisplayText":"Continue forward on Quechee Main St (River Rd)","ArrivalTime":null,"ArrivalUTCOffset":null,"Name":"Quechee Main St","ExitName":null,"AlternateName":"River Rd","IntersectingName":null,"BranchName":null,"TowardName":null,"Level":null,"ShortVoiceInstruction":"Continue on Quechee Main Street","VoiceInstruction":"Continue forward on Quechee Main Street (River Road)","Azimuth":91.699951171875}},{"type":"Feature","id":28,"geometry":{"type":"Point","coordinates":[-72.464640740999982,43.63116087800006]},"properties":{"ObjectID":28,"RouteID":1,"Sequence":28,"DirectionPointType":205,"StopID":null,"DisplayText":"Turn left on Hillside Rd","ArrivalTime":null,"ArrivalUTCOffset":null,"Name":"Hillside Rd","ExitName":null,"AlternateName":null,"IntersectingName":null,"BranchName":null,"TowardName":null,"Level":null,"ShortVoiceInstruction":"Turn left","VoiceInstruction":"Turn left on Hillside Road","Azimuth":22.145172119140625}},{"type":"Feature","id":29,"geometry":{"type":"Point","coordinates":[-72.465940534999959,43.652303432000053]},"properties":{"ObjectID":29,"RouteID":1,"Sequence":29,"DirectionPointType":205,"StopID":null,"DisplayText":"Turn left on Spaulding Ln","ArrivalTime":null,"ArrivalUTCOffset":null,"Name":"Spaulding Ln","ExitName":null,"AlternateName":null,"IntersectingName":null,"BranchName":null,"TowardName":null,"Level":null,"ShortVoiceInstruction":"Turn left","VoiceInstruction":"Turn left on Spaulding Lane","Azimuth":301.54916381835938}},{"type":"Feature","id":30,"geometry":{"type":"Point","coordinates":[-72.466281463999962,43.652505504000032]},"properties":{"ObjectID":30,"RouteID":1,"Sequence":30,"DirectionPointType":1006,"StopID":null,"DisplayText":"Restriction: Avoid Unpaved Roads","ArrivalTime":null,"ArrivalUTCOffset":null,"Name":"Avoid Unpaved Roads","ExitName":null,"AlternateName":null,"IntersectingName":null,"BranchName":null,"TowardName":null,"Level":null,"ShortVoiceInstruction":null,"VoiceInstruction":"Restriction: Avoid Unpaved Roads","Azimuth":null}},{"type":"Feature","id":31,"geometry":{"type":"Point","coordinates":[-72.470734857999958,43.656414163000079]},"properties":{"ObjectID":31,"RouteID":1,"Sequence":31,"DirectionPointType":305,"StopID":null,"DisplayText":"Turn right on High Pastures Rd","ArrivalTime":null,"ArrivalUTCOffset":null,"Name":"High Pastures Rd","ExitName":null,"AlternateName":null,"IntersectingName":null,"BranchName":null,"TowardName":null,"Level":null,"ShortVoiceInstruction":"Turn right","VoiceInstruction":"Turn right on High Pastures Road","Azimuth":356.29412841796875}},{"type":"Feature","id":32,"geometry":{"type":"Point","coordinates":[-72.471885494999981,43.658169307000037]},"properties":{"ObjectID":32,"RouteID":1,"Sequence":32,"DirectionPointType":305,"StopID":null,"DisplayText":"Turn right on Sugarbush Farm Rd","ArrivalTime":null,"ArrivalUTCOffset":null,"Name":"Sugarbush Farm Rd","ExitName":null,"AlternateName":null,"IntersectingName":null,"BranchName":null,"TowardName":null,"Level":null,"ShortVoiceInstruction":"Turn right","VoiceInstruction":"Turn right on Sugarbush Farm Road","Azimuth":355.21652221679688}},{"type":"Feature","id":33,"geometry":{"type":"Point","coordinates":[-72.467193387999941,43.665141517000052]},"properties":{"ObjectID":33,"RouteID":1,"Sequence":33,"DirectionPointType":50,"StopID":5,"DisplayText":"Arrive at Sugarbush Farm, on the left","ArrivalTime":null,"ArrivalUTCOffset":null,"Name":"Sugarbush Farm","ExitName":null,"AlternateName":null,"IntersectingName":null,"BranchName":null,"TowardName":null,"Level":null,"ShortVoiceInstruction":"Arrive","VoiceInstruction":"Arrive at Sugarbush Farm, on the left","Azimuth":null}},{"type":"Feature","id":34,"geometry":{"type":"Point","coordinates":[-72.467193387999941,43.665141517000052]},"properties":{"ObjectID":34,"RouteID":1,"Sequence":34,"DirectionPointType":51,"StopID":5,"DisplayText":"Depart Sugarbush Farm","ArrivalTime":null,"ArrivalUTCOffset":null,"Name":"Sugarbush Farm","ExitName":null,"AlternateName":null,"IntersectingName":null,"BranchName":null,"TowardName":null,"Level":null,"ShortVoiceInstruction":"Depart","VoiceInstruction":"Depart Sugarbush Farm","Azimuth":null}},{"type":"Feature","id":35,"geometry":{"type":"Point","coordinates":[-72.467193387999941,43.665141517000052]},"properties":{"ObjectID":35,"RouteID":1,"Sequence":35,"DirectionPointType":303,"StopID":null,"DisplayText":"Go back southeast on Sugarbush Farm Rd","ArrivalTime":null,"ArrivalUTCOffset":null,"Name":"Sugarbush Farm Rd","ExitName":null,"AlternateName":null,"IntersectingName":null,"BranchName":null,"TowardName":null,"Level":null,"ShortVoiceInstruction":"Make a U-turn","VoiceInstruction":"Go back southeast on Sugarbush Farm Road","Azimuth":152.5147705078125}},{"type":"Feature","id":36,"geometry":{"type":"Point","coordinates":[-72.471885494999981,43.658169307000037]},"properties":{"ObjectID":36,"RouteID":1,"Sequence":36,"DirectionPointType":205,"StopID":null,"DisplayText":"Turn left on High Pastures Rd","ArrivalTime":null,"ArrivalUTCOffset":null,"Name":"High Pastures Rd","ExitName":null,"AlternateName":null,"IntersectingName":null,"BranchName":null,"TowardName":null,"Level":null,"ShortVoiceInstruction":"Turn left","VoiceInstruction":"Turn left on High Pastures Road","Azimuth":100.62469482421875}},{"type":"Feature","id":37,"geometry":{"type":"Point","coordinates":[-72.470734857999958,43.656414163000079]},"properties":{"ObjectID":37,"RouteID":1,"Sequence":37,"DirectionPointType":205,"StopID":null,"DisplayText":"Turn left on Spaulding Ln","ArrivalTime":null,"ArrivalUTCOffset":null,"Name":"Spaulding Ln","ExitName":null,"AlternateName":null,"IntersectingName":null,"BranchName":null,"TowardName":null,"Level":null,"ShortVoiceInstruction":"Turn left","VoiceInstruction":"Turn left on Spaulding Lane","Azimuth":133.78555297851562}},{"type":"Feature","id":38,"geometry":{"type":"Point","coordinates":[-72.465940534999959,43.652303432000053]},"properties":{"ObjectID":38,"RouteID":1,"Sequence":38,"DirectionPointType":305,"StopID":null,"DisplayText":"Turn right on Hillside Rd","ArrivalTime":null,"ArrivalUTCOffset":null,"Name":"Hillside Rd","ExitName":null,"AlternateName":null,"IntersectingName":null,"BranchName":null,"TowardName":null,"Level":null,"ShortVoiceInstruction":"Turn right","VoiceInstruction":"Turn right on Hillside Road","Azimuth":223.37205505371094}},{"type":"Feature","id":39,"geometry":{"type":"Point","coordinates":[-72.464640740999982,43.63116087800006]},"properties":{"ObjectID":39,"RouteID":1,"Sequence":39,"DirectionPointType":305,"StopID":null,"DisplayText":"At the stop sign, turn right on Quechee Main St (River Rd)","ArrivalTime":null,"ArrivalUTCOffset":null,"Name":"Quechee Main St","ExitName":null,"AlternateName":"River Rd","IntersectingName":null,"BranchName":null,"TowardName":null,"Level":null,"ShortVoiceInstruction":"Turn right","VoiceInstruction":"At the stop sign, turn right on Quechee Main Street (River Road)","Azimuth":276.00900268554688}},{"type":"Feature","id":40,"geometry":{"type":"Point","coordinates":[-72.466025766999962,43.631247481000059]},"properties":{"ObjectID":40,"RouteID":1,"Sequence":40,"DirectionPointType":200,"StopID":null,"DisplayText":"Keep left at the fork onto Covered Bridge Rd","ArrivalTime":null,"ArrivalUTCOffset":null,"Name":"Covered Bridge Rd","ExitName":null,"AlternateName":null,"IntersectingName":null,"BranchName":null,"TowardName":null,"Level":null,"ShortVoiceInstruction":"Keep left","VoiceInstruction":"Keep left at the fork onto Covered Bridge Road","Azimuth":271.22866821289062}},{"type":"Feature","id":41,"geometry":{"type":"Point","coordinates":[-72.468433582999978,43.630554661000076]},"properties":{"ObjectID":41,"RouteID":1,"Sequence":41,"DirectionPointType":305,"StopID":null,"DisplayText":"Turn right to stay on Covered Bridge Rd","ArrivalTime":null,"ArrivalUTCOffset":null,"Name":"Covered Bridge Rd","ExitName":null,"AlternateName":null,"IntersectingName":null,"BranchName":null,"TowardName":null,"Level":null,"ShortVoiceInstruction":"Turn right","VoiceInstruction":"Turn right to stay on Covered Bridge Road","Azimuth":304.69570922851562}},{"type":"Feature","id":42,"geometry":{"type":"Point","coordinates":[-72.468902360999948,43.630837563000057]},"properties":{"ObjectID":42,"RouteID":1,"Sequence":42,"DirectionPointType":304,"StopID":null,"DisplayText":"At the stop sign, bear right on E Woodstock Rd (US-4 E)","ArrivalTime":null,"ArrivalUTCOffset":null,"Name":"E Woodstock Rd","ExitName":null,"AlternateName":"US-4 E","IntersectingName":null,"BranchName":null,"TowardName":null,"Level":null,"ShortVoiceInstruction":"Bear right","VoiceInstruction":"At the stop sign, bear right on East Woodstock Road (US  U.S. 4)","Azimuth":324.73788452148438}},{"type":"Feature","id":43,"geometry":{"type":"Point","coordinates":[-72.507022553999946,43.626547853000034]},"properties":{"ObjectID":43,"RouteID":1,"Sequence":43,"DirectionPointType":304,"StopID":null,"DisplayText":"Bear right on Pleasant St (US-4 E)","ArrivalTime":null,"ArrivalUTCOffset":null,"Name":"Pleasant St","ExitName":null,"AlternateName":"US-4 E","IntersectingName":null,"BranchName":null,"TowardName":null,"Level":null,"ShortVoiceInstruction":"Bear right","VoiceInstruction":"Bear right on Pleasant Street (US  U.S. 4)","Azimuth":257.15463256835938}},{"type":"Feature","id":44,"geometry":{"type":"Point","coordinates":[-72.513990302999957,43.626824981000027]},"properties":{"ObjectID":44,"RouteID":1,"Sequence":44,"DirectionPointType":52,"StopID":null,"DisplayText":"Continue forward on Central St (US-4 E)","ArrivalTime":null,"ArrivalUTCOffset":null,"Name":"Central St","ExitName":null,"AlternateName":"US-4 E","IntersectingName":null,"BranchName":null,"TowardName":null,"Level":null,"ShortVoiceInstruction":"Continue on Central Street","VoiceInstruction":"Continue forward on Central Street (US  U.S. 4)","Azimuth":258.83953857421875}},{"type":"Feature","id":45,"geometry":{"type":"Point","coordinates":[-72.515845274999947,43.62612301200005]},"properties":{"ObjectID":45,"RouteID":1,"Sequence":45,"DirectionPointType":50,"StopID":1,"DisplayText":"Arrive at Dreamscape Coffee, on the left","ArrivalTime":null,"ArrivalUTCOffset":null,"Name":"Dreamscape Coffee","ExitName":null,"AlternateName":null,"IntersectingName":null,"BranchName":null,"TowardName":null,"Level":null,"ShortVoiceInstruction":"Arrive","VoiceInstruction":"Arrive at Dreamscape Coffee, on the left","Azimuth":null}},{"type":"Feature","id":46,"geometry":{"type":"Point","coordinates":[-72.515845274999947,43.62612301200005]},"properties":{"ObjectID":46,"RouteID":1,"Sequence":46,"DirectionPointType":51,"StopID":1,"DisplayText":"Depart Dreamscape Coffee","ArrivalTime":null,"ArrivalUTCOffset":null,"Name":"Dreamscape Coffee","ExitName":null,"AlternateName":null,"IntersectingName":null,"BranchName":null,"TowardName":null,"Level":null,"ShortVoiceInstruction":"Depart","VoiceInstruction":"Depart Dreamscape Coffee","Azimuth":null}},{"type":"Feature","id":47,"geometry":{"type":"Point","coordinates":[-72.515845274999947,43.62612301200005]},"properties":{"ObjectID":47,"RouteID":1,"Sequence":47,"DirectionPointType":52,"StopID":null,"DisplayText":"Continue west on Central St (US-4 E)","ArrivalTime":null,"ArrivalUTCOffset":null,"Name":"Central St","ExitName":null,"AlternateName":"US-4 E","IntersectingName":null,"BranchName":null,"TowardName":null,"Level":null,"ShortVoiceInstruction":"Continue on Central Street","VoiceInstruction":"Continue west on Central Street (US  U.S. 4)","Azimuth":248.22755432128906}},{"type":"Feature","id":48,"geometry":{"type":"Point","coordinates":[-72.518422387999976,43.62509293100004]},"properties":{"ObjectID":48,"RouteID":1,"Sequence":48,"DirectionPointType":305,"StopID":null,"DisplayText":"Turn right on Elm St (VT Route 12)","ArrivalTime":null,"ArrivalUTCOffset":null,"Name":"Elm St","ExitName":null,"AlternateName":"VT Route 12","IntersectingName":null,"BranchName":null,"TowardName":null,"Level":null,"ShortVoiceInstruction":"Turn right","VoiceInstruction":"Turn right on Elm Street (VT Route 12)","Azimuth":342.8525390625}},{"type":"Feature","id":49,"geometry":{"type":"Point","coordinates":[-72.518443695999963,43.625797298000066]},"properties":{"ObjectID":49,"RouteID":1,"Sequence":49,"DirectionPointType":305,"StopID":null,"DisplayText":"Turn right","ArrivalTime":null,"ArrivalUTCOffset":null,"Name":null,"ExitName":null,"AlternateName":null,"IntersectingName":null,"BranchName":null,"TowardName":null,"Level":null,"ShortVoiceInstruction":"Turn right","VoiceInstruction":"Turn right","Azimuth":92.485145568847656}},{"type":"Feature","id":50,"geometry":{"type":"Point","coordinates":[-72.517936199999951,43.625588400000026]},"properties":{"ObjectID":50,"RouteID":1,"Sequence":50,"DirectionPointType":50,"StopID":6,"DisplayText":"Arrive at Woodstock Scoops, on the left","ArrivalTime":null,"ArrivalUTCOffset":null,"Name":"Woodstock Scoops","ExitName":null,"AlternateName":null,"IntersectingName":null,"BranchName":null,"TowardName":null,"Level":null,"ShortVoiceInstruction":"Arrive","VoiceInstruction":"Arrive at Woodstock Scoops, on the left","Azimuth":null}},{"type":"Feature","id":51,"geometry":{"type":"Point","coordinates":[-72.517936199999951,43.625588400000026]},"properties":{"ObjectID":51,"RouteID":1,"Sequence":51,"DirectionPointType":51,"StopID":6,"DisplayText":"Depart Woodstock Scoops","ArrivalTime":null,"ArrivalUTCOffset":null,"Name":"Woodstock Scoops","ExitName":null,"AlternateName":null,"IntersectingName":null,"BranchName":null,"TowardName":null,"Level":null,"ShortVoiceInstruction":"Depart","VoiceInstruction":"Depart Woodstock Scoops","Azimuth":null}},{"type":"Feature","id":52,"geometry":{"type":"Point","coordinates":[-72.517936199999951,43.625588400000026]},"properties":{"ObjectID":52,"RouteID":1,"Sequence":52,"DirectionPointType":303,"StopID":null,"DisplayText":"Go back northwest","ArrivalTime":null,"ArrivalUTCOffset":null,"Name":null,"ExitName":null,"AlternateName":null,"IntersectingName":null,"BranchName":null,"TowardName":null,"Level":null,"ShortVoiceInstruction":"Make a U-turn","VoiceInstruction":"Go back northwest","Azimuth":331.08480834960938}},{"type":"Feature","id":53,"geometry":{"type":"Point","coordinates":[-72.518443695999963,43.625797298000066]},"properties":{"ObjectID":53,"RouteID":1,"Sequence":53,"DirectionPointType":205,"StopID":null,"DisplayText":"Turn left on Elm St (VT Route 12)","ArrivalTime":null,"ArrivalUTCOffset":null,"Name":"Elm St","ExitName":null,"AlternateName":"VT Route 12","IntersectingName":null,"BranchName":null,"TowardName":null,"Level":null,"ShortVoiceInstruction":"Turn left","VoiceInstruction":"Turn left on Elm Street (VT Route 12)","Azimuth":184.29336547851562}},{"type":"Feature","id":54,"geometry":{"type":"Point","coordinates":[-72.518422387999976,43.62509293100004]},"properties":{"ObjectID":54,"RouteID":1,"Sequence":54,"DirectionPointType":305,"StopID":null,"DisplayText":"At the stop sign, turn right on Central St (US-4 E)","ArrivalTime":null,"ArrivalUTCOffset":null,"Name":"Central St","ExitName":null,"AlternateName":"US-4 E","IntersectingName":null,"BranchName":null,"TowardName":null,"Level":null,"ShortVoiceInstruction":"Turn right","VoiceInstruction":"At the stop sign, turn right on Central Street (US  U.S. 4)","Azimuth":245.77349853515625}},{"type":"Feature","id":55,"geometry":{"type":"Point","coordinates":[-72.518614160999959,43.62500632900003]},"properties":{"ObjectID":55,"RouteID":1,"Sequence":55,"DirectionPointType":52,"StopID":null,"DisplayText":"Continue forward on The Grn (US-4 W)","ArrivalTime":null,"ArrivalUTCOffset":null,"Name":"The Grn","ExitName":null,"AlternateName":"US-4 W","IntersectingName":null,"BranchName":null,"TowardName":null,"Level":null,"ShortVoiceInstruction":"Continue on The Green","VoiceInstruction":"Continue forward on The Green (US  U.S. 4)","Azimuth":253.24722290039062}},{"type":"Feature","id":56,"geometry":{"type":"Point","coordinates":[-72.520808894999959,43.623482125000066]},"properties":{"ObjectID":56,"RouteID":1,"Sequence":56,"DirectionPointType":303,"StopID":null,"DisplayText":"Make a U-turn and go back on The Grn (US-4 E)","ArrivalTime":null,"ArrivalUTCOffset":null,"Name":"The Grn","ExitName":null,"AlternateName":"US-4 E","IntersectingName":null,"BranchName":null,"TowardName":null,"Level":null,"ShortVoiceInstruction":"Make a U-turn","VoiceInstruction":"Make a U-turn and go back on The Green (US  U.S. 4)","Azimuth":171.04461669921875}},{"type":"Feature","id":57,"geometry":{"type":"Point","coordinates":[-72.519871337999973,43.623799667000071]},"properties":{"ObjectID":57,"RouteID":1,"Sequence":57,"DirectionPointType":305,"StopID":null,"DisplayText":"Turn right on South St (VT-106)","ArrivalTime":null,"ArrivalUTCOffset":null,"Name":"South St","ExitName":null,"AlternateName":"VT-106","IntersectingName":null,"BranchName":null,"TowardName":null,"Level":null,"ShortVoiceInstruction":"Turn right","VoiceInstruction":"Turn right on South Street (VT  Vermont 1 oh 6)","Azimuth":142.3538818359375}},{"type":"Feature","id":58,"geometry":{"type":"Point","coordinates":[-72.519594332999986,43.623210770000071]},"properties":{"ObjectID":58,"RouteID":1,"Sequence":58,"DirectionPointType":205,"StopID":null,"DisplayText":"Turn left","ArrivalTime":null,"ArrivalUTCOffset":null,"Name":null,"ExitName":null,"AlternateName":null,"IntersectingName":null,"BranchName":null,"TowardName":null,"Level":null,"ShortVoiceInstruction":"Turn left","VoiceInstruction":"Turn left","Azimuth":73.296073913574219}},{"type":"Feature","id":59,"geometry":{"type":"Point","coordinates":[-72.51901053399996,43.623422290000065]},"properties":{"ObjectID":59,"RouteID":1,"Sequence":59,"DirectionPointType":50,"StopID":9,"DisplayText":"Arrive at Woodstock Inn & Resort (the Green), on the right","ArrivalTime":null,"ArrivalUTCOffset":null,"Name":"Woodstock Inn & Resort (the Green)","ExitName":null,"AlternateName":null,"IntersectingName":null,"BranchName":null,"TowardName":null,"Level":null,"ShortVoiceInstruction":"Arrive","VoiceInstruction":"Arrive at Woodstock Inn & Resort (the Green), on the right","Azimuth":null}},{"type":"Feature","id":60,"geometry":{"type":"Point","coordinates":[-72.51901053399996,43.623422290000065]},"properties":{"ObjectID":60,"RouteID":1,"Sequence":60,"DirectionPointType":51,"StopID":9,"DisplayText":"Depart Woodstock Inn & Resort (the Green)","ArrivalTime":null,"ArrivalUTCOffset":null,"Name":"Woodstock Inn & Resort (the Green)","ExitName":null,"AlternateName":null,"IntersectingName":null,"BranchName":null,"TowardName":null,"Level":null,"ShortVoiceInstruction":"Depart","VoiceInstruction":"Depart Woodstock Inn & Resort (the Green)","Azimuth":null}},{"type":"Feature","id":61,"geometry":{"type":"Point","coordinates":[-72.51901053399996,43.623422290000065]},"properties":{"ObjectID":61,"RouteID":1,"Sequence":61,"DirectionPointType":52,"StopID":null,"DisplayText":"Continue northeast","ArrivalTime":null,"ArrivalUTCOffset":null,"Name":null,"ExitName":null,"AlternateName":null,"IntersectingName":null,"BranchName":null,"TowardName":null,"Level":null,"ShortVoiceInstruction":"Continue forward","VoiceInstruction":"Continue northeast","Azimuth":62.850318908691406}},{"type":"Feature","id":62,"geometry":{"type":"Point","coordinates":[-72.518635468999946,43.623626462000061]},"properties":{"ObjectID":62,"RouteID":1,"Sequence":62,"DirectionPointType":206,"StopID":null,"DisplayText":"Make a sharp left on Court St","ArrivalTime":null,"ArrivalUTCOffset":null,"Name":"Court St","ExitName":null,"AlternateName":null,"IntersectingName":null,"BranchName":null,"TowardName":null,"Level":null,"ShortVoiceInstruction":"Make a sharp left","VoiceInstruction":"Make a sharp left on Court Street","Azimuth":309.42813110351562}},{"type":"Feature","id":63,"geometry":{"type":"Point","coordinates":[-72.519338635999986,43.624198039000078]},"properties":{"ObjectID":63,"RouteID":1,"Sequence":63,"DirectionPointType":305,"StopID":null,"DisplayText":"At the stop sign, turn right on The Grn (US-4 E)","ArrivalTime":null,"ArrivalUTCOffset":null,"Name":"The Grn","ExitName":null,"AlternateName":"US-4 E","IntersectingName":null,"BranchName":null,"TowardName":null,"Level":null,"ShortVoiceInstruction":"Turn right","VoiceInstruction":"At the stop sign, turn right on The Green (US  U.S. 4)","Azimuth":47.519538879394531}},{"type":"Feature","id":64,"geometry":{"type":"Point","coordinates":[-72.518614160999959,43.62500632900003]},"properties":{"ObjectID":64,"RouteID":1,"Sequence":64,"DirectionPointType":304,"StopID":null,"DisplayText":"Bear right on Central St (US-4 E)","ArrivalTime":null,"ArrivalUTCOffset":null,"Name":"Central St","ExitName":null,"AlternateName":"US-4 E","IntersectingName":null,"BranchName":null,"TowardName":null,"Level":null,"ShortVoiceInstruction":"Bear right","VoiceInstruction":"Bear right on Central Street (US  U.S. 4)","Azimuth":65.773490905761719}},{"type":"Feature","id":65,"geometry":{"type":"Point","coordinates":[-72.518422387999976,43.62509293100004]},"properties":{"ObjectID":65,"RouteID":1,"Sequence":65,"DirectionPointType":205,"StopID":null,"DisplayText":"Turn left on Elm St (VT Route 12)","ArrivalTime":null,"ArrivalUTCOffset":null,"Name":"Elm St","ExitName":null,"AlternateName":"VT Route 12","IntersectingName":null,"BranchName":null,"TowardName":null,"Level":null,"ShortVoiceInstruction":"Turn left","VoiceInstruction":"Turn left on Elm Street (VT Route 12)","Azimuth":342.8525390625}},{"type":"Feature","id":66,"geometry":{"type":"Point","coordinates":[-72.517101284999967,43.632205882000051]},"properties":{"ObjectID":66,"RouteID":1,"Sequence":66,"DirectionPointType":304,"StopID":null,"DisplayText":"Bear right on River Rd","ArrivalTime":null,"ArrivalUTCOffset":null,"Name":"River Rd","ExitName":null,"AlternateName":null,"IntersectingName":null,"BranchName":null,"TowardName":null,"Level":null,"ShortVoiceInstruction":"Bear right","VoiceInstruction":"Bear right on River Road","Azimuth":359.4791259765625}},{"type":"Feature","id":67,"geometry":{"type":"Point","coordinates":[-72.516589890999967,43.633031492000043]},"properties":{"ObjectID":67,"RouteID":1,"Sequence":67,"DirectionPointType":305,"StopID":null,"DisplayText":"Turn right","ArrivalTime":null,"ArrivalUTCOffset":null,"Name":null,"ExitName":null,"AlternateName":null,"IntersectingName":null,"BranchName":null,"TowardName":null,"Level":null,"ShortVoiceInstruction":"Turn right","VoiceInstruction":"Turn right","Azimuth":124.30180358886719}},{"type":"Feature","id":68,"geometry":{"type":"Point","coordinates":[-72.516589890999967,43.633031492000043]},"properties":{"ObjectID":68,"RouteID":1,"Sequence":68,"DirectionPointType":1006,"StopID":null,"DisplayText":"Restriction: Through Traffic Prohibited","ArrivalTime":null,"ArrivalUTCOffset":null,"Name":"Through Traffic Prohibited","ExitName":null,"AlternateName":null,"IntersectingName":null,"BranchName":null,"TowardName":null,"Level":null,"ShortVoiceInstruction":null,"VoiceInstruction":"Restriction: Through Traffic Prohibited","Azimuth":null}},{"type":"Feature","id":69,"geometry":{"type":"Point","coordinates":[-72.515768299999934,43.631745200000069]},"properties":{"ObjectID":69,"RouteID":1,"Sequence":69,"DirectionPointType":50,"StopID":7,"DisplayText":"Arrive at Billings Farm & Museum, on the left","ArrivalTime":null,"ArrivalUTCOffset":null,"Name":"Billings Farm & Museum","ExitName":null,"AlternateName":null,"IntersectingName":null,"BranchName":null,"TowardName":null,"Level":null,"ShortVoiceInstruction":"Arrive","VoiceInstruction":"Arrive at Billings Farm & Museum, on the left","Azimuth":null}},{"type":"Feature","id":70,"geometry":{"type":"Point","coordinates":[-72.515768299999934,43.631745200000069]},"properties":{"ObjectID":70,"RouteID":1,"Sequence":70,"DirectionPointType":51,"StopID":7,"DisplayText":"Depart Billings Farm & Museum","ArrivalTime":null,"ArrivalUTCOffset":null,"Name":"Billings Farm & Museum","ExitName":null,"AlternateName":null,"IntersectingName":null,"BranchName":null,"TowardName":null,"Level":null,"ShortVoiceInstruction":"Depart","VoiceInstruction":"Depart Billings Farm & Museum","Azimuth":null}},{"type":"Feature","id":71,"geometry":{"type":"Point","coordinates":[-72.515768299999934,43.631745200000069]},"properties":{"ObjectID":71,"RouteID":1,"Sequence":71,"DirectionPointType":52,"StopID":null,"DisplayText":"Go west","ArrivalTime":null,"ArrivalUTCOffset":null,"Name":null,"ExitName":null,"AlternateName":null,"IntersectingName":null,"BranchName":null,"TowardName":null,"Level":null,"ShortVoiceInstruction":"Continue forward","VoiceInstruction":"Go west","Azimuth":281.64608764648438}},{"type":"Feature","id":72,"geometry":{"type":"Point","coordinates":[-72.51678166399995,43.632887155000049]},"properties":{"ObjectID":72,"RouteID":1,"Sequence":72,"DirectionPointType":205,"StopID":null,"DisplayText":"Turn left on River Rd","ArrivalTime":null,"ArrivalUTCOffset":null,"Name":"River Rd","ExitName":null,"AlternateName":null,"IntersectingName":null,"BranchName":null,"TowardName":null,"Level":null,"ShortVoiceInstruction":"Turn left","VoiceInstruction":"Turn left on River Road","Azimuth":232.81954956054688}},{"type":"Feature","id":73,"geometry":{"type":"Point","coordinates":[-72.51759137199997,43.632673535000038]},"properties":{"ObjectID":73,"RouteID":1,"Sequence":73,"DirectionPointType":206,"StopID":null,"DisplayText":"At the stop sign, make a sharp left on River Rd (VT-12)","ArrivalTime":null,"ArrivalUTCOffset":null,"Name":"River Rd","ExitName":null,"AlternateName":"VT-12","IntersectingName":null,"BranchName":null,"TowardName":null,"Level":null,"ShortVoiceInstruction":"Make a sharp left","VoiceInstruction":"At the stop sign, make a sharp left on River Road (VT  Vermont 12)","Azimuth":120.633056640625}},{"type":"Feature","id":74,"geometry":{"type":"Point","coordinates":[-72.517101284999967,43.632205882000051]},"properties":{"ObjectID":74,"RouteID":1,"Sequence":74,"DirectionPointType":52,"StopID":null,"DisplayText":"Continue forward on Elm St (VT-12)","ArrivalTime":null,"ArrivalUTCOffset":null,"Name":"Elm St","ExitName":null,"AlternateName":"VT-12","IntersectingName":null,"BranchName":null,"TowardName":null,"Level":null,"ShortVoiceInstruction":"Continue on Elm Street","VoiceInstruction":"Continue forward on Elm Street (VT  Vermont 12)","Azimuth":158.33883666992188}},{"type":"Feature","id":75,"geometry":{"type":"Point","coordinates":[-72.518401079999933,43.626940451000053]},"properties":{"ObjectID":75,"RouteID":1,"Sequence":75,"DirectionPointType":205,"StopID":null,"DisplayText":"Turn left on Pleasant St (VT-12)","ArrivalTime":null,"ArrivalUTCOffset":null,"Name":"Pleasant St","ExitName":null,"AlternateName":"VT-12","IntersectingName":null,"BranchName":null,"TowardName":null,"Level":null,"ShortVoiceInstruction":"Turn left","VoiceInstruction":"Turn left on Pleasant Street (VT  Vermont 12)","Azimuth":90.04241943359375}},{"type":"Feature","id":76,"geometry":{"type":"Point","coordinates":[-72.507022553999946,43.626547853000034]},"properties":{"ObjectID":76,"RouteID":1,"Sequence":76,"DirectionPointType":204,"StopID":null,"DisplayText":"Bear left on Woodstock Rd (US-4 E)","ArrivalTime":null,"ArrivalUTCOffset":null,"Name":"Woodstock Rd","ExitName":null,"AlternateName":"US-4 E","IntersectingName":null,"BranchName":null,"TowardName":null,"Level":null,"ShortVoiceInstruction":"Bear left","VoiceInstruction":"Bear left on Woodstock Road (US  U.S. 4)","Azimuth":37.776039123535156}},{"type":"Feature","id":77,"geometry":{"type":"Point","coordinates":[-72.467900879999945,43.630046593000031]},"properties":{"ObjectID":77,"RouteID":1,"Sequence":77,"DirectionPointType":52,"StopID":null,"DisplayText":"Continue forward on US Route 4 (US-4 E)","ArrivalTime":null,"ArrivalUTCOffset":null,"Name":"US Route 4","ExitName":null,"AlternateName":"US-4 E","IntersectingName":null,"BranchName":null,"TowardName":null,"Level":null,"ShortVoiceInstruction":"Continue on US Route 4","VoiceInstruction":"Continue forward on US Route 4 (US  U.S. 4)","Azimuth":122.54873657226562}},{"type":"Feature","id":78,"geometry":{"type":"Point","coordinates":[-72.458823628999937,43.626934677000065]},"properties":{"ObjectID":78,"RouteID":1,"Sequence":78,"DirectionPointType":52,"StopID":null,"DisplayText":"Continue forward on Woodstock Rd (US-4 E)","ArrivalTime":null,"ArrivalUTCOffset":null,"Name":"Woodstock Rd","ExitName":null,"AlternateName":"US-4 E","IntersectingName":null,"BranchName":null,"TowardName":null,"Level":null,"ShortVoiceInstruction":"Continue on Woodstock Road","VoiceInstruction":"Continue forward on Woodstock Road (US  U.S. 4)","Azimuth":99.059921264648438}},{"type":"Feature","id":79,"geometry":{"type":"Point","coordinates":[-72.408413011999983,43.637346635000029]},"properties":{"ObjectID":79,"RouteID":1,"Sequence":79,"DirectionPointType":50,"StopID":10,"DisplayText":"Arrive at Quechee Gorge, on the right","ArrivalTime":null,"ArrivalUTCOffset":null,"Name":"Quechee Gorge","ExitName":null,"AlternateName":null,"IntersectingName":null,"BranchName":null,"TowardName":null,"Level":null,"ShortVoiceInstruction":"Arrive","VoiceInstruction":"Arrive at Quechee Gorge, on the right","Azimuth":null}},{"type":"Feature","id":80,"geometry":{"type":"Point","coordinates":[-72.408413011999983,43.637346635000029]},"properties":{"ObjectID":80,"RouteID":1,"Sequence":80,"DirectionPointType":51,"StopID":10,"DisplayText":"Depart Quechee Gorge","ArrivalTime":null,"ArrivalUTCOffset":null,"Name":"Quechee Gorge","ExitName":null,"AlternateName":null,"IntersectingName":null,"BranchName":null,"TowardName":null,"Level":null,"ShortVoiceInstruction":"Depart","VoiceInstruction":"Depart Quechee Gorge","Azimuth":null}},{"type":"Feature","id":81,"geometry":{"type":"Point","coordinates":[-72.408413011999983,43.637346635000029]},"properties":{"ObjectID":81,"RouteID":1,"Sequence":81,"DirectionPointType":52,"StopID":null,"DisplayText":"Continue east on Woodstock Rd (US-4 E)","ArrivalTime":null,"ArrivalUTCOffset":null,"Name":"Woodstock Rd","ExitName":null,"AlternateName":"US-4 E","IntersectingName":null,"BranchName":null,"TowardName":null,"Level":null,"ShortVoiceInstruction":"Continue on Woodstock Road","VoiceInstruction":"Continue east on Woodstock Road (US  U.S. 4)","Azimuth":103.5850830078125}},{"type":"Feature","id":82,"geometry":{"type":"Point","coordinates":[-72.387569338999981,43.662124154000026]},"properties":{"ObjectID":82,"RouteID":1,"Sequence":82,"DirectionPointType":305,"StopID":null,"DisplayText":"Turn right","ArrivalTime":null,"ArrivalUTCOffset":null,"Name":null,"ExitName":null,"AlternateName":null,"IntersectingName":null,"BranchName":null,"TowardName":null,"Level":null,"ShortVoiceInstruction":"Turn right","VoiceInstruction":"Turn right","Azimuth":79.030242919921875}},{"type":"Feature","id":83,"geometry":{"type":"Point","coordinates":[-72.385395912999968,43.662672636000025]},"properties":{"ObjectID":83,"RouteID":1,"Sequence":83,"DirectionPointType":52,"StopID":null,"DisplayText":"Take the exit to merge onto I-89 S","ArrivalTime":null,"ArrivalUTCOffset":null,"Name":"I-89 S","ExitName":null,"AlternateName":null,"IntersectingName":null,"BranchName":null,"TowardName":null,"Level":null,"ShortVoiceInstruction":"Continue on I  I 89","VoiceInstruction":"Take the exit to merge onto I  I 89","Azimuth":61.689365386962891}},{"type":"Feature","id":84,"geometry":{"type":"Point","coordinates":[-72.329568687999938,43.634821277000071]},"properties":{"ObjectID":84,"RouteID":1,"Sequence":84,"DirectionPointType":1005,"StopID":null,"DisplayText":"Entering New Hampshire","ArrivalTime":null,"ArrivalUTCOffset":null,"Name":null,"ExitName":null,"AlternateName":null,"IntersectingName":null,"BranchName":null,"TowardName":null,"Level":null,"ShortVoiceInstruction":null,"VoiceInstruction":"Entering New Hampshire","Azimuth":null}},{"type":"Feature","id":85,"geometry":{"type":"Point","coordinates":[-71.533284953999953,43.168969188000062]},"properties":{"ObjectID":85,"RouteID":1,"Sequence":85,"DirectionPointType":301,"StopID":null,"DisplayText":"Take the exit on the right to merge onto I-93 S toward Manchester / Boston","ArrivalTime":null,"ArrivalUTCOffset":null,"Name":null,"ExitName":null,"AlternateName":null,"IntersectingName":null,"BranchName":"I-93 S","TowardName":"Manchester / Boston","Level":null,"ShortVoiceInstruction":"Take ramp right","VoiceInstruction":"Take the exit on the right to merge onto I 93 S toward Manchester, Boston","Azimuth":79.53179931640625}},{"type":"Feature","id":86,"geometry":{"type":"Point","coordinates":[-71.471555385999977,43.064797945000066]},"properties":{"ObjectID":86,"RouteID":1,"Sequence":86,"DirectionPointType":300,"StopID":null,"DisplayText":"Keep right at the fork onto I-93 S toward Salem / Boston","ArrivalTime":null,"ArrivalUTCOffset":null,"Name":null,"ExitName":null,"AlternateName":null,"IntersectingName":null,"BranchName":"I-93 S","TowardName":"Salem / Boston","Level":null,"ShortVoiceInstruction":"Keep right","VoiceInstruction":"Keep right at the fork onto I 93 S toward Salem, Boston","Azimuth":189.6693115234375}},{"type":"Feature","id":87,"geometry":{"type":"Point","coordinates":[-71.423058147999939,42.996838088000061]},"properties":{"ObjectID":87,"RouteID":1,"Sequence":87,"DirectionPointType":300,"StopID":null,"DisplayText":"Keep right at the fork onto I-93 S toward NH-101 W / Salem / Boston","ArrivalTime":null,"ArrivalUTCOffset":null,"Name":null,"ExitName":null,"AlternateName":null,"IntersectingName":null,"BranchName":"I-93 S","TowardName":"NH-101 W / Salem / Boston","Level":null,"ShortVoiceInstruction":"Keep right","VoiceInstruction":"Keep right at the fork onto I 93 S toward New Hampshire 1 oh 1 W, Salem, Boston","Azimuth":110.03669738769531}},{"type":"Feature","id":88,"geometry":{"type":"Point","coordinates":[-71.413810431999934,42.969431288000067]},"properties":{"ObjectID":88,"RouteID":1,"Sequence":88,"DirectionPointType":200,"StopID":null,"DisplayText":"Keep left at the fork onto I-93 S toward Derry / Boston","ArrivalTime":null,"ArrivalUTCOffset":null,"Name":null,"ExitName":null,"AlternateName":null,"IntersectingName":null,"BranchName":"I-93 S","TowardName":"Derry / Boston","Level":null,"ShortVoiceInstruction":"Keep left","VoiceInstruction":"Keep left at the fork onto I 93 S toward Derry, Boston","Azimuth":174.66879272460938}},{"type":"Feature","id":89,"geometry":{"type":"Point","coordinates":[-71.210403299999939,42.743739438000034]},"properties":{"ObjectID":89,"RouteID":1,"Sequence":89,"DirectionPointType":1005,"StopID":null,"DisplayText":"Entering Massachusetts","ArrivalTime":null,"ArrivalUTCOffset":null,"Name":null,"ExitName":null,"AlternateName":null,"IntersectingName":null,"BranchName":null,"TowardName":null,"Level":null,"ShortVoiceInstruction":null,"VoiceInstruction":"Entering Massachusetts","Azimuth":null}},{"type":"Feature","id":90,"geometry":{"type":"Point","coordinates":[-71.058178225999939,42.363785467000071]},"properties":{"ObjectID":90,"RouteID":1,"Sequence":90,"DirectionPointType":301,"StopID":null,"DisplayText":"Take exit 17B-A on the right toward MA-1A / Airport / Gov't Ctr","ArrivalTime":null,"ArrivalUTCOffset":null,"Name":null,"ExitName":"17B-A","AlternateName":null,"IntersectingName":null,"BranchName":null,"TowardName":"MA-1A / Airport / Gov't Ctr","Level":null,"ShortVoiceInstruction":"Take ramp right","VoiceInstruction":"Take exit 17B A on the right toward Massachusetts 1A, Airport, Gov't Center","Azimuth":166.36140441894531}},{"type":"Feature","id":91,"geometry":{"type":"Point","coordinates":[-71.057283285999972,42.362428694000073]},"properties":{"ObjectID":91,"RouteID":1,"Sequence":91,"DirectionPointType":200,"StopID":null,"DisplayText":"Keep left at exit 17B to merge onto MA-1A toward Airport","ArrivalTime":null,"ArrivalUTCOffset":null,"Name":null,"ExitName":"17B","AlternateName":null,"IntersectingName":null,"BranchName":"MA-1A","TowardName":"Airport","Level":null,"ShortVoiceInstruction":"Keep left","VoiceInstruction":"Keep left at exit 17B to merge onto Massachusetts 1A toward Airport","Azimuth":123.91741943359375}},{"type":"Feature","id":92,"geometry":{"type":"Point","coordinates":[-71.03819122699997,42.37325977900008]},"properties":{"ObjectID":92,"RouteID":1,"Sequence":92,"DirectionPointType":1000,"StopID":null,"DisplayText":"Keep left at the fork to stay on William F McClellan Hwy N (MA-1A N) toward NORTH 1A / LOGAN AIRPORT","ArrivalTime":null,"ArrivalUTCOffset":null,"Name":"William F McClellan Hwy N","ExitName":null,"AlternateName":"MA-1A N","IntersectingName":null,"BranchName":null,"TowardName":"NORTH 1A / LOGAN AIRPORT","Level":null,"ShortVoiceInstruction":null,"VoiceInstruction":"Keep left at the fork to stay on William F McClellan Highway North (MA  Massachusetts 1A) toward NORTH 1A, LOGAN AIRPORT","Azimuth":null}},{"type":"Feature","id":93,"geometry":{"type":"Point","coordinates":[-71.034163995999961,42.372503450000067]},"properties":{"ObjectID":93,"RouteID":1,"Sequence":93,"DirectionPointType":301,"StopID":null,"DisplayText":"Take the exit on the right toward Logan Airport","ArrivalTime":null,"ArrivalUTCOffset":null,"Name":null,"ExitName":null,"AlternateName":null,"IntersectingName":null,"BranchName":null,"TowardName":"Logan Airport","Level":null,"ShortVoiceInstruction":"Take ramp right","VoiceInstruction":"Take the exit on the right toward Logan Airport","Azimuth":107.9400634765625}},{"type":"Feature","id":94,"geometry":{"type":"Point","coordinates":[-71.030816199999947,42.373825100000033]},"properties":{"ObjectID":94,"RouteID":1,"Sequence":94,"DirectionPointType":1001,"StopID":null,"DisplayText":"Cross over the railroad track","ArrivalTime":null,"ArrivalUTCOffset":null,"Name":null,"ExitName":null,"AlternateName":null,"IntersectingName":null,"BranchName":null,"TowardName":null,"Level":null,"ShortVoiceInstruction":null,"VoiceInstruction":"Cross over the railroad track","Azimuth":null}},{"type":"Feature","id":95,"geometry":{"type":"Point","coordinates":[-71.027430635999963,42.371152452000047]},"properties":{"ObjectID":95,"RouteID":1,"Sequence":95,"DirectionPointType":52,"StopID":null,"DisplayText":"Continue forward on Terminal Access Rd toward Departures / Parking / Cell Phone Lot / Ride App / Terminal B","ArrivalTime":null,"ArrivalUTCOffset":null,"Name":"Terminal Access Rd","ExitName":null,"AlternateName":null,"IntersectingName":null,"BranchName":null,"TowardName":"Departures / Parking / Cell Phone Lot / Ride App / Terminal B","Level":null,"ShortVoiceInstruction":"Continue on Terminal Access Road","VoiceInstruction":"Continue forward on Terminal Access Road toward Departures, Parking, Cell Phone Lot, Ride App, Terminal B","Azimuth":128.92752075195312}},{"type":"Feature","id":96,"geometry":{"type":"Point","coordinates":[-71.026663544999963,42.370032393000031]},"properties":{"ObjectID":96,"RouteID":1,"Sequence":96,"DirectionPointType":300,"StopID":null,"DisplayText":"Keep right at the fork toward Terminals / Departing Aircraft / Economy / Cell Phone Lot / Gen. Aviation","ArrivalTime":null,"ArrivalUTCOffset":null,"Name":null,"ExitName":null,"AlternateName":null,"IntersectingName":null,"BranchName":null,"TowardName":"Terminals / Departing Aircraft / Economy / Cell Phone Lot / Gen. Aviation","Level":null,"ShortVoiceInstruction":"Keep right","VoiceInstruction":"Keep right at the fork toward Terminals, Departing Aircraft, Economy, Cell Phone Lot, Gen. Aviation","Azimuth":182.57861328125}},{"type":"Feature","id":97,"geometry":{"type":"Point","coordinates":[-71.022977242999957,42.366008264000072]},"properties":{"ObjectID":97,"RouteID":1,"Sequence":97,"DirectionPointType":200,"StopID":null,"DisplayText":"Keep left at the fork toward Terminals E C / Terminal B","ArrivalTime":null,"ArrivalUTCOffset":null,"Name":null,"ExitName":null,"AlternateName":null,"IntersectingName":null,"BranchName":null,"TowardName":"Terminals E C / Terminal B","Level":null,"ShortVoiceInstruction":"Keep left","VoiceInstruction":"Keep left at the fork toward Terminals E C, Terminal B","Azimuth":101.75888824462891}},{"type":"Feature","id":98,"geometry":{"type":"Point","coordinates":[-71.020036724999954,42.364870885000073]},"properties":{"ObjectID":98,"RouteID":1,"Sequence":98,"DirectionPointType":200,"StopID":null,"DisplayText":"Keep left at the fork onto Terminal Access Rd (Terminal Rd)","ArrivalTime":null,"ArrivalUTCOffset":null,"Name":"Terminal Access Rd","ExitName":null,"AlternateName":"Terminal Rd","IntersectingName":null,"BranchName":null,"TowardName":null,"Level":null,"ShortVoiceInstruction":"Keep left","VoiceInstruction":"Keep left at the fork onto Terminal Access Road (Terminal Road)","Azimuth":104.86203002929688}},{"type":"Feature","id":99,"geometry":{"type":"Point","coordinates":[-71.019546638999941,42.364778509000075]},"properties":{"ObjectID":99,"RouteID":1,"Sequence":99,"DirectionPointType":200,"StopID":null,"DisplayText":"Keep left at the fork onto Terminal Access Rd (Terminal Rd)","ArrivalTime":null,"ArrivalUTCOffset":null,"Name":"Terminal Access Rd","ExitName":null,"AlternateName":"Terminal Rd","IntersectingName":null,"BranchName":null,"TowardName":null,"Level":null,"ShortVoiceInstruction":"Keep left","VoiceInstruction":"Keep left at the fork onto Terminal Access Road (Terminal Road)","Azimuth":90.219024658203125}},{"type":"Feature","id":100,"geometry":{"type":"Point","coordinates":[-71.017969839999978,42.365823512000077]},"properties":{"ObjectID":100,"RouteID":1,"Sequence":100,"DirectionPointType":300,"StopID":null,"DisplayText":"Keep right at the fork onto Terminal C","ArrivalTime":null,"ArrivalUTCOffset":null,"Name":"Terminal C","ExitName":null,"AlternateName":null,"IntersectingName":null,"BranchName":null,"TowardName":null,"Level":null,"ShortVoiceInstruction":"Keep right","VoiceInstruction":"Keep right at the fork onto Terminal C","Azimuth":56.973384857177734}},{"type":"Feature","id":101,"geometry":{"type":"Point","coordinates":[-71.017543677999981,42.366031358000043]},"properties":{"ObjectID":101,"RouteID":1,"Sequence":101,"DirectionPointType":300,"StopID":null,"DisplayText":"Keep right at the fork onto Terminal C","ArrivalTime":null,"ArrivalUTCOffset":null,"Name":"Terminal C","ExitName":null,"AlternateName":null,"IntersectingName":null,"BranchName":null,"TowardName":null,"Level":null,"ShortVoiceInstruction":"Keep right","VoiceInstruction":"Keep right at the fork onto Terminal C","Azimuth":67.934471130371094}},{"type":"Feature","id":102,"geometry":{"type":"Point","coordinates":[-71.017139799999939,42.36630480000008]},"properties":{"ObjectID":102,"RouteID":1,"Sequence":102,"DirectionPointType":50,"StopID":8,"DisplayText":"Finish at Boston Logan International Airport, on the right","ArrivalTime":null,"ArrivalUTCOffset":null,"Name":"Boston Logan International Airport","ExitName":null,"AlternateName":null,"IntersectingName":null,"BranchName":null,"TowardName":null,"Level":null,"ShortVoiceInstruction":"Finish","VoiceInstruction":"Finish at Boston Logan International Airport, on the right","Azimuth":null}}]}